{"type": "FeatureCollection", "features": [{"type": "Feature", "properties": {"name": "Centro", "styleUrl": "#poly-000000-1200-77-nodesc"}, "geometry": {"type": "Polygon", "coordinates": [[[-40.845651, -14.8421713, 0.0], [-40.847685, -14.8448284, 0.0], [-40.8494504, -14.859899, 0.0], [-40.8457261, -14.8580566, 0.0], [-40.8417166, -14.8572778, 0.0], [-40.8335509, -14.8534232, 0.0], [-40.8359971, -14.8510795, 0.0], [-40.8357386, -14.8487307, 0.0], [-40.8352655, -14.8463196, 0.0], [-40.8415311, -14.8453033, 0.0], [-40.8437198, -14.8444736, 0.0], [-40.845651, -14.8421713, 0.0]]]}}, {"type": "Feature", "properties": {"name": "Brasil", "styleUrl": "#poly-000000-1200-77-nodesc"}, "geometry": {"type": "Polygon", "coordinates": [[[-40.8507381, -14.8692708, 0.0], [-40.8493218, -14.859523, 0.0], [-40.8482061, -14.8513929, 0.0], [-40.8594256, -14.8493562, 0.0], [-40.8610378, -14.8572418, 0.0], [-40.8594284, -14.8644593, 0.0], [-40.858951, -14.8665281, 0.0], [-40.8585487, -14.8685242, 0.0], [-40.8507381, -14.8692708, 0.0]]]}}, {"type": "Feature", "properties": {"name": "Jurema", "styleUrl": "#poly-000000-1200-77-nodesc"}, "geometry": {"type": "Polygon", "coordinates": [[[-40.8518968, -14.872672, 0.0], [-40.8535705, -14.8761146, 0.0], [-40.8487385, -14.8775327, 0.0], [-40.8446401, -14.8776778, 0.0], [-40.8445501, -14.8707669, 0.0], [-40.8448345, -14.862803, 0.0], [-40.8417166, -14.8572778, 0.0], [-40.8457261, -14.8580566, 0.0], [-40.8494504, -14.859899, 0.0], [-40.8518968, -14.872672, 0.0]]]}}, {"type": "Feature", "properties": {"name": "Ibirapuera", "styleUrl": "#poly-000000-1200-77-nodesc"}, "geometry": {"type": "Polygon", "coordinates": [[[-40.8484208, -14.8511855, 0.0], [-40.8477065, -14.8449529, 0.0], [-40.8461761, -14.842837, 0.0], [-40.8466214, -14.8423523, 0.0], [-40.8472759, -14.8423912, 0.0], [-40.8477694, -14.8416808, 0.0], [-40.8484024, -14.8407578, 0.0], [-40.8493465, -14.8396792, 0.0], [-40.8617062, -14.8269848, 0.0], [-40.8678001, -14.8479758, 0.0], [-40.8484208, -14.8511855, 0.0]]]}}, {"type": "Feature", "properties": {"name": "Zabel\u00ea", "styleUrl": "#poly-000000-1200-77-nodesc"}, "geometry": {"type": "Polygon", "coordinates": [[[-40.8616634, -14.8265803, 0.0], [-40.8644069, -14.8204625, 0.0], [-40.8668101, -14.8181392, 0.0], [-40.8668101, -14.8068542, 0.0], [-40.9315262, -14.8422735, 0.0], [-40.8996423, -14.843946, 0.0], [-40.8945484, -14.8444596, 0.0], [-40.8891541, -14.845239, 0.0], [-40.8678001, -14.8479758, 0.0], [-40.8616634, -14.8265803, 0.0]]]}}, {"type": "Feature", "properties": {"name": "S\u00e3o Pedro", "styleUrl": "#poly-000000-1200-77-nodesc"}, "geometry": {"type": "Polygon", "coordinates": [[[-40.9315477, -14.8422735, 0.0], [-40.8909566, -14.8733003, 0.0], [-40.8856351, -14.8696503, 0.0], [-40.8854635, -14.8650047, 0.0], [-40.8768804, -14.8590316, 0.0], [-40.8891541, -14.845239, 0.0], [-40.8942802, -14.8444681, 0.0], [-40.8996423, -14.843946, 0.0], [-40.9315477, -14.8422735, 0.0]]]}}, {"type": "Feature", "properties": {"name": "Bateias", "styleUrl": "#poly-000000-1200-77-nodesc"}, "geometry": {"type": "Polygon", "coordinates": [[[-40.8891541, -14.845239, 0.0], [-40.8768804, -14.8590316, 0.0], [-40.8717222, -14.8661661, 0.0], [-40.8713789, -14.8729685, 0.0], [-40.8585487, -14.8685242, 0.0], [-40.8610378, -14.8572418, 0.0], [-40.8594256, -14.8493562, 0.0], [-40.871641, -14.8474884, 0.0], [-40.8797091, -14.8463517, 0.0], [-40.8832303, -14.8459991, 0.0], [-40.8891541, -14.845239, 0.0]]]}}, {"type": "Feature", "properties": {"name": "Patag\u00f4nia", "styleUrl": "#poly-000000-1200-77-nodesc"}, "geometry": {"type": "Polygon", "coordinates": [[[-40.8713789, -14.8729685, 0.0], [-40.8703668, -14.8898107, 0.0], [-40.864485, -14.894095, 0.0], [-40.8630337, -14.8917156, 0.0], [-40.852219, -14.8733003, 0.0], [-40.8507381, -14.8692708, 0.0], [-40.8585487, -14.8685242, 0.0], [-40.8713789, -14.8729685, 0.0]]]}}, {"type": "Feature", "properties": {"name": "Jatob\u00e1", "styleUrl": "#poly-000000-1200-77-nodesc"}, "geometry": {"type": "GeometryCollection", "geometries": [{"type": "Polygon", "coordinates": [[[-40.864485, -14.894095, 0.0], [-40.8631839, -14.8917363, 0.0], [-40.8645757, -14.8940289, 0.0], [-40.864485, -14.894095, 0.0]]]}, {"type": "Polygon", "coordinates": [[[-40.8645757, -14.8940289, 0.0], [-40.8703668, -14.8898107, 0.0], [-40.8713789, -14.8729685, 0.0], [-40.8904462, -14.8851652, 0.0], [-40.9160237, -14.9146936, 0.0], [-40.8876996, -14.93211, 0.0], [-40.8645757, -14.8940289, 0.0]]]}]}}, {"type": "Feature", "properties": {"name": "Campinhos", "styleUrl": "#poly-000000-1200-77-nodesc"}, "geometry": {"type": "Polygon", "coordinates": [[[-40.9315262, -14.8422735, 0.0], [-40.931919, -14.8959953, 0.0], [-40.9240945, -14.9013528, 0.0], [-40.9227213, -14.9074906, 0.0], [-40.9160237, -14.9146936, 0.0], [-40.8904462, -14.8851652, 0.0], [-40.8713789, -14.8729685, 0.0], [-40.8717222, -14.8661661, 0.0], [-40.8768589, -14.8590316, 0.0], [-40.885442, -14.8650047, 0.0], [-40.8856136, -14.8696503, 0.0], [-40.8909351, -14.8733003, 0.0], [-40.9315262, -14.8422735, 0.0]]]}}, {"type": "Feature", "properties": {"name": "Fel\u00edcia", "styleUrl": "#poly-000000-1200-77-nodesc"}, "geometry": {"type": "Polygon", "coordinates": [[[-40.8447688, -14.8775948, 0.0], [-40.8488672, -14.8774497, 0.0], [-40.8536992, -14.8760316, 0.0], [-40.864485, -14.894095, 0.0], [-40.8516619, -14.9010859, 0.0], [-40.8481063, -14.9017482, 0.0], [-40.8445771, -14.9024033, 0.0], [-40.8445722, -14.9020993, 0.0], [-40.8447688, -14.8775948, 0.0]]]}}, {"type": "Feature", "properties": {"name": "Airton Senna", "styleUrl": "#poly-000000-1200-77-nodesc"}, "geometry": {"type": "Polygon", "coordinates": [[[-40.8876987, -14.9324391, 0.0], [-40.8669827, -14.9396517, 0.0], [-40.8527348, -14.9418078, 0.0], [-40.8493016, -14.9424712, 0.0], [-40.84707, -14.9449591, 0.0], [-40.8426068, -14.9449591, 0.0], [-40.8386586, -14.9467835, 0.0], [-40.8331654, -14.9466176, 0.0], [-40.8443234, -14.9215723, 0.0], [-40.8444425, -14.9025114, 0.0], [-40.8515332, -14.9011689, 0.0], [-40.864485, -14.894095, 0.0], [-40.8876987, -14.9324391, 0.0]]]}}, {"type": "Feature", "properties": {"name": "Esp\u00edrito Santo", "styleUrl": "#poly-000000-1200-77-nodesc"}, "geometry": {"type": "Polygon", "coordinates": [[[-40.8331654, -14.9466176, 0.0], [-40.7930947, -14.9328844, 0.0], [-40.794468, -14.9292354, 0.0], [-40.7937813, -14.9265815, 0.0], [-40.7961846, -14.9230982, 0.0], [-40.7996178, -14.9186196, 0.0], [-40.8011628, -14.9151362, 0.0], [-40.8025361, -14.9119845, 0.0], [-40.8032227, -14.9083351, 0.0], [-40.8087159, -14.8992114, 0.0], [-40.8095742, -14.8968889, 0.0], [-40.8094025, -14.8940687, 0.0], [-40.813694, -14.8877647, 0.0], [-40.825367, -14.8970548, 0.0], [-40.8327485, -14.8962253, 0.0], [-40.8404203, -14.9020458, 0.0], [-40.8406992, -14.9022532, 0.0], [-40.8413723, -14.9024517, 0.0], [-40.8430703, -14.9024916, 0.0], [-40.8444435, -14.9021823, 0.0], [-40.8443244, -14.9212432, 0.0], [-40.8331654, -14.9466176, 0.0]]]}}, {"type": "Feature", "properties": {"name": "Boa Vista", "styleUrl": "#poly-000000-1200-77-nodesc"}, "geometry": {"type": "Polygon", "coordinates": [[[-40.8307789, -14.8708743, 0.0], [-40.8319223, -14.8713995, 0.0], [-40.8445501, -14.8707669, 0.0], [-40.8444435, -14.9021823, 0.0], [-40.8430703, -14.9024916, 0.0], [-40.8413723, -14.9024517, 0.0], [-40.8406992, -14.9022532, 0.0], [-40.8327485, -14.8962253, 0.0], [-40.825367, -14.8970548, 0.0], [-40.813694, -14.8877647, 0.0], [-40.8162735, -14.8831619, 0.0], [-40.8198784, -14.8816687, 0.0], [-40.8221958, -14.8774381, 0.0], [-40.8245132, -14.8751154, 0.0], [-40.8307789, -14.8708743, 0.0]]]}}, {"type": "Feature", "properties": {"name": "Universidade", "styleUrl": "#poly-000000-1200-77-nodesc"}, "geometry": {"type": "Polygon", "coordinates": [[[-40.7932879, -14.9329051, 0.0], [-40.7899619, -14.9244712, 0.0], [-40.7830954, -14.9158458, 0.0], [-40.7339977, -14.8917101, 0.0], [-40.7267905, -14.8768611, 0.0], [-40.7452877, -14.864295, 0.0], [-40.7740194, -14.862035, 0.0], [-40.7980084, -14.8604149, 0.0], [-40.7987166, -14.878852, 0.0], [-40.8138872, -14.8877854, 0.0], [-40.8095957, -14.8940894, 0.0], [-40.8097674, -14.8969096, 0.0], [-40.8089091, -14.8992321, 0.0], [-40.8033944, -14.9083351, 0.0], [-40.8027614, -14.9118934, 0.0], [-40.7997895, -14.9186196, 0.0], [-40.7968177, -14.9224969, 0.0], [-40.7939745, -14.9266022, 0.0], [-40.7946612, -14.9292561, 0.0], [-40.7932879, -14.9329051, 0.0]]]}}, {"type": "Feature", "properties": {"name": "Candeias", "styleUrl": "#poly-000000-1200-77-nodesc"}, "geometry": {"type": "Polygon", "coordinates": [[[-40.7980084, -14.8604149, 0.0], [-40.8236221, -14.8540138, 0.0], [-40.8287572, -14.8569958, 0.0], [-40.8330488, -14.8597335, 0.0], [-40.8264579, -14.867828, 0.0], [-40.829698, -14.8700471, 0.0], [-40.8307789, -14.8708743, 0.0], [-40.8245132, -14.8751154, 0.0], [-40.8221958, -14.8774381, 0.0], [-40.8198784, -14.8816687, 0.0], [-40.8162735, -14.8831619, 0.0], [-40.813694, -14.8877647, 0.0], [-40.7987166, -14.878852, 0.0], [-40.7980084, -14.8604149, 0.0]]]}}, {"type": "Feature", "properties": {"name": "Primavera", "styleUrl": "#poly-000000-1200-77-nodesc"}, "geometry": {"type": "Polygon", "coordinates": [[[-40.743157, -14.8192242, 0.0], [-40.7672326, -14.83055, 0.0], [-40.7778756, -14.8380173, 0.0], [-40.7818239, -14.8454843, 0.0], [-40.7971017, -14.8527852, 0.0], [-40.810148, -14.8531171, 0.0], [-40.8128029, -14.8535857, 0.0], [-40.8132801, -14.853327, 0.0], [-40.8182816, -14.8534845, 0.0], [-40.8236221, -14.8540138, 0.0], [-40.7980084, -14.8604149, 0.0], [-40.6878018, -14.8685448, 0.0], [-40.6836602, -14.8390134, 0.0], [-40.6826035, -14.821008, 0.0], [-40.7095691, -14.8207611, 0.0], [-40.743157, -14.8192242, 0.0]]]}}, {"type": "Feature", "properties": {"name": "Alto Maron", "styleUrl": "#poly-000000-1200-77-nodesc"}, "geometry": {"type": "Polygon", "coordinates": [[[-40.8353084, -14.8463818, 0.0], [-40.8357386, -14.8487307, 0.0], [-40.8359971, -14.8510795, 0.0], [-40.8335509, -14.8534232, 0.0], [-40.8287572, -14.8569958, 0.0], [-40.8236221, -14.8540138, 0.0], [-40.8182816, -14.8534845, 0.0], [-40.8202995, -14.8506694, 0.0], [-40.8183576, -14.8503583, 0.0], [-40.817038, -14.8489375, 0.0], [-40.8134078, -14.8466898, 0.0], [-40.8182143, -14.8403844, 0.0], [-40.8247964, -14.8421578, 0.0], [-40.827302, -14.8437238, 0.0], [-40.8319472, -14.8450305, 0.0], [-40.8348654, -14.8450305, 0.0], [-40.8353084, -14.8463818, 0.0]]]}}, {"type": "Feature", "properties": {"name": "Guarani", "styleUrl": "#poly-000000-1200-77-nodesc"}, "geometry": {"type": "Polygon", "coordinates": [[[-40.8386005, -14.8458146, 0.0], [-40.8372058, -14.8423093, 0.0], [-40.8392013, -14.8413552, 0.0], [-40.8383859, -14.8399032, 0.0], [-40.8393944, -14.8388869, 0.0], [-40.8377207, -14.8355889, 0.0], [-40.835296, -14.8307765, 0.0], [-40.8374847, -14.8313573, 0.0], [-40.8447545, -14.8412556, 0.0], [-40.845651, -14.8421713, 0.0], [-40.8437198, -14.8444736, 0.0], [-40.8415311, -14.8453033, 0.0], [-40.8386005, -14.8458146, 0.0]]]}}, {"type": "Feature", "properties": {"name": "Cruzeiro", "styleUrl": "#poly-000000-1200-77-nodesc"}, "geometry": {"type": "GeometryCollection", "geometries": [{"type": "Polygon", "coordinates": [[[-40.8275116, -14.8286628, 0.0], [-40.8278549, -14.8282894, 0.0], [-40.827544, -14.8286813, 0.0], [-40.8275116, -14.8286628, 0.0]]]}, {"type": "Polygon", "coordinates": [[[-40.827544, -14.8286813, 0.0], [-40.8289447, -14.8294803, 0.0], [-40.835296, -14.8307765, 0.0], [-40.8393944, -14.8388869, 0.0], [-40.8383859, -14.8399032, 0.0], [-40.8392013, -14.8413552, 0.0], [-40.8372058, -14.8423093, 0.0], [-40.8386005, -14.8458146, 0.0], [-40.8352655, -14.8463196, 0.0], [-40.8348225, -14.8449683, 0.0], [-40.8319472, -14.8450305, 0.0], [-40.827302, -14.8437238, 0.0], [-40.8247964, -14.8421578, 0.0], [-40.8181714, -14.8403222, 0.0], [-40.8190622, -14.8394095, 0.0], [-40.8205642, -14.8374805, 0.0], [-40.827544, -14.8286813, 0.0]]]}]}}, {"type": "Feature", "properties": {"name": "Nossa Senhora Aparecida", "styleUrl": "#poly-000000-1200-77-nodesc"}, "geometry": {"type": "Polygon", "coordinates": [[[-40.8374847, -14.8313573, 0.0], [-40.8396151, -14.8297435, 0.0], [-40.8392718, -14.7987099, 0.0], [-40.8668101, -14.8068542, 0.0], [-40.8668101, -14.8181392, 0.0], [-40.8644069, -14.8204625, 0.0], [-40.8615344, -14.8271507, 0.0], [-40.8494859, -14.8393784, 0.0], [-40.8472973, -14.8422252, 0.0], [-40.8466429, -14.8421863, 0.0], [-40.8461761, -14.842837, 0.0], [-40.845651, -14.8421713, 0.0], [-40.8447545, -14.8412556, 0.0], [-40.8374847, -14.8313573, 0.0]]]}}, {"type": "Feature", "properties": {"name": "Distrito Industrial", "styleUrl": "#poly-000000-1200-77-nodesc"}, "geometry": {"type": "Polygon", "coordinates": [[[-40.7127298, -14.7689866, 0.0], [-40.7263289, -14.7555177, 0.0], [-40.8280084, -14.8001298, 0.0], [-40.8392718, -14.7987112, 0.0], [-40.8395722, -14.8297863, 0.0], [-40.8374847, -14.8313573, 0.0], [-40.835296, -14.8307778, 0.0], [-40.8289447, -14.8294816, 0.0], [-40.7127298, -14.7689866, 0.0]]]}}, {"type": "Feature", "properties": {"name": "Lagoa das Flores", "styleUrl": "#poly-000000-1200-77-nodesc"}, "geometry": {"type": "Polygon", "coordinates": [[[-40.7127298, -14.7689853, 0.0], [-40.8213056, -14.8255492, 0.0], [-40.8275116, -14.8286628, 0.0], [-40.825168, -14.8314818, 0.0], [-40.8205642, -14.8374805, 0.0], [-40.8180426, -14.8403014, 0.0], [-40.8134078, -14.8466898, 0.0], [-40.817038, -14.8489375, 0.0], [-40.8183576, -14.8503583, 0.0], [-40.8202995, -14.8506694, 0.0], [-40.8182816, -14.8534845, 0.0], [-40.8132801, -14.853327, 0.0], [-40.8128029, -14.8535857, 0.0], [-40.810148, -14.8531171, 0.0], [-40.8005761, -14.8528188, 0.0], [-40.7971017, -14.8527852, 0.0], [-40.7818239, -14.8454843, 0.0], [-40.7777039, -14.8379343, 0.0], [-40.7670609, -14.830467, 0.0], [-40.6863801, -14.7924627, 0.0], [-40.7127298, -14.7689853, 0.0]]]}}, {"type": "Feature", "properties": {"name": "Recreio", "styleUrl": "#poly-000000-1200-77-nodesc"}, "geometry": {"type": "Polygon", "coordinates": [[[-40.8444912, -14.8707669, 0.0], [-40.8393168, -14.8711041, 0.0], [-40.8319276, -14.8713995, 0.0], [-40.8307843, -14.8708743, 0.0], [-40.8297034, -14.8700471, 0.0], [-40.8264633, -14.867828, 0.0], [-40.8329899, -14.8597335, 0.0], [-40.8286983, -14.8569958, 0.0], [-40.833492, -14.8534232, 0.0], [-40.8417166, -14.8572778, 0.0], [-40.8448345, -14.862803, 0.0], [-40.8444912, -14.8707669, 0.0]]]}}], "name": "/tmp/outputs/"}