{"type":"FeatureCollection","features":[{"type":"Feature","properties":{"name":"Chácaras Primavera","styleUrl":"#poly-000000-1200-77-nodesc","parentBairro":"Primavera","is_reliable":false},"geometry":{"type":"Polygon","coordinates":[[[-40.7748884,-14.8455239,0],[-40.7775491,-14.8580928,0],[-40.7719701,-14.8593372,0],[-40.7691377,-14.8589224,0],[-40.7675069,-14.8589639,0],[-40.7630866,-14.8547743,0],[-40.7694381,-14.8450676,0],[-40.771541,-14.8461461,0],[-40.7726568,-14.8446527,0],[-40.7748884,-14.8455239,0]]]}},{"type":"Feature","properties":{"name":"Morada da Vitória","styleUrl":"#poly-000000-1200-77-nodesc","parentBairro":"Primavera","is_reliable":true},"geometry":{"type":"Polygon","coordinates":[[[-40.7981857,-14.8550712,0],[-40.7978853,-14.8565645,0],[-40.798765,-14.8583275,0],[-40.7992264,-14.8600904,0],[-40.7980299,-14.8604356,0],[-40.7845014,-14.861349,0],[-40.7843297,-14.8567239,0],[-40.7871407,-14.8565373,0],[-40.7977408,-14.8549818,0],[-40.7981857,-14.8550712,0]]]}},{"type":"Feature","properties":{"name":"Vivendas da Serra (Primavera)","styleUrl":"#poly-000000-1200-77-nodesc","parentBairro":"Primavera","is_reliable":true},"geometry":{"type":"Polygon","coordinates":[[[-40.8105456,-14.8551406,0],[-40.8057388,-14.8564816,0],[-40.8055028,-14.8562742,0],[-40.8052023,-14.8567097,0],[-40.8006748,-14.8579749,0],[-40.8003529,-14.8575808,0],[-40.7996019,-14.8582652,0],[-40.798765,-14.8583275,0],[-40.7978853,-14.8565645,0],[-40.7981857,-14.8550712,0],[-40.7988294,-14.8541172,0],[-40.8005761,-14.8528188,0],[-40.810148,-14.8531171,0],[-40.8107551,-14.8532194,0],[-40.8105456,-14.8551406,0]]]}},{"type":"Feature","properties":{"name":"Jorge Teixeira","styleUrl":"#poly-000000-1200-77-nodesc","parentBairro":"Primavera","is_reliable":true},"geometry":{"type":"Polygon","coordinates":[[[-40.798765,-14.8583275,0],[-40.7996019,-14.8582652,0],[-40.8003529,-14.8575808,0],[-40.8006748,-14.8579749,0],[-40.8052023,-14.8567097,0],[-40.8055028,-14.8562742,0],[-40.8057388,-14.8564816,0],[-40.8105456,-14.8551406,0],[-40.8121228,-14.8568932,0],[-40.7992264,-14.8600904,0],[-40.798765,-14.8583275,0]]]}},{"type":"Feature","properties":{"name":"Alto das Araras","styleUrl":"#poly-000000-1200-77-nodesc","parentBairro":"Candeias","is_reliable":true},"geometry":{"type":"Polygon","coordinates":[[[-40.8232359,-14.8545738,0],[-40.8197865,-14.8558526,0],[-40.8167984,-14.8577149,0],[-40.8142677,-14.8563565,0],[-40.8236221,-14.8540138,0],[-40.8232359,-14.8545738,0]]]}},{"type":"Feature","properties":{"name":"Boa Vista","styleUrl":"#poly-000000-1200-77-nodesc","parentBairro":"Jurema","is_reliable":true},"geometry":{"type":"Polygon","coordinates":[[[-40.8495864,-14.8706953,0],[-40.8448934,-14.862803,0],[-40.8417166,-14.8572778,0],[-40.8457261,-14.8580566,0],[-40.8494504,-14.859899,0],[-40.8507381,-14.8692708,0],[-40.8511742,-14.8704464,0],[-40.8495864,-14.8706953,0]]]}},{"type":"Feature","properties":{"name":"Vila Velha","styleUrl":"#poly-000000-1200-77-nodesc","parentBairro":"Boa Vista","is_reliable":false},"geometry":{"type":"Polygon","coordinates":[[[-40.8371946,-14.8754545,0],[-40.8371357,-14.87817,0],[-40.8371044,-14.8819438,0],[-40.8336641,-14.8819302,0],[-40.8320226,-14.8818473,0],[-40.8320148,-14.8782178,0],[-40.8321299,-14.873106,0],[-40.8337721,-14.8744279,0],[-40.8337721,-14.8754234,0],[-40.8371946,-14.8754545,0]]]}},{"type":"Feature","properties":{"name":"Morada do Parque","styleUrl":"#poly-000000-1200-77-nodesc","parentBairro":"Boa Vista","is_reliable":true},"geometry":{"type":"Polygon","coordinates":[[[-40.839129,-14.8749252,0],[-40.8371017,-14.8748019,0],[-40.8374235,-14.872417,0],[-40.8379331,-14.8718467,0],[-40.8381987,-14.8715252,0],[-40.8382282,-14.8711519,0],[-40.8393168,-14.8711041,0],[-40.839129,-14.8749252,0]]]}},{"type":"Feature","properties":{"name":"Vivendas da Serra (Boa Vista)","styleUrl":"#poly-000000-1200-77-nodesc","parentBairro":"Boa Vista","is_reliable":true},"geometry":{"type":"Polygon","coordinates":[[[-40.8371838,-14.8748012,0],[-40.8371946,-14.8754338,0],[-40.8337721,-14.8754027,0],[-40.8337721,-14.8744072,0],[-40.8321299,-14.8730853,0],[-40.8329113,-14.8715237,0],[-40.838292,-14.871044,0],[-40.8382282,-14.8711519,0],[-40.8381987,-14.8715252,0],[-40.8374235,-14.872417,0],[-40.8371838,-14.8748012,0]]]}},{"type":"Feature","properties":{"name":"Porto Seguro","styleUrl":"#poly-000000-1200-77-nodesc","parentBairro":"Boa Vista","is_reliable":true},"geometry":{"type":"Polygon","coordinates":[[[-40.8445238,-14.8932658,0],[-40.8446551,-14.896332,0],[-40.844474,-14.900591,0],[-40.840466,-14.900635,0],[-40.8406471,-14.8968441,0],[-40.840528,-14.8931487,0],[-40.8445238,-14.8932658,0]]]}},{"type":"Feature","properties":{"name":"Vila Guanabara","styleUrl":"#poly-000000-1200-77-nodesc","parentBairro":"Boa Vista","is_reliable":true},"geometry":{"type":"Polygon","coordinates":[[[-40.844508,-14.9005839,0],[-40.8444484,-14.9024863,0],[-40.8430703,-14.9024916,0],[-40.8413723,-14.9024517,0],[-40.8406992,-14.9022532,0],[-40.8404203,-14.9020458,0],[-40.8404846,-14.9005424,0],[-40.844508,-14.9005839,0]]]}},{"type":"Feature","properties":{"name":"Nossa Senhora de Fátima","styleUrl":"#poly-000000-1200-77-nodesc","parentBairro":"Recreio","is_reliable":true},"geometry":{"type":"Polygon","coordinates":[[[-40.8330488,-14.8597335,0],[-40.8377447,-14.8618343,0],[-40.8349038,-14.8652316,0],[-40.8353866,-14.8655323,0],[-40.8364787,-14.8665214,0],[-40.8331098,-14.8694249,0],[-40.8307789,-14.8708743,0],[-40.8264579,-14.867828,0],[-40.8330488,-14.8597335,0]]]}},{"type":"Feature","properties":{"name":"Cidade Universitária","styleUrl":"#poly-000000-1200-77-nodesc","parentBairro":"Universidade","is_reliable":false},"geometry":{"type":"Polygon","coordinates":[[[-40.8097455,-14.8860678,0],[-40.8062264,-14.8941968,0],[-40.7900044,-14.8822521,0],[-40.7949629,-14.878934,0],[-40.8097455,-14.8860678,0]]]}},{"type":"Feature","properties":{"name":"Etelvina","styleUrl":"#poly-000000-1200-77-nodesc","parentBairro":"Recreio","is_reliable":true},"geometry":{"type":"Polygon","coordinates":[[[-40.83791,-14.865643,0],[-40.8364358,-14.8666501,0],[-40.8353866,-14.8655323,0],[-40.8349038,-14.8652316,0],[-40.8377447,-14.8618343,0],[-40.8398284,-14.8593415,0],[-40.8402253,-14.8566245,0],[-40.8417166,-14.8572778,0],[-40.844216,-14.861524,0],[-40.83791,-14.865643,0]]]}},{"type":"Feature","properties":{"name":"Eugenio Dantas","styleUrl":"#poly-000000-1200-77-nodesc","parentBairro":"Recreio","is_reliable":true},"geometry":{"type":"Polygon","coordinates":[[[-40.8402253,-14.8566245,0],[-40.8398284,-14.8593415,0],[-40.8377447,-14.8618343,0],[-40.8330488,-14.8597335,0],[-40.8287572,-14.8569958,0],[-40.8335509,-14.8534232,0],[-40.8402253,-14.8566245,0]]]}},{"type":"Feature","properties":{"name":"Farias","styleUrl":"#poly-000000-1200-77-nodesc","parentBairro":"Nossa Senhora Aparecida","is_reliable":true},"geometry":{"type":"Polygon","coordinates":[[[-40.8482904,-14.8332846,0],[-40.8484406,-14.836313,0],[-40.8481616,-14.8369975,0],[-40.8480329,-14.8384702,0],[-40.8465952,-14.840731,0],[-40.8466167,-14.8409592,0],[-40.8456296,-14.8419756,0],[-40.8430976,-14.8390095,0],[-40.8460373,-14.838968,0],[-40.8455438,-14.8323304,0],[-40.8471316,-14.8324964,0],[-40.8482904,-14.8332846,0]]]}},{"type":"Feature","properties":{"name":"Erval Custódio","styleUrl":"#poly-000000-1200-77-nodesc","parentBairro":"Nossa Senhora Aparecida","is_reliable":true},"geometry":{"type":"Polygon","coordinates":[[[-40.8456296,-14.8419756,0],[-40.8466167,-14.8409592,0],[-40.8465952,-14.840731,0],[-40.8480329,-14.8384702,0],[-40.8481616,-14.8369975,0],[-40.8484406,-14.836313,0],[-40.8482904,-14.8332846,0],[-40.850007,-14.8324756,0],[-40.8507365,-14.8326001,0],[-40.8534402,-14.8338654,0],[-40.8553156,-14.8342849,0],[-40.850558,-14.837341,0],[-40.8494859,-14.8393784,0],[-40.8484024,-14.8407578,0],[-40.8472973,-14.8422252,0],[-40.8465999,-14.8422278,0],[-40.8461386,-14.8427178,0],[-40.8456296,-14.8419756,0]]]}},{"type":"Feature","properties":{"name":"Boa Esperança","styleUrl":"#poly-000000-1200-77-nodesc","parentBairro":"Bateias","is_reliable":true},"geometry":{"type":"Polygon","coordinates":[[[-40.8655519,-14.85557,0],[-40.8665514,-14.8558254,0],[-40.8695125,-14.8569039,0],[-40.8677744,-14.8583764,0],[-40.8656163,-14.857727,0],[-40.8655519,-14.85557,0]]]}},{"type":"Feature","properties":{"name":"Chácaras Santa Elisa","styleUrl":"#poly-000000-1200-77-nodesc","parentBairro":"Universidade","is_reliable":false},"geometry":{"type":"Polygon","coordinates":[[[-40.7741989,-14.8819425,0],[-40.7790055,-14.8851776,0],[-40.7649292,-14.8963756,0],[-40.7617535,-14.8912328,0],[-40.7694783,-14.8863389,0],[-40.7638134,-14.8816107,0],[-40.7720532,-14.8781267,0],[-40.7741989,-14.8819425,0]]]}},{"type":"Feature","properties":{"name":"Alto da Universidade","styleUrl":"#poly-000000-1200-77-nodesc","parentBairro":"Universidade","is_reliable":true},"geometry":{"type":"Polygon","coordinates":[[[-40.7985234,-14.8788313,0],[-40.7949629,-14.878934,0],[-40.7840624,-14.8662419,0],[-40.7682696,-14.869892,0],[-40.7666817,-14.8626332,0],[-40.7980084,-14.8604149,0],[-40.7985234,-14.8788313,0]]]}},{"type":"Feature","properties":{"name":"Antônio Brito","styleUrl":"#poly-000000-1200-77-nodesc","parentBairro":"Patagônia","is_reliable":true},"geometry":{"type":"Polygon","coordinates":[[[-40.8630873,-14.8821968,0],[-40.8622521,-14.8808708,0],[-40.8611363,-14.8795539,0],[-40.8643228,-14.8791806,0],[-40.8644837,-14.8802279,0],[-40.8652776,-14.8811819,0],[-40.8654583,-14.8813673,0],[-40.8641065,-14.8815643,0],[-40.8630873,-14.8821968,0]]]}},{"type":"Feature","properties":{"name":"Urbis I","styleUrl":"#poly-000000-1200-77-nodesc","parentBairro":"Candeias","is_reliable":true},"geometry":{"type":"Polygon","coordinates":[[[-40.8275004,-14.8562579,0],[-40.8269292,-14.857007,0],[-40.8253641,-14.8560051,0],[-40.8222487,-14.8608984,0],[-40.8168413,-14.8577253,0],[-40.8189067,-14.8564526,0],[-40.8198294,-14.8558629,0],[-40.8210257,-14.8554496,0],[-40.8232788,-14.8545842,0],[-40.823665,-14.8540242,0],[-40.8275004,-14.8562579,0]]]}},{"type":"Feature","properties":{"name":"Jardim Valéria","styleUrl":"#poly-000000-1200-77-nodesc","parentBairro":"Jatobá","is_reliable":true},"geometry":{"type":"Polygon","coordinates":[[[-40.8738447,-14.8745931,0],[-40.8772014,-14.876747,0],[-40.8748196,-14.8831966,0],[-40.8711289,-14.881973,0],[-40.8738447,-14.8745931,0]]]}},{"type":"Feature","properties":{"name":"Parque Conveima 1","styleUrl":"#poly-000000-1200-77-nodesc","parentBairro":"Patagônia","is_reliable":true},"geometry":{"type":"Polygon","coordinates":[[[-40.8706386,-14.8872527,0],[-40.8704419,-14.8898522,0],[-40.8697553,-14.890578,0],[-40.864485,-14.894095,0],[-40.8630337,-14.8917156,0],[-40.863023,-14.8917363,0],[-40.8589031,-14.8845816,0],[-40.862626,-14.8828085,0],[-40.8625831,-14.8824767,0],[-40.8640958,-14.881585,0],[-40.8654476,-14.881388,0],[-40.8652669,-14.8812026,0],[-40.8664256,-14.8810367,0],[-40.8663977,-14.8815723,0],[-40.8667517,-14.8826195,0],[-40.8672882,-14.8827025,0],[-40.8672131,-14.8831069,0],[-40.8706386,-14.8872527,0]]]}},{"type":"Feature","properties":{"name":"Parque Conveima 2","styleUrl":"#poly-000000-1200-77-nodesc","parentBairro":"Jatobá","is_reliable":false},"geometry":{"type":"Polygon","coordinates":[[[-40.8790939,-14.8920502,0],[-40.878419,-14.89243,0],[-40.8786657,-14.8930107,0],[-40.8784082,-14.8934254,0],[-40.8678511,-14.899439,0],[-40.8655122,-14.8957479,0],[-40.864485,-14.894095,0],[-40.8696802,-14.8905365,0],[-40.8703668,-14.8898107,0],[-40.8705635,-14.8872112,0],[-40.8714861,-14.8872734,0],[-40.8720084,-14.8876541,0],[-40.8727092,-14.8887872,0],[-40.8736455,-14.8894172,0],[-40.8758323,-14.8898,0],[-40.8768194,-14.8903185,0],[-40.8788364,-14.8917493,0],[-40.8790939,-14.8920502,0]]]}},{"type":"Feature","properties":{"name":"Kadija","styleUrl":"#poly-000000-1200-77-nodesc","parentBairro":"Patagônia","is_reliable":true},"geometry":{"type":"Polygon","coordinates":[[[-40.8596449,-14.8797406,0],[-40.8592587,-14.8793524,0],[-40.8588322,-14.8793238,0],[-40.8584621,-14.876773,0],[-40.8675387,-14.8762338,0],[-40.8667876,-14.8714432,0],[-40.8713789,-14.8729685,0],[-40.8715702,-14.8731414,0],[-40.8711007,-14.8760366,0],[-40.867583,-14.8767376,0],[-40.8677553,-14.878768,0],[-40.8596449,-14.8797406,0]]]}},{"type":"Feature","properties":{"name":"Vila da Conquista V","styleUrl":"#poly-000000-1200-77-nodesc","parentBairro":"Patagônia","is_reliable":true},"geometry":{"type":"Polygon","coordinates":[[[-40.8708179,-14.8824433,0],[-40.8705635,-14.8872112,0],[-40.8672238,-14.8830862,0],[-40.8672989,-14.8826818,0],[-40.8667624,-14.8825988,0],[-40.8664084,-14.8815516,0],[-40.8700669,-14.8811472,0],[-40.8709103,-14.8812959,0],[-40.8708179,-14.8824433,0]]]}},{"type":"Feature","properties":{"name":"Pombal","styleUrl":"#poly-000000-1200-77-nodesc","parentBairro":"Ibirapuera","is_reliable":true},"geometry":{"type":"Polygon","coordinates":[[[-40.8608295,-14.8462148,0],[-40.8641179,-14.8457948,0],[-40.8642521,-14.8463911,0],[-40.864861,-14.8485913,0],[-40.8615805,-14.8492171,0],[-40.8613123,-14.8476045,0],[-40.8607544,-14.8463911,0],[-40.8608295,-14.8462148,0]]]}},{"type":"Feature","properties":{"name":"Morada das Acácias","styleUrl":"#poly-000000-1200-77-nodesc","parentBairro":"Campinhos","is_reliable":true},"geometry":{"type":"Polygon","coordinates":[[[-40.8819756,-14.8796665,0],[-40.8800674,-14.8784919,0],[-40.8827496,-14.8754226,0],[-40.8834133,-14.8757055,0],[-40.8817289,-14.8779556,0],[-40.8819756,-14.8796665,0]]]}},{"type":"Feature","properties":{"name":"Alegria","styleUrl":"#poly-000000-1200-77-nodesc","parentBairro":"Brasil","is_reliable":true},"geometry":{"type":"Polygon","coordinates":[[[-40.8606211,-14.8551502,0],[-40.8610378,-14.8572418,0],[-40.8608768,-14.8579158,0],[-40.8595804,-14.863975,0],[-40.8553747,-14.8669201,0],[-40.8554605,-14.8687659,0],[-40.8509544,-14.8692221,0],[-40.8490447,-14.8565709,0],[-40.8606211,-14.8551502,0]]]}},{"type":"Feature","properties":{"name":"Parque Santa Cecília","styleUrl":"#poly-000000-1200-77-nodesc","parentBairro":"Alto Maron","is_reliable":false},"geometry":{"type":"Polygon","coordinates":[[[-40.825191,-14.8483408,0],[-40.8246652,-14.8502904,0],[-40.8244238,-14.8512964,0],[-40.8237345,-14.8520897,0],[-40.8241516,-14.8526834,0],[-40.8239941,-14.8533901,0],[-40.8241622,-14.8538264,0],[-40.8236436,-14.8540138,0],[-40.8182816,-14.8534845,0],[-40.8214573,-14.8490045,0],[-40.822659,-14.8481749,0],[-40.825191,-14.8483408,0]]]}},{"type":"Feature","properties":{"name":"Cidade Modelo","styleUrl":"#poly-000000-1200-77-nodesc","parentBairro":"Bateias","is_reliable":true},"geometry":{"type":"Polygon","coordinates":[[[-40.8713789,-14.8729685,0],[-40.8690769,-14.8714133,0],[-40.866459,-14.8664566,0],[-40.868465,-14.859812,0],[-40.869549,-14.859177,0],[-40.8719848,-14.8574135,0],[-40.8722852,-14.8583675,0],[-40.8733796,-14.8595186,0],[-40.8754717,-14.8608045,0],[-40.8717222,-14.866415,0],[-40.8713789,-14.8729685,0]]]}},{"type":"Feature","properties":{"name":"Cidade Serrinha","styleUrl":"#poly-000000-1200-77-nodesc","parentBairro":"Bateias","is_reliable":true},"geometry":{"type":"Polygon","coordinates":[[[-40.8793019,-14.8561483,0],[-40.8754717,-14.8608045,0],[-40.8733796,-14.8595186,0],[-40.8722852,-14.8583675,0],[-40.8719848,-14.8574135,0],[-40.872833,-14.8562924,0],[-40.8751504,-14.8556701,0],[-40.8793019,-14.8561483,0]]]}},{"type":"Feature","properties":{"name":"Urbis II","styleUrl":"#poly-000000-1200-77-nodesc","parentBairro":"Bateias","is_reliable":true},"geometry":{"type":"Polygon","coordinates":[[[-40.8671515,-14.8484773,0],[-40.8672159,-14.8494106,0],[-40.8676665,-14.8494728,0],[-40.8678811,-14.8503854,0],[-40.8673447,-14.8507588,0],[-40.8667706,-14.8510076,0],[-40.8654135,-14.8511528,0],[-40.8652043,-14.8511891,0],[-40.8650594,-14.8513914,0],[-40.8649468,-14.8513706,0],[-40.8647966,-14.8497425,0],[-40.8650541,-14.8497165,0],[-40.864861,-14.8485913,0],[-40.8671569,-14.8482803,0],[-40.8671515,-14.8484773,0]]]}},{"type":"Feature","properties":{"name":"Laje Grande","styleUrl":"#poly-000000-1200-77-nodesc","parentBairro":"São Pedro","is_reliable":true},"geometry":{"type":"Polygon","coordinates":[[[-40.8923152,-14.8469584,0],[-40.8919933,-14.8448843,0],[-40.8925141,-14.8447522,0],[-40.8932065,-14.8446823,0],[-40.8945484,-14.8444596,0],[-40.8969098,-14.8442536,0],[-40.8974677,-14.8466804,0],[-40.8998709,-14.8465974,0],[-40.9003215,-14.8469708,0],[-40.8962017,-14.8502686,0],[-40.8933264,-14.8503515,0],[-40.8909874,-14.8504137,0],[-40.890625,-14.850067,0],[-40.8910063,-14.8486592,0],[-40.8923152,-14.8469584,0]]]}},{"type":"Feature","properties":{"name":"Xavier","styleUrl":"#poly-000000-1200-77-nodesc","parentBairro":"Lagoa das Flores","is_reliable":true},"geometry":{"type":"Polygon","coordinates":[[[-40.8045195,-14.8263328,0],[-40.8050774,-14.8271211,0],[-40.804026,-14.8290917,0],[-40.8000778,-14.8279093,0],[-40.7989405,-14.8306059,0],[-40.7983826,-14.8315186,0],[-40.7921599,-14.8282827,0],[-40.7919024,-14.8265817,0],[-40.7970093,-14.8237192,0],[-40.7996271,-14.825835,0],[-40.801215,-14.8246734,0],[-40.8045195,-14.8263328,0]]]}},{"type":"Feature","properties":{"name":"Iracema","styleUrl":"#poly-000000-1200-77-nodesc","parentBairro":"Centro","is_reliable":false},"geometry":{"type":"Polygon","coordinates":[[[-40.8479514,-14.8478887,0],[-40.8431663,-14.8477642,0],[-40.842351,-14.8480132,0],[-40.842351,-14.848428,0],[-40.842072,-14.8449641,0],[-40.8437198,-14.8445981,0],[-40.845651,-14.8422958,0],[-40.847685,-14.8448284,0],[-40.8479514,-14.8478887,0]]]}},{"type":"Feature","properties":{"name":"Povoado da Choça","styleUrl":"#poly-000000-1200-77-nodesc","parentBairro":"Lagoa das Flores","is_reliable":true},"geometry":{"type":"Polygon","coordinates":[[[-40.7676029,-14.8154712,0],[-40.7706928,-14.8219433,0],[-40.765543,-14.8295769,0],[-40.7542133,-14.8237688,0],[-40.7540417,-14.8184584,0],[-40.7564449,-14.8156372,0],[-40.7603931,-14.8138117,0],[-40.7676029,-14.8154712,0]]]}},{"type":"Feature","properties":{"name":"Urbis V","styleUrl":"#poly-000000-1200-77-nodesc","parentBairro":"Zabelê","is_reliable":true},"geometry":{"type":"Polygon","coordinates":[[[-40.8780461,-14.8417886,0],[-40.8761149,-14.842162,0],[-40.8760934,-14.846694,0],[-40.871995,-14.8473536,0],[-40.8716946,-14.8447754,0],[-40.8714586,-14.8427013,0],[-40.8711796,-14.8384906,0],[-40.875278,-14.8379099,0],[-40.878089,-14.8378891,0],[-40.8780461,-14.8417886,0]]]}},{"type":"Feature","properties":{"name":"Jardim Petrópolis","styleUrl":"#poly-000000-1200-77-nodesc","parentBairro":"Cruzeiro","is_reliable":true},"geometry":{"type":"Polygon","coordinates":[[[-40.8320881,-14.8333279,0],[-40.8349205,-14.8354851,0],[-40.8357788,-14.8396335,0],[-40.8380104,-14.8418736,0],[-40.8372058,-14.8423093,0],[-40.8385683,-14.845659,0],[-40.8367336,-14.8460842,0],[-40.8320881,-14.8333279,0]]]}},{"type":"Feature","properties":{"name":"Pedrinhas","styleUrl":"#poly-000000-1200-77-nodesc","parentBairro":"Cruzeiro","is_reliable":true},"geometry":{"type":"Polygon","coordinates":[[[-40.8256078,-14.8427033,0],[-40.8320881,-14.8333279,0],[-40.8367336,-14.8460842,0],[-40.8353084,-14.8463818,0],[-40.8348654,-14.8450305,0],[-40.8319472,-14.8450305,0],[-40.827302,-14.8437238,0],[-40.8256078,-14.8427033,0]]]}},{"type":"Feature","properties":{"name":"Centro Industrial","styleUrl":"#poly-000000-1200-77-nodesc","parentBairro":"Distrito Industrial","is_reliable":true},"geometry":{"type":"Polygon","coordinates":[[[-40.7929841,-14.8098702,0],[-40.7747022,-14.7998295,0],[-40.7846585,-14.7946844,0],[-40.8029405,-14.8034807,0],[-40.7929841,-14.8098702,0]]]}},{"type":"Feature","properties":{"name":"Chácaras Morumbi","styleUrl":"#poly-000000-1200-77-nodesc","parentBairro":"Distrito Industrial","is_reliable":false},"geometry":{"type":"Polygon","coordinates":[[[-40.8298028,-14.8252589,0],[-40.8247871,-14.8264931,0],[-40.8222604,-14.8252381,0],[-40.8252645,-14.8164842,0],[-40.8283115,-14.8167332,0],[-40.8298028,-14.8252589,0]]]}},{"type":"Feature","properties":{"name":"Senhorinha Cairo","styleUrl":"#poly-000000-1200-77-nodesc","parentBairro":"Zabelê","is_reliable":true},"geometry":{"type":"Polygon","coordinates":[[[-40.887113,-14.8323697,0],[-40.8887814,-14.844089,0],[-40.8889135,-14.8451075,0],[-40.8857871,-14.8454536,0],[-40.8862163,-14.8450802,0],[-40.8861519,-14.8446136,0],[-40.8815652,-14.8428258,0],[-40.8817835,-14.8330698,0],[-40.887113,-14.8323697,0]]]}},{"type":"Feature","properties":{"name":"Sobradinho","styleUrl":"#poly-000000-1200-77-nodesc","parentBairro":"Zabelê","is_reliable":true},"geometry":{"type":"Polygon","coordinates":[[[-40.8827386,-14.8432827,0],[-40.8835808,-14.8436249,0],[-40.8836077,-14.8441331,0],[-40.882905,-14.8441745,0],[-40.8829425,-14.8446931,0],[-40.8829737,-14.8452994,0],[-40.8829728,-14.8459265,0],[-40.8800309,-14.8462169,0],[-40.879988,-14.8422035,0],[-40.8827386,-14.8432827,0]]]}},{"type":"Feature","properties":{"name":"Cidade Maravilhosa","styleUrl":"#poly-000000-1200-77-nodesc","parentBairro":"Zabelê","is_reliable":true},"geometry":{"type":"Polygon","coordinates":[[[-40.878089,-14.8378891,0],[-40.875278,-14.8379099,0],[-40.8711796,-14.8384906,0],[-40.870836,-14.8318844,0],[-40.8707288,-14.8297479,0],[-40.8718874,-14.8297894,0],[-40.8778312,-14.8296027,0],[-40.8779385,-14.831594,0],[-40.8772519,-14.8316355,0],[-40.8774879,-14.8377752,0],[-40.878089,-14.8378891,0]]]}},{"type":"Feature","properties":{"name":"Pacheco","styleUrl":"#poly-000000-1200-77-nodesc","parentBairro":"Zabelê","is_reliable":true},"geometry":{"type":"Polygon","coordinates":[[[-40.8843024,-14.8439101,0],[-40.8843158,-14.8453464,0],[-40.884328,-14.8456921,0],[-40.8829728,-14.8459265,0],[-40.8829791,-14.845245,0],[-40.882905,-14.8441745,0],[-40.8836077,-14.8441331,0],[-40.8835808,-14.8436249,0],[-40.8843024,-14.8439101,0]]]}},{"type":"Feature","properties":{"name":"Bateias II","styleUrl":"#poly-000000-1200-77-nodesc","parentBairro":"Zabelê","is_reliable":true},"geometry":{"type":"Polygon","coordinates":[[[-40.8628035,-14.8313094,0],[-40.8707288,-14.8297479,0],[-40.8714586,-14.8427013,0],[-40.8663731,-14.8432198,0],[-40.8628035,-14.8313094,0]]]}},{"type":"Feature","properties":{"name":"Urbis IV","styleUrl":"#poly-000000-1200-77-nodesc","parentBairro":"Zabelê","is_reliable":false},"geometry":{"type":"Polygon","coordinates":[[[-40.8714586,-14.8427013,0],[-40.8718663,-14.8458187,0],[-40.8673386,-14.846555,0],[-40.8663731,-14.8432198,0],[-40.8714586,-14.8427013,0]]]}},{"type":"Feature","properties":{"name":"Vila Serrana IV","styleUrl":"#poly-000000-1200-77-nodesc","parentBairro":"Zabelê","is_reliable":true},"geometry":{"type":"Polygon","coordinates":[[[-40.8779385,-14.831594,0],[-40.8778312,-14.8296027,0],[-40.8817005,-14.8277367,0],[-40.8817814,-14.8329701,0],[-40.879743,-14.8323271,0],[-40.8779385,-14.831594,0]]]}},{"type":"Feature","properties":{"name":"Vila Serrana III","styleUrl":"#poly-000000-1200-77-nodesc","parentBairro":"Zabelê","is_reliable":true},"geometry":{"type":"Polygon","coordinates":[[[-40.8797081,-14.83461,0],[-40.8774122,-14.8346929,0],[-40.8772519,-14.8316355,0],[-40.8779385,-14.831594,0],[-40.8817814,-14.8329701,0],[-40.8817466,-14.8345477,0],[-40.8797081,-14.83461,0]]]}},{"type":"Feature","properties":{"name":"Vila Serrana II","styleUrl":"#poly-000000-1200-77-nodesc","parentBairro":"Zabelê","is_reliable":true},"geometry":{"type":"Polygon","coordinates":[[[-40.8797892,-14.8380117,0],[-40.8775255,-14.8372546,0],[-40.8774122,-14.8346929,0],[-40.8817466,-14.8345477,0],[-40.8816883,-14.8379391,0],[-40.8797892,-14.8380117,0]]]}},{"type":"Feature","properties":{"name":"Vila Serrana I","styleUrl":"#poly-000000-1200-77-nodesc","parentBairro":"Zabelê","is_reliable":true},"geometry":{"type":"Polygon","coordinates":[[[-40.8816883,-14.8379391,0],[-40.8815652,-14.8428258,0],[-40.8800202,-14.8422035,0],[-40.8780461,-14.8417886,0],[-40.878089,-14.8378891,0],[-40.8774879,-14.8377752,0],[-40.8775255,-14.8372546,0],[-40.8797892,-14.8380117,0],[-40.8816883,-14.8379391,0]]]}},{"type":"Feature","properties":{"name":"Idalina Veloso","styleUrl":"#poly-000000-1200-77-nodesc","parentBairro":"Zabelê","is_reliable":true},"geometry":{"type":"Polygon","coordinates":[[[-40.8818243,-14.8296513,0],[-40.8817005,-14.8277367,0],[-40.8858848,-14.82755,0],[-40.8863139,-14.8288154,0],[-40.887113,-14.8323697,0],[-40.8817814,-14.8329701,0],[-40.8818243,-14.8296513,0]]]}},{"type":"Feature","properties":{"name":"Nenzinha Santos","styleUrl":"#poly-000000-1200-77-nodesc","parentBairro":"Ibirapuera","is_reliable":false},"geometry":{"type":"Polygon","coordinates":[[[-40.8628035,-14.8313094,0],[-40.8666094,-14.8441831,0],[-40.863297,-14.8447918,0],[-40.8588338,-14.8330518,0],[-40.8594775,-14.8327199,0],[-40.859735,-14.8322428,0],[-40.8628035,-14.8313094,0]]]}},{"type":"Feature","properties":{"name":"Bruno Bacelar","styleUrl":"#poly-000000-1200-77-nodesc","parentBairro":"Ibirapuera","is_reliable":true},"geometry":{"type":"Polygon","coordinates":[[[-40.8578476,-14.8302401,0],[-40.859735,-14.8322428,0],[-40.8594775,-14.8327199,0],[-40.8588338,-14.8330518,0],[-40.863297,-14.8447918,0],[-40.8604111,-14.8451881,0],[-40.8599505,-14.8415654,0],[-40.857912,-14.840715,0],[-40.8574614,-14.83862,0],[-40.8553156,-14.8342849,0],[-40.856646,-14.8330196,0],[-40.8567318,-14.8322521,0],[-40.8578476,-14.8302401,0]]]}},{"type":"Feature","properties":{"name":"Alto da Serra","styleUrl":"#poly-000000-1200-77-nodesc","parentBairro":"Guarani","is_reliable":true},"geometry":{"type":"Polygon","coordinates":[[[-40.8374418,-14.8315233,0],[-40.845651,-14.8422958,0],[-40.8437198,-14.8445981,0],[-40.8385683,-14.845659,0],[-40.8372058,-14.8423093,0],[-40.8357788,-14.8396335,0],[-40.8349205,-14.8354851,0],[-40.8320881,-14.8333279,0],[-40.8320398,-14.8329234,0],[-40.834822,-14.83158,0],[-40.8374418,-14.8315233,0]]]}},{"type":"Feature","properties":{"name":"M. Carolina","styleUrl":"#poly-000000-1200-77-nodesc","parentBairro":"Ibirapuera","is_reliable":true},"geometry":{"type":"Polygon","coordinates":[[[-40.8638765,-14.8446489,0],[-40.8666094,-14.8441831,0],[-40.8672635,-14.8462646,0],[-40.8656291,-14.8462034,0],[-40.8642521,-14.8463911,0],[-40.8638765,-14.8446489,0]]]}},{"type":"Feature","properties":{"name":"Santa Fé","styleUrl":"#poly-000000-1200-77-nodesc","parentBairro":"Lagoa das Flores","is_reliable":true},"geometry":{"type":"Polygon","coordinates":[[[-40.8126305,-14.8262498,0],[-40.8075665,-14.8347959,0],[-40.8022021,-14.8320579,0],[-40.8050774,-14.8271211,0],[-40.8045195,-14.8263328,0],[-40.8072661,-14.8231383,0],[-40.8126305,-14.8262498,0]]]}},{"type":"Feature","properties":{"name":"São Jorge","styleUrl":"#poly-000000-1200-77-nodesc","parentBairro":"Lagoa das Flores","is_reliable":true},"geometry":{"type":"Polygon","coordinates":[[[-40.8022021,-14.8320579,0],[-40.7798197,-14.8421156,0],[-40.7778756,-14.8380173,0],[-40.7718374,-14.8338602,0],[-40.7890036,-14.8266832,0],[-40.7983826,-14.8315186,0],[-40.7989405,-14.8306059,0],[-40.8022021,-14.8320579,0]]]}},{"type":"Feature","properties":{"name":"Flamengo","styleUrl":"#poly-000000-1200-77-nodesc","parentBairro":"Alto Maron","is_reliable":false},"geometry":{"type":"Polygon","coordinates":[[[-40.8353084,-14.8463818,0],[-40.8359971,-14.8510795,0],[-40.8335509,-14.8534232,0],[-40.8320478,-14.85456,0],[-40.8311788,-14.8529475,0],[-40.8279923,-14.8542333,0],[-40.8265224,-14.8532689,0],[-40.8282127,-14.8528367,0],[-40.8279123,-14.8521522,0],[-40.8273759,-14.851447,0],[-40.8259704,-14.8502337,0],[-40.8251765,-14.8491137,0],[-40.8254056,-14.8455694,0],[-40.8257703,-14.8428046,0],[-40.827302,-14.8437238,0],[-40.8319472,-14.8450305,0],[-40.8348654,-14.8450305,0],[-40.8353084,-14.8463818,0]]]}},{"type":"Feature","properties":{"name":"Panorama II","styleUrl":"#poly-000000-1200-77-nodesc","parentBairro":"Alto Maron","is_reliable":true},"geometry":{"type":"Polygon","coordinates":[[[-40.822852,-14.8416676,0],[-40.822616,-14.844234,0],[-40.8225946,-14.8452711,0],[-40.8214037,-14.8455826,0],[-40.8208136,-14.8444932,0],[-40.8208618,-14.8426137,0],[-40.8208672,-14.8411698,0],[-40.822852,-14.8416676,0]]]}},{"type":"Feature","properties":{"name":"Sumaré","styleUrl":"#poly-000000-1200-77-nodesc","parentBairro":"Centro","is_reliable":true},"geometry":{"type":"Polygon","coordinates":[[[-40.8479514,-14.8478887,0],[-40.8482267,-14.8511631,0],[-40.8436562,-14.8518683,0],[-40.8424117,-14.848529,0],[-40.842351,-14.8480132,0],[-40.8431663,-14.8477642,0],[-40.8479514,-14.8478887,0]]]}},{"type":"Feature","properties":{"name":"São Vicente","styleUrl":"#poly-000000-1200-77-nodesc","parentBairro":"Centro","is_reliable":true},"geometry":{"type":"Polygon","coordinates":[[[-40.8436562,-14.8518683,0],[-40.8482267,-14.8511631,0],[-40.8494504,-14.859899,0],[-40.8486443,-14.8595032,0],[-40.8476358,-14.859021,0],[-40.8457261,-14.8580566,0],[-40.8458763,-14.8576003,0],[-40.8449536,-14.8555262,0],[-40.8445674,-14.8558788,0],[-40.843988,-14.8543855,0],[-40.841692,-14.8518344,0],[-40.8436562,-14.8518683,0]]]}},{"type":"Feature","properties":{"name":"Novo Horizonte","styleUrl":"#poly-000000-1200-77-nodesc","parentBairro":"Centro","is_reliable":true},"geometry":{"type":"Polygon","coordinates":[[[-40.8421464,-14.8454362,0],[-40.8423258,-14.848529,0],[-40.8435703,-14.8518683,0],[-40.8416061,-14.8518344,0],[-40.8439021,-14.8543855,0],[-40.8444815,-14.8558788,0],[-40.8448677,-14.8555262,0],[-40.8457904,-14.8576003,0],[-40.8456402,-14.8580566,0],[-40.8416307,-14.8572778,0],[-40.833465,-14.8534232,0],[-40.8359112,-14.8510795,0],[-40.8352655,-14.8463196,0],[-40.842072,-14.8449641,0],[-40.8421464,-14.8454362,0]]]}},{"type":"Feature","properties":{"name":"Recanto das Águas","styleUrl":"#poly-000000-1200-77-nodesc","parentBairro":"São Pedro","is_reliable":true},"geometry":{"type":"Polygon","coordinates":[[[-40.8833352,-14.8504948,0],[-40.8907166,-14.8499348,0],[-40.8898369,-14.8509925,0],[-40.8889142,-14.8523407,0],[-40.887498,-14.8545185,0],[-40.8866183,-14.8556488,0],[-40.8848802,-14.8565303,0],[-40.8841399,-14.8545496,0],[-40.8839414,-14.8537251,0],[-40.8845503,-14.8534374,0],[-40.8837,-14.8513659,0],[-40.8833352,-14.8504948,0]]]}},{"type":"Feature","properties":{"name":"Henriqueta Prates","styleUrl":"#poly-000000-1200-77-nodesc","parentBairro":"São Pedro","is_reliable":false},"geometry":{"type":"Polygon","coordinates":[[[-40.8907166,-14.8499348,0],[-40.8831636,-14.8504948,0],[-40.8859389,-14.8464619,0],[-40.8857871,-14.8454536,0],[-40.8889135,-14.8451075,0],[-40.8919826,-14.8448947,0],[-40.8923045,-14.8469688,0],[-40.8910063,-14.8486592,0],[-40.8907166,-14.8499348,0]]]}},{"type":"Feature","properties":{"name":"Nova Esperança (São Pedro)","styleUrl":"#poly-000000-1200-77-nodesc","parentBairro":"São Pedro","is_reliable":true},"geometry":{"type":"Polygon","coordinates":[[[-40.8962017,-14.8502686,0],[-40.9014404,-14.8591717,0],[-40.8938444,-14.862739,0],[-40.8931578,-14.8615361,0],[-40.8917416,-14.8621583,0],[-40.8901966,-14.8590888,0],[-40.8919132,-14.8583007,0],[-40.8903683,-14.855397,0],[-40.8927715,-14.85436,0],[-40.8903441,-14.8503933,0],[-40.8906223,-14.8500437,0],[-40.8909874,-14.8504137,0],[-40.8962017,-14.8502686,0]]]}},{"type":"Feature","properties":{"name":"Vila Simão","styleUrl":"#poly-000000-1200-77-nodesc","parentBairro":"Campinhos","is_reliable":true},"geometry":{"type":"Polygon","coordinates":[[[-40.889137,-14.8843455,0],[-40.891197,-14.8836404,0],[-40.8969476,-14.8857556,0],[-40.897763,-14.8865437,0],[-40.8993509,-14.8871243,0],[-40.9003379,-14.8870413,0],[-40.9027412,-14.8865851,0],[-40.9055307,-14.8862533,0],[-40.9051444,-14.885175,0],[-40.9042003,-14.8816496,0],[-40.907419,-14.8811104,0],[-40.9081914,-14.8829768,0],[-40.9098651,-14.8823546,0],[-40.909951,-14.8829768,0],[-40.9117963,-14.8824791,0],[-40.9123971,-14.8852579,0],[-40.9078481,-14.8884515,0],[-40.9076765,-14.8898201,0],[-40.9044578,-14.8942164,0],[-40.9003379,-14.8965389,0],[-40.8904462,-14.8851652,0],[-40.889137,-14.8843455,0]]]}},{"type":"Feature","properties":{"name":"Morada Nova","styleUrl":"#poly-000000-1200-77-nodesc","parentBairro":"Campinhos","is_reliable":true},"geometry":{"type":"Polygon","coordinates":[[[-40.872171,-14.8733073,0],[-40.8740807,-14.8739087,0],[-40.8763767,-14.8741576,0],[-40.8790803,-14.8739087,0],[-40.8816767,-14.874842,0],[-40.88202,-14.8735976,0],[-40.8834792,-14.8718971,0],[-40.8852387,-14.8733903,0],[-40.8836294,-14.8750701,0],[-40.8832968,-14.8751115,0],[-40.8829964,-14.875153,0],[-40.8823634,-14.8750701,0],[-40.8827496,-14.8754226,0],[-40.8800674,-14.8784919,0],[-40.8715702,-14.8731414,0],[-40.872171,-14.8733073,0]]]}},{"type":"Feature","properties":{"name":"Vila Campinhos","styleUrl":"#poly-000000-1200-77-nodesc","parentBairro":"Campinhos","is_reliable":true},"geometry":{"type":"Polygon","coordinates":[[[-40.8918464,-14.8838654,0],[-40.891197,-14.8836404,0],[-40.8892286,-14.8843216,0],[-40.8819756,-14.8796665,0],[-40.8817289,-14.8779556,0],[-40.8834133,-14.8757055,0],[-40.886879,-14.8768041,0],[-40.8874047,-14.8773848,0],[-40.8880484,-14.8788157,0],[-40.8883596,-14.8792823,0],[-40.888381,-14.8798526,0],[-40.8888102,-14.8801637,0],[-40.8890999,-14.8796556,0],[-40.8894968,-14.8795415,0],[-40.8903873,-14.8786602,0],[-40.8913958,-14.8798941,0],[-40.8909023,-14.8813976,0],[-40.8918464,-14.8838654,0]]]}},{"type":"Feature","properties":{"name":"Terras do Remanso","styleUrl":"#poly-000000-1200-77-nodesc","parentBairro":"Bateias","is_reliable":true},"geometry":{"type":"Polygon","coordinates":[[[-40.8814293,-14.8460687,0],[-40.884328,-14.8456921,0],[-40.8849503,-14.8457129,0],[-40.8857871,-14.8454536,0],[-40.8859389,-14.8464619,0],[-40.8814764,-14.8530161,0],[-40.8793019,-14.8561483,0],[-40.8751504,-14.8556701,0],[-40.8757083,-14.8524139,0],[-40.8761804,-14.8524346,0],[-40.8757083,-14.8489087,0],[-40.8766954,-14.8467101,0],[-40.8814293,-14.8460687,0]]]}},{"type":"Feature","properties":{"name":"Urbis III","styleUrl":"#poly-000000-1200-77-nodesc","parentBairro":"Bateias","is_reliable":false},"geometry":{"type":"Polygon","coordinates":[[[-40.864861,-14.8485913,0],[-40.8650541,-14.8497165,0],[-40.8647966,-14.8497425,0],[-40.8649468,-14.8513706,0],[-40.8599513,-14.8520317,0],[-40.8594363,-14.8496258,0],[-40.864861,-14.8485913,0]]]}},{"type":"Feature","properties":{"name":"Santa Cruz","styleUrl":"#poly-000000-1200-77-nodesc","parentBairro":"Bateias","is_reliable":true},"geometry":{"type":"Polygon","coordinates":[[[-40.8599513,-14.8520317,0],[-40.8650594,-14.8513914,0],[-40.8652043,-14.8511891,0],[-40.8667706,-14.8510076,0],[-40.8673447,-14.8507588,0],[-40.8678811,-14.8503854,0],[-40.8682169,-14.8510202,0],[-40.8676375,-14.8516425,0],[-40.8660496,-14.8530528,0],[-40.8653844,-14.8539239,0],[-40.8654917,-14.8548573,0],[-40.8653004,-14.8552363,0],[-40.8608586,-14.8559414,0],[-40.8599513,-14.8520317,0]]]}},{"type":"Feature","properties":{"name":"Santa Helena","styleUrl":"#poly-000000-1200-77-nodesc","parentBairro":"Brasil","is_reliable":true},"geometry":{"type":"Polygon","coordinates":[[[-40.8594363,-14.8496258,0],[-40.8606211,-14.8551502,0],[-40.8490447,-14.8565709,0],[-40.8483162,-14.8511865,0],[-40.8594363,-14.8496258,0]]]}},{"type":"Feature","properties":{"name":"Jardim Copacabana II","styleUrl":"#poly-000000-1200-77-nodesc","parentBairro":"Jatobá","is_reliable":true},"geometry":{"type":"Polygon","coordinates":[[[-40.8748196,-14.8831966,0],[-40.8727092,-14.8887872,0],[-40.8719368,-14.8876674,0],[-40.8714861,-14.8872734,0],[-40.8705635,-14.8872112,0],[-40.8708285,-14.8818486,0],[-40.8748196,-14.8831966,0]]]}},{"type":"Feature","properties":{"name":"Jardim Copacabana","styleUrl":"#poly-000000-1200-77-nodesc","parentBairro":"Jatobá","is_reliable":true},"geometry":{"type":"Polygon","coordinates":[[[-40.8788364,-14.8917493,0],[-40.8768194,-14.8903185,0],[-40.8758323,-14.8898,0],[-40.8795016,-14.8781454,0],[-40.8817546,-14.8795556,0],[-40.8814328,-14.8801363,0],[-40.880553,-14.882293,0],[-40.8799307,-14.8867309,0],[-40.8789866,-14.8864406,0],[-40.8786218,-14.8870005,0],[-40.8781927,-14.8885664,0],[-40.8796948,-14.888836,0],[-40.8790939,-14.8920502,0],[-40.8788364,-14.8917493,0]]]}},{"type":"Feature","properties":{"name":"Jardim Sudoeste","styleUrl":"#poly-000000-1200-77-nodesc","parentBairro":"Jatobá","is_reliable":true},"geometry":{"type":"Polygon","coordinates":[[[-40.8758323,-14.8898,0],[-40.8736455,-14.8894172,0],[-40.8727092,-14.8887872,0],[-40.8772014,-14.876747,0],[-40.8795016,-14.8781454,0],[-40.8758323,-14.8898,0]]]}},{"type":"Feature","properties":{"name":"Parque Santa Mônica","styleUrl":"#poly-000000-1200-77-nodesc","parentBairro":"Airton Senna","is_reliable":false},"geometry":{"type":"Polygon","coordinates":[[[-40.853283,-14.9219215,0],[-40.8530229,-14.9357586,0],[-40.8382293,-14.9353415,0],[-40.8441515,-14.9215745,0],[-40.8443234,-14.9215723,0],[-40.853283,-14.9219215,0]]]}},{"type":"Feature","properties":{"name":"Chácaras Santa Tereza","styleUrl":"#poly-000000-1200-77-nodesc","parentBairro":"Espírito Santo","is_reliable":true},"geometry":{"type":"Polygon","coordinates":[[[-40.825367,-14.8970548,0],[-40.8244318,-14.900956,0],[-40.8209127,-14.8987891,0],[-40.8196038,-14.8982189,0],[-40.8136601,-14.8968606,0],[-40.8100767,-14.8958652,0],[-40.8108009,-14.8956267,0],[-40.8111817,-14.8950565,0],[-40.8119435,-14.8940404,0],[-40.8167714,-14.8902247,0],[-40.825367,-14.8970548,0]]]}},{"type":"Feature","properties":{"name":"Chácaras Alto da Boa Vista","styleUrl":"#poly-000000-1200-77-nodesc","parentBairro":"Espírito Santo","is_reliable":true},"geometry":{"type":"Polygon","coordinates":[[[-40.825367,-14.8970548,0],[-40.8315947,-14.9004344,0],[-40.8316017,-14.9075642,0],[-40.8313801,-14.9095581,0],[-40.8234662,-14.9094057,0],[-40.8216579,-14.9095008,0],[-40.8194633,-14.9092226,0],[-40.8196183,-14.9034081,0],[-40.8227774,-14.9034824,0],[-40.8244318,-14.900956,0],[-40.825367,-14.8970548,0]]]}},{"type":"Feature","properties":{"name":"Chác. Parque Imperial","styleUrl":"#poly-000000-1200-77-nodesc","parentBairro":"Espírito Santo","is_reliable":true},"geometry":{"type":"Polygon","coordinates":[[[-40.8244318,-14.900956,0],[-40.8227774,-14.9034824,0],[-40.8196183,-14.9034081,0],[-40.8194453,-14.9145738,0],[-40.8209813,-14.9147198,0],[-40.8208482,-14.9187323,0],[-40.826661,-14.918914,0],[-40.826778,-14.9209486,0],[-40.8307954,-14.9210432,0],[-40.8306286,-14.9221746,0],[-40.8296135,-14.9221121,0],[-40.8303365,-14.9271502,0],[-40.8275963,-14.9310329,0],[-40.8212909,-14.9262564,0],[-40.8179668,-14.9287198,0],[-40.8148027,-14.9270072,0],[-40.8129417,-14.9224603,0],[-40.8128911,-14.9207259,0],[-40.8049265,-14.9206467,0],[-40.8051158,-14.91443,0],[-40.8050559,-14.9089497,0],[-40.8057423,-14.9057564,0],[-40.8082311,-14.9014019,0],[-40.8136601,-14.8968606,0],[-40.8196038,-14.8982189,0],[-40.8209127,-14.8987891,0],[-40.8244318,-14.900956,0]]]}},{"type":"Feature","properties":{"name":"Renato Magalhães","styleUrl":"#poly-000000-1200-77-nodesc","parentBairro":"Espírito Santo","is_reliable":true},"geometry":{"type":"Polygon","coordinates":[[[-40.8367945,-14.9021522,0],[-40.8368481,-14.9027432,0],[-40.836773,-14.9033756,0],[-40.8352925,-14.9048894,0],[-40.8352443,-14.9054134,0],[-40.8342839,-14.9053248,0],[-40.8335544,-14.9064445,0],[-40.8316017,-14.9075642,0],[-40.8315947,-14.9004344,0],[-40.8367945,-14.9021522,0]]]}},{"type":"Feature","properties":{"name":"Urbis VI","styleUrl":"#poly-000000-1200-77-nodesc","parentBairro":"Espírito Santo","is_reliable":true},"geometry":{"type":"Polygon","coordinates":[[[-40.8335544,-14.9064445,0],[-40.8342839,-14.9053248,0],[-40.8352443,-14.9054134,0],[-40.8352925,-14.9048894,0],[-40.836773,-14.9033756,0],[-40.8367945,-14.9021522,0],[-40.8404048,-14.9021782,0],[-40.8404685,-14.9026621,0],[-40.8404518,-14.9031305,0],[-40.8404049,-14.9073626,0],[-40.8341499,-14.9073211,0],[-40.8335544,-14.9064445,0]]]}},{"type":"Feature","properties":{"name":"Morada Real","styleUrl":"#poly-000000-1200-77-nodesc","parentBairro":"Espírito Santo","is_reliable":false},"geometry":{"type":"Polygon","coordinates":[[[-40.844274,-14.9150401,0],[-40.8313834,-14.9149184,0],[-40.8313801,-14.9095581,0],[-40.8316017,-14.9075642,0],[-40.8335544,-14.9064445,0],[-40.8341499,-14.9073211,0],[-40.8442458,-14.907373,0],[-40.844274,-14.9150401,0]]]}},{"type":"Feature","properties":{"name":"Vila Elisa","styleUrl":"#poly-000000-1200-77-nodesc","parentBairro":"Espírito Santo","is_reliable":true},"geometry":{"type":"Polygon","coordinates":[[[-40.8306286,-14.9221746,0],[-40.8307954,-14.9210432,0],[-40.826778,-14.9209486,0],[-40.826661,-14.918914,0],[-40.8208482,-14.9187323,0],[-40.8209813,-14.9147198,0],[-40.8194453,-14.9145738,0],[-40.8194633,-14.9092226,0],[-40.8216579,-14.9095008,0],[-40.8234662,-14.9094057,0],[-40.826948,-14.9094636,0],[-40.8313801,-14.9095581,0],[-40.8313834,-14.9149184,0],[-40.8373754,-14.9149935,0],[-40.844274,-14.9150401,0],[-40.8441515,-14.9215745,0],[-40.84315,-14.9235574,0],[-40.840979,-14.92813,0],[-40.829634,-14.923091,0],[-40.8296135,-14.9221121,0],[-40.8306286,-14.9221746,0]]]}},{"type":"Feature","properties":{"name":"Sol Nascente","styleUrl":"#poly-000000-1200-77-nodesc","parentBairro":"Candeias","is_reliable":true},"geometry":{"type":"Polygon","coordinates":[[[-40.8095662,-14.8576282,0],[-40.8133642,-14.8597645,0],[-40.811669,-14.8609259,0],[-40.8095233,-14.8616311,0],[-40.8075062,-14.8620459,0],[-40.8068196,-14.8625229,0],[-40.8056609,-14.8619422,0],[-40.7980332,-14.8614309,0],[-40.7980084,-14.8604149,0],[-40.8026997,-14.8592667,0],[-40.8095662,-14.8576282,0]]]}},{"type":"Feature","properties":{"name":"Morada Bem Querer","styleUrl":"#poly-000000-1200-77-nodesc","parentBairro":"Candeias","is_reliable":true},"geometry":{"type":"Polygon","coordinates":[[[-40.8196888,-14.8655751,0],[-40.8191899,-14.8659389,0],[-40.8172158,-14.8691172,0],[-40.8204666,-14.8696824,0],[-40.8207602,-14.8697877,0],[-40.8162073,-14.8764328,0],[-40.8131671,-14.8738064,0],[-40.815821,-14.8699416,0],[-40.8149413,-14.8688424,0],[-40.8142546,-14.8684069,0],[-40.8171514,-14.8640516,0],[-40.8196888,-14.8655751,0]]]}},{"type":"Feature","properties":{"name":"Caminho da Univers.","styleUrl":"#poly-000000-1200-77-nodesc","parentBairro":"Candeias","is_reliable":true},"geometry":{"type":"Polygon","coordinates":[[[-40.814834,-14.8713103,0],[-40.8131671,-14.8738064,0],[-40.8113647,-14.8721888,0],[-40.8084573,-14.8696172,0],[-40.8085323,-14.8675225,0],[-40.8069015,-14.8665063,0],[-40.8068371,-14.8659878,0],[-40.8068653,-14.8647397,0],[-40.8142546,-14.8684069,0],[-40.8149413,-14.8688424,0],[-40.815821,-14.8699416,0],[-40.814834,-14.8713103,0]]]}},{"type":"Feature","properties":{"name":"Itamarati","styleUrl":"#poly-000000-1200-77-nodesc","parentBairro":"Candeias","is_reliable":true},"geometry":{"type":"Polygon","coordinates":[[[-40.8082319,-14.8760462,0],[-40.8094764,-14.8749263,0],[-40.8113647,-14.8721888,0],[-40.8131671,-14.8738064,0],[-40.8162073,-14.8764328,0],[-40.8146348,-14.8785979,0],[-40.8139052,-14.8798836,0],[-40.8082319,-14.8760462,0]]]}},{"type":"Feature","properties":{"name":"Zezé Leone","styleUrl":"#poly-000000-1200-77-nodesc","parentBairro":"Zabelê","is_reliable":false},"geometry":{"type":"Polygon","coordinates":[[[-40.8843024,-14.8439101,0],[-40.8861519,-14.8446136,0],[-40.8862163,-14.8450802,0],[-40.8857871,-14.8454536,0],[-40.8849503,-14.8457129,0],[-40.884328,-14.8456921,0],[-40.8843024,-14.8439101,0]]]}},{"type":"Feature","properties":{"name":"Bateias I","styleUrl":"#poly-000000-1200-77-nodesc","parentBairro":"Zabelê","is_reliable":true},"geometry":{"type":"Polygon","coordinates":[[[-40.8718663,-14.8458187,0],[-40.871995,-14.8473536,0],[-40.8677678,-14.8480069,0],[-40.8673386,-14.846555,0],[-40.8718663,-14.8458187,0]]]}},{"type":"Feature","properties":{"name":"Cidade Serrana","styleUrl":"#poly-000000-1200-77-nodesc","parentBairro":"Zabelê","is_reliable":true},"geometry":{"type":"Polygon","coordinates":[[[-40.8800309,-14.8462169,0],[-40.8760934,-14.846694,0],[-40.8761149,-14.842162,0],[-40.8780461,-14.8417886,0],[-40.879988,-14.8422035,0],[-40.8800309,-14.8462169,0]]]}},{"type":"Feature","properties":{"name":"Calcutá","styleUrl":"#poly-000000-1200-77-nodesc","parentBairro":"Ibirapuera","is_reliable":true},"geometry":{"type":"Polygon","coordinates":[[[-40.8642521,-14.8463911,0],[-40.8656291,-14.8462034,0],[-40.8672635,-14.8462646,0],[-40.8678001,-14.8479758,0],[-40.8671569,-14.8482803,0],[-40.864861,-14.8485913,0],[-40.8642521,-14.8463911,0]]]}},{"type":"Feature","properties":{"name":"Alvorada","styleUrl":"#poly-000000-1200-77-nodesc","parentBairro":"Ibirapuera","is_reliable":true},"geometry":{"type":"Polygon","coordinates":[[[-40.8607544,-14.8463911,0],[-40.8613123,-14.8476045,0],[-40.8615805,-14.8492171,0],[-40.8594363,-14.8496258,0],[-40.8542438,-14.8503397,0],[-40.8536644,-14.8459322,0],[-40.8604111,-14.8451881,0],[-40.8638765,-14.8446489,0],[-40.8641179,-14.8457948,0],[-40.8607544,-14.8463911,0]]]}},{"type":"Feature","properties":{"name":"Itapoã","styleUrl":"#poly-000000-1200-77-nodesc","parentBairro":"Ibirapuera","is_reliable":true},"geometry":{"type":"Polygon","coordinates":[[[-40.8536644,-14.8459322,0],[-40.8542438,-14.8503397,0],[-40.8482267,-14.8511631,0],[-40.8479514,-14.8478887,0],[-40.8478421,-14.8465392,0],[-40.8536644,-14.8459322,0]]]}},{"type":"Feature","properties":{"name":"Nova Olinda","styleUrl":"#poly-000000-1200-77-nodesc","parentBairro":"Ibirapuera","is_reliable":false},"geometry":{"type":"Polygon","coordinates":[[[-40.857912,-14.840715,0],[-40.8599505,-14.8415654,0],[-40.8604111,-14.8451881,0],[-40.855427,-14.8457502,0],[-40.8548261,-14.8405026,0],[-40.855899,-14.8403367,0],[-40.857912,-14.840715,0]]]}},{"type":"Feature","properties":{"name":"Lot. Nova Cap","styleUrl":"#poly-000000-1200-77-nodesc","parentBairro":"Ibirapuera","is_reliable":true},"geometry":{"type":"Polygon","coordinates":[[[-40.8548261,-14.8405026,0],[-40.855427,-14.8457502,0],[-40.8536644,-14.8459322,0],[-40.8529689,-14.8412124,0],[-40.8539345,-14.8411087,0],[-40.8538272,-14.8405902,0],[-40.8548261,-14.8405026,0]]]}},{"type":"Feature","properties":{"name":"Lot. Ibirapuera","styleUrl":"#poly-000000-1200-77-nodesc","parentBairro":"Ibirapuera","is_reliable":true},"geometry":{"type":"Polygon","coordinates":[[[-40.8529689,-14.8412124,0],[-40.8536644,-14.8459322,0],[-40.8478421,-14.8465392,0],[-40.847685,-14.8448284,0],[-40.8460957,-14.8427593,0],[-40.8465999,-14.8422278,0],[-40.8472544,-14.8422667,0],[-40.8484024,-14.8407578,0],[-40.8494501,-14.8417627,0],[-40.8521967,-14.8410368,0],[-40.8529689,-14.8412124,0]]]}},{"type":"Feature","properties":{"name":"Santa Terezinha","styleUrl":"#poly-000000-1200-77-nodesc","parentBairro":"Jatobá","is_reliable":true},"geometry":{"type":"Polygon","coordinates":[[[-40.8713441,-14.8731107,0],[-40.8738447,-14.8745931,0],[-40.8711289,-14.881973,0],[-40.8705502,-14.8817586,0],[-40.8713441,-14.8731107,0]]]}},{"type":"Feature","properties":{"name":"Chácaras Reviver","styleUrl":"#poly-000000-1200-77-nodesc","parentBairro":"Jatobá","is_reliable":true},"geometry":{"type":"Polygon","coordinates":[[[-40.8973353,-14.8933722,0],[-40.9003379,-14.8965389,0],[-40.8960908,-14.8977684,0],[-40.8955758,-14.8956532,0],[-40.8908122,-14.897561,0],[-40.886864,-14.8978928,0],[-40.8866065,-14.8965656,0],[-40.8953183,-14.894492,0],[-40.8973353,-14.8933722,0]]]}},{"type":"Feature","properties":{"name":"Nossa Senhora de Lourdes","styleUrl":"#poly-000000-1200-77-nodesc","parentBairro":"Bateias","is_reliable":true},"geometry":{"type":"Polygon","coordinates":[[[-40.8653004,-14.8552363,0],[-40.8655519,-14.85557,0],[-40.8656163,-14.857727,0],[-40.8618182,-14.8568974,0],[-40.8610378,-14.8572418,0],[-40.8608586,-14.8559414,0],[-40.8653004,-14.8552363,0]]]}},{"type":"Feature","properties":{"name":"Conjunto da Vitória","styleUrl":"#poly-000000-1200-77-nodesc","parentBairro":"Patagônia","is_reliable":false},"geometry":{"type":"Polygon","coordinates":[[[-40.8677553,-14.878768,0],[-40.867583,-14.8767376,0],[-40.8711007,-14.8760366,0],[-40.8708665,-14.8783895,0],[-40.8680126,-14.8788043,0],[-40.8677553,-14.878768,0]]]}},{"type":"Feature","properties":{"name":"Vila da Conquista","styleUrl":"#poly-000000-1200-77-nodesc","parentBairro":"Patagônia","is_reliable":true},"geometry":{"type":"Polygon","coordinates":[[[-40.8677553,-14.878768,0],[-40.8680662,-14.8813447,0],[-40.8664084,-14.8815516,0],[-40.8664363,-14.881016,0],[-40.8652776,-14.8811819,0],[-40.8644837,-14.8802279,0],[-40.8643228,-14.8791806,0],[-40.8677553,-14.878768,0]]]}},{"type":"Feature","properties":{"name":"Vila da Conquista IV","styleUrl":"#poly-000000-1200-77-nodesc","parentBairro":"Patagônia","is_reliable":true},"geometry":{"type":"Polygon","coordinates":[[[-40.8708665,-14.8783895,0],[-40.8705982,-14.8811995,0],[-40.8700669,-14.8811472,0],[-40.8680662,-14.8813447,0],[-40.8677553,-14.878768,0],[-40.8708665,-14.8783895,0]]]}},{"type":"Feature","properties":{"name":"Vila da Conquista II","styleUrl":"#poly-000000-1200-77-nodesc","parentBairro":"Patagônia","is_reliable":true},"geometry":{"type":"Polygon","coordinates":[[[-40.8603426,-14.8796536,0],[-40.8611363,-14.8795539,0],[-40.8622521,-14.8808708,0],[-40.8630873,-14.8821968,0],[-40.8625831,-14.8824767,0],[-40.862626,-14.8828085,0],[-40.8589138,-14.8845609,0],[-40.8575665,-14.8825466,0],[-40.8597981,-14.8807009,0],[-40.8603426,-14.8796536,0]]]}},{"type":"Feature","properties":{"name":"Curitiba","styleUrl":"#poly-000000-1200-77-nodesc","parentBairro":"Patagônia","is_reliable":true},"geometry":{"type":"Polygon","coordinates":[[[-40.8584621,-14.876773,0],[-40.8588322,-14.8793238,0],[-40.8592587,-14.8793524,0],[-40.8596449,-14.8797406,0],[-40.8603426,-14.8796536,0],[-40.8597981,-14.8807009,0],[-40.8566546,-14.8770717,0],[-40.8584621,-14.876773,0]]]}},{"type":"Feature","properties":{"name":"Beatriz","styleUrl":"#poly-000000-1200-77-nodesc","parentBairro":"Patagônia","is_reliable":true},"geometry":{"type":"Polygon","coordinates":[[[-40.8588003,-14.8795603,0],[-40.8597981,-14.8807009,0],[-40.8575665,-14.8825466,0],[-40.8565044,-14.8810535,0],[-40.8588003,-14.8795603,0]]]}},{"type":"Feature","properties":{"name":"Parque Mongoiós","styleUrl":"#poly-000000-1200-77-nodesc","parentBairro":"Patagônia","is_reliable":false},"geometry":{"type":"Polygon","coordinates":[[[-40.8566546,-14.8770717,0],[-40.8588003,-14.8795603,0],[-40.8565044,-14.8810535,0],[-40.8547019,-14.8781086,0],[-40.8566546,-14.8770717,0]]]}},{"type":"Feature","properties":{"name":"Parque Santiago","styleUrl":"#poly-000000-1200-77-nodesc","parentBairro":"Patagônia","is_reliable":true},"geometry":{"type":"Polygon","coordinates":[[[-40.8667876,-14.8714432,0],[-40.8625018,-14.8719182,0],[-40.8621585,-14.8698028,0],[-40.8667876,-14.8714432,0]]]}},{"type":"Feature","properties":{"name":"Lot. Patagônia","styleUrl":"#poly-000000-1200-77-nodesc","parentBairro":"Patagônia","is_reliable":true},"geometry":{"type":"Polygon","coordinates":[[[-40.8585487,-14.8685242,0],[-40.8586823,-14.8686282,0],[-40.8621585,-14.8698028,0],[-40.8625018,-14.8719182,0],[-40.8667876,-14.8714432,0],[-40.8675387,-14.8762338,0],[-40.8584621,-14.876773,0],[-40.8566546,-14.8770717,0],[-40.854594,-14.878008,0],[-40.852219,-14.8733003,0],[-40.8507381,-14.8692708,0],[-40.8585487,-14.8685242,0]]]}},{"type":"Feature","properties":{"name":"Leblon","styleUrl":"#poly-000000-1200-77-nodesc","parentBairro":"Jurema","is_reliable":true},"geometry":{"type":"Polygon","coordinates":[[[-40.8448934,-14.862803,0],[-40.8495864,-14.8706953,0],[-40.8445501,-14.8707669,0],[-40.8448934,-14.862803,0]]]}},{"type":"Feature","properties":{"name":"Quincas Brito II","styleUrl":"#poly-000000-1200-77-nodesc","parentBairro":"Jurema","is_reliable":true},"geometry":{"type":"Polygon","coordinates":[[[-40.846228,-14.8708134,0],[-40.8476227,-14.8739242,0],[-40.8487385,-14.8775327,0],[-40.8446401,-14.8776778,0],[-40.8445501,-14.8707669,0],[-40.846228,-14.8708134,0]]]}},{"type":"Feature","properties":{"name":"Ipanema","styleUrl":"#poly-000000-1200-77-nodesc","parentBairro":"Jurema","is_reliable":true},"geometry":{"type":"Polygon","coordinates":[[[-40.846228,-14.8708134,0],[-40.8495864,-14.8706953,0],[-40.8511742,-14.8704464,0],[-40.852219,-14.8733003,0],[-40.8535705,-14.8761146,0],[-40.8487385,-14.8775327,0],[-40.8477515,-14.8740694,0],[-40.846228,-14.8708134,0]]]}},{"type":"Feature","properties":{"name":"Cristo Rei","styleUrl":"#poly-000000-1200-77-nodesc","parentBairro":"Felícia","is_reliable":false},"geometry":{"type":"Polygon","coordinates":[[[-40.8487385,-14.8775327,0],[-40.8535705,-14.8761146,0],[-40.848762,-14.8789695,0],[-40.8487385,-14.8775327,0]]]}},{"type":"Feature","properties":{"name":"Corredor da Felícia","styleUrl":"#poly-000000-1200-77-nodesc","parentBairro":"Felícia","is_reliable":true},"geometry":{"type":"Polygon","coordinates":[[[-40.848762,-14.8789695,0],[-40.8535705,-14.8761146,0],[-40.8550062,-14.878617,0],[-40.8516373,-14.8807945,0],[-40.850028,-14.8809396,0],[-40.848762,-14.8789695,0]]]}},{"type":"Feature","properties":{"name":"Jardim Guanabara","styleUrl":"#poly-000000-1200-77-nodesc","parentBairro":"Felícia","is_reliable":true},"geometry":{"type":"Polygon","coordinates":[[[-40.850028,-14.8809396,0],[-40.8498776,-14.8818037,0],[-40.8495128,-14.8827784,0],[-40.8495557,-14.88676,0],[-40.8446205,-14.8874651,0],[-40.8446401,-14.8776778,0],[-40.8487385,-14.8775327,0],[-40.848762,-14.8789695,0],[-40.850028,-14.8809396,0]]]}},{"type":"Feature","properties":{"name":"Vila Marina","styleUrl":"#poly-000000-1200-77-nodesc","parentBairro":"Felícia","is_reliable":true},"geometry":{"type":"Polygon","coordinates":[[[-40.8446551,-14.896332,0],[-40.8487321,-14.895627,0],[-40.8487321,-14.9018064,0],[-40.8444484,-14.9024863,0],[-40.8446551,-14.896332,0]]]}},{"type":"Feature","properties":{"name":"Morada dos Pássaros III","styleUrl":"#poly-000000-1200-77-nodesc","parentBairro":"Felícia","is_reliable":true},"geometry":{"type":"Polygon","coordinates":[[[-40.8520693,-14.8887532,0],[-40.8513611,-14.8867417,0],[-40.8524179,-14.8869957,0],[-40.8541185,-14.8863788,0],[-40.8566183,-14.8853938,0],[-40.8591288,-14.8858707,0],[-40.8608455,-14.8885251,0],[-40.8528847,-14.8921126,0],[-40.8520693,-14.8887532,0]]]}},{"type":"Feature","properties":{"name":"Recanto dos Pássaros","styleUrl":"#poly-000000-1200-77-nodesc","parentBairro":"Felícia","is_reliable":true},"geometry":{"type":"Polygon","coordinates":[[[-40.8487321,-14.895627,0],[-40.8516187,-14.8952024,0],[-40.8517474,-14.8957208,0],[-40.852198,-14.8956586,0],[-40.8552665,-14.893896,0],[-40.8574551,-14.8975664,0],[-40.8513397,-14.9011123,0],[-40.8487321,-14.9018064,0],[-40.8487321,-14.895627,0]]]}},{"type":"Feature","properties":{"name":"Alameda Morada dos Pássaros","styleUrl":"#poly-000000-1200-77-nodesc","parentBairro":"Felícia","is_reliable":false},"geometry":{"type":"Polygon","coordinates":[[[-40.8552665,-14.893896,0],[-40.852198,-14.8956586,0],[-40.8517474,-14.8957208,0],[-40.8516187,-14.8952024,0],[-40.8446551,-14.896332,0],[-40.844602,-14.894172,0],[-40.8528847,-14.8921126,0],[-40.8556312,-14.8908748,0],[-40.8565968,-14.8929692,0],[-40.8552665,-14.893896,0]]]}},{"type":"Feature","properties":{"name":"Morada dos Pássaros II","styleUrl":"#poly-000000-1200-77-nodesc","parentBairro":"Felícia","is_reliable":true},"geometry":{"type":"Polygon","coordinates":[[[-40.8513611,-14.8867417,0],[-40.8520693,-14.8887532,0],[-40.8516401,-14.8887181,0],[-40.8445376,-14.8899624,0],[-40.8446205,-14.8874651,0],[-40.8495557,-14.88676,0],[-40.8513611,-14.8867417,0]]]}},{"type":"Feature","properties":{"name":"Morada dos Pássaros I","styleUrl":"#poly-000000-1200-77-nodesc","parentBairro":"Felícia","is_reliable":true},"geometry":{"type":"Polygon","coordinates":[[[-40.8520693,-14.8887532,0],[-40.8528847,-14.8921126,0],[-40.844602,-14.894172,0],[-40.8445376,-14.8899624,0],[-40.8516401,-14.8887181,0],[-40.8520693,-14.8887532,0]]]}},{"type":"Feature","properties":{"name":"Nova Esperança (Cruzeiro)","styleUrl":"#poly-000000-1200-77-nodesc","parentBairro":"Cruzeiro","is_reliable":true},"geometry":{"type":"Polygon","coordinates":[[[-40.8297819,-14.8367175,0],[-40.8256078,-14.8427033,0],[-40.8247964,-14.8421578,0],[-40.8182143,-14.8403844,0],[-40.8193197,-14.8389947,0],[-40.8320881,-14.8333279,0],[-40.8297819,-14.8367175,0]]]}},{"type":"Feature","properties":{"name":"Santo Antônio","styleUrl":"#poly-000000-1200-77-nodesc","parentBairro":"Espírito Santo","is_reliable":true},"geometry":{"type":"Polygon","coordinates":[[[-40.8404048,-14.9021782,0],[-40.8413723,-14.9024517,0],[-40.8424451,-14.902488,0],[-40.8424022,-14.904489,0],[-40.8404281,-14.9044735,0],[-40.8404685,-14.9026621,0],[-40.8404048,-14.9021782,0]]]}},{"type":"Feature","properties":{"name":"Lorena","styleUrl":"#poly-000000-1200-77-nodesc","parentBairro":"Espírito Santo","is_reliable":true},"geometry":{"type":"Polygon","coordinates":[[[-40.8424022,-14.904489,0],[-40.8424422,-14.9053017,0],[-40.8443305,-14.9053225,0],[-40.8442458,-14.907373,0],[-40.8404049,-14.9073626,0],[-40.8404281,-14.9044735,0],[-40.8424022,-14.904489,0]]]}},{"type":"Feature","properties":{"name":"Caminho do Parque","styleUrl":"#poly-000000-1200-77-nodesc","parentBairro":"Recreio","is_reliable":false},"geometry":{"type":"Polygon","coordinates":[[[-40.8424686,-14.8695735,0],[-40.8425726,-14.8708912,0],[-40.8365001,-14.8712645,0],[-40.8329113,-14.8715237,0],[-40.8307789,-14.8708743,0],[-40.8346225,-14.8681433,0],[-40.8358457,-14.8669716,0],[-40.8364787,-14.8665214,0],[-40.83791,-14.865643,0],[-40.8405541,-14.8639817,0],[-40.844216,-14.861524,0],[-40.8434449,-14.8641323,0],[-40.8437131,-14.8654464,0],[-40.8435387,-14.8658197,0],[-40.8441154,-14.865996,0],[-40.8434127,-14.8666907,0],[-40.8424256,-14.8670641,0],[-40.8424686,-14.8695735,0]]]}},{"type":"Feature","properties":{"name":"Quincas Brito","styleUrl":"#poly-000000-1200-77-nodesc","parentBairro":"Recreio","is_reliable":true},"geometry":{"type":"Polygon","coordinates":[[[-40.8437131,-14.8654464,0],[-40.8434449,-14.8641323,0],[-40.844216,-14.861524,0],[-40.8448076,-14.862803,0],[-40.8446572,-14.8665663,0],[-40.8445501,-14.8707669,0],[-40.8425726,-14.8708912,0],[-40.8424256,-14.8670641,0],[-40.8434127,-14.8666907,0],[-40.8441154,-14.865996,0],[-40.8435387,-14.8658197,0],[-40.8437131,-14.8654464,0]]]}},{"type":"Feature","properties":{"name":"Parque da Colina","styleUrl":"#poly-000000-1200-77-nodesc","parentBairro":"Alto Maron","is_reliable":true},"geometry":{"type":"Polygon","coordinates":[[[-40.8228735,-14.8416883,0],[-40.8247964,-14.8421578,0],[-40.8257703,-14.8428046,0],[-40.8256094,-14.8436343,0],[-40.8227234,-14.8432506,0],[-40.8228735,-14.8416883,0]]]}},{"type":"Feature","properties":{"name":"Alto da Colina","styleUrl":"#poly-000000-1200-77-nodesc","parentBairro":"Alto Maron","is_reliable":true},"geometry":{"type":"Polygon","coordinates":[[[-40.8256094,-14.8436343,0],[-40.8254056,-14.8455694,0],[-40.8225946,-14.8452711,0],[-40.8227234,-14.8432506,0],[-40.8256094,-14.8436343,0]]]}},{"type":"Feature","properties":{"name":"Panorama I","styleUrl":"#poly-000000-1200-77-nodesc","parentBairro":"Alto Maron","is_reliable":true},"geometry":{"type":"Polygon","coordinates":[[[-40.8253734,-14.8455798,0],[-40.8252738,-14.8469912,0],[-40.8239219,-14.8467008,0],[-40.8223341,-14.8470949,0],[-40.8213041,-14.8469082,0],[-40.8209822,-14.8469705,0],[-40.8202956,-14.8464312,0],[-40.8214037,-14.8455826,0],[-40.8225624,-14.8452815,0],[-40.8253734,-14.8455798,0]]]}},{"type":"Feature","properties":{"name":"Figueira Câmara","styleUrl":"#poly-000000-1200-77-nodesc","parentBairro":"Alto Maron","is_reliable":true},"geometry":{"type":"Polygon","coordinates":[[[-40.825306,-14.8469808,0],[-40.8251695,-14.8483408,0],[-40.8226375,-14.8481749,0],[-40.8219881,-14.8486544,0],[-40.8214517,-14.8481463,0],[-40.8214088,-14.8473892,0],[-40.8210144,-14.8469601,0],[-40.8213363,-14.8468978,0],[-40.8223663,-14.8470845,0],[-40.8239541,-14.8466904,0],[-40.825306,-14.8469808,0]]]}},{"type":"Feature","properties":{"name":"Virgílio Figueira","styleUrl":"#poly-000000-1200-77-nodesc","parentBairro":"Alto Maron","is_reliable":false},"geometry":{"type":"Polygon","coordinates":[[[-40.825191,-14.8483408,0],[-40.8251765,-14.8491137,0],[-40.8259704,-14.8502337,0],[-40.8273759,-14.851447,0],[-40.8279123,-14.8521522,0],[-40.8282127,-14.8528367,0],[-40.8241622,-14.8538264,0],[-40.8239941,-14.8533901,0],[-40.8241516,-14.8526834,0],[-40.8237345,-14.8520897,0],[-40.8244238,-14.8512964,0],[-40.825191,-14.8483408,0]]]}},{"type":"Feature","properties":{"name":"Fernando Flores","styleUrl":"#poly-000000-1200-77-nodesc","parentBairro":"Alto Maron","is_reliable":true},"geometry":{"type":"Polygon","coordinates":[[[-40.8236221,-14.8540138,0],[-40.8241622,-14.8538264,0],[-40.8265224,-14.8532689,0],[-40.8303634,-14.8557889,0],[-40.8287572,-14.8569958,0],[-40.8236221,-14.8540138,0]]]}},{"type":"Feature","properties":{"name":"Amendoeiras","styleUrl":"#poly-000000-1200-77-nodesc","parentBairro":"Alto Maron","is_reliable":true},"geometry":{"type":"Polygon","coordinates":[[[-40.8279923,-14.8542333,0],[-40.8311788,-14.8529475,0],[-40.8320478,-14.85456,0],[-40.8303634,-14.8557889,0],[-40.8279923,-14.8542333,0]]]}},{"type":"Feature","properties":{"name":"Alto do Panorama","styleUrl":"#poly-000000-1200-77-nodesc","parentBairro":"Alto Maron","is_reliable":true},"geometry":{"type":"Polygon","coordinates":[[[-40.8203278,-14.8464208,0],[-40.8214088,-14.8473892,0],[-40.8214517,-14.8481463,0],[-40.8218767,-14.8486575,0],[-40.8214573,-14.8490045,0],[-40.8202995,-14.8506694,0],[-40.8183576,-14.8503583,0],[-40.8177568,-14.8498087,0],[-40.817038,-14.8489375,0],[-40.818776,-14.847133,0],[-40.8203278,-14.8464208,0]]]}},{"type":"Feature","properties":{"name":"Inocoop II","styleUrl":"#poly-000000-1200-77-nodesc","parentBairro":"Candeias","is_reliable":true},"geometry":{"type":"Polygon","coordinates":[[[-40.8191899,-14.8659389,0],[-40.8194213,-14.8665685,0],[-40.8219318,-14.8680928,0],[-40.8211932,-14.86925,0],[-40.8207602,-14.8697877,0],[-40.8204666,-14.8696824,0],[-40.8172158,-14.8691172,0],[-40.8191899,-14.8659389,0]]]}},{"type":"Feature","properties":{"name":"Chácaras Candeias","styleUrl":"#poly-000000-1200-77-nodesc","parentBairro":"Candeias","is_reliable":true},"geometry":{"type":"Polygon","coordinates":[[[-40.7980332,-14.8614309,0],[-40.8056609,-14.8619422,0],[-40.8068196,-14.8625229,0],[-40.8069015,-14.8665063,0],[-40.8085323,-14.8675225,0],[-40.8084573,-14.8696172,0],[-40.8113647,-14.8721888,0],[-40.8094764,-14.8749263,0],[-40.8082319,-14.8760462,0],[-40.7984806,-14.8757032,0],[-40.7980332,-14.8614309,0]]]}},{"type":"Feature","properties":{"name":"Jardim das Candeias","styleUrl":"#poly-000000-1200-77-nodesc","parentBairro":"Candeias","is_reliable":false},"geometry":{"type":"Polygon","coordinates":[[[-40.8169019,-14.8645079,0],[-40.8142626,-14.8684069,0],[-40.8068653,-14.8647397,0],[-40.8068276,-14.8625229,0],[-40.8075142,-14.8620459,0],[-40.8106526,-14.8612969,0],[-40.8169019,-14.8645079,0]]]}},{"type":"Feature","properties":{"name":"Inocoop I","styleUrl":"#poly-000000-1200-77-nodesc","parentBairro":"Candeias","is_reliable":true},"geometry":{"type":"Polygon","coordinates":[[[-40.8307789,-14.8708743,0],[-40.8267293,-14.8736051,0],[-40.8240149,-14.8691774,0],[-40.8227489,-14.8698618,0],[-40.8211932,-14.86925,0],[-40.8233643,-14.865911,0],[-40.8264579,-14.867828,0],[-40.8307789,-14.8708743,0]]]}},{"type":"Feature","properties":{"name":"Morada Candeias","styleUrl":"#poly-000000-1200-77-nodesc","parentBairro":"Candeias","is_reliable":true},"geometry":{"type":"Polygon","coordinates":[[[-40.8227438,-14.8698929,0],[-40.8227277,-14.8699292,0],[-40.8220464,-14.871635,0],[-40.8200401,-14.8708158,0],[-40.8207602,-14.8697877,0],[-40.8211932,-14.86925,0],[-40.8227438,-14.8698929,0]]]}},{"type":"Feature","properties":{"name":"Portal Candeias","styleUrl":"#poly-000000-1200-77-nodesc","parentBairro":"Candeias","is_reliable":true},"geometry":{"type":"Polygon","coordinates":[[[-40.8233643,-14.865911,0],[-40.8219318,-14.8680928,0],[-40.8194213,-14.8665685,0],[-40.8191899,-14.8659389,0],[-40.8196888,-14.8655751,0],[-40.8200643,-14.8658032,0],[-40.8210084,-14.8644966,0],[-40.8215771,-14.8648699,0],[-40.8233643,-14.865911,0]]]}},{"type":"Feature","properties":{"name":"Vivenda Candeal","styleUrl":"#poly-000000-1200-77-nodesc","parentBairro":"Candeias","is_reliable":true},"geometry":{"type":"Polygon","coordinates":[[[-40.8210084,-14.8644966,0],[-40.8200643,-14.8658032,0],[-40.8171246,-14.8641026,0],[-40.8168939,-14.8645079,0],[-40.8148179,-14.8634078,0],[-40.8152685,-14.8627545,0],[-40.8164916,-14.8635323,0],[-40.8174357,-14.8621427,0],[-40.8210084,-14.8644966,0]]]}},{"type":"Feature","properties":{"name":"Vivenda Candeias","styleUrl":"#poly-000000-1200-77-nodesc","parentBairro":"Candeias","is_reliable":true},"geometry":{"type":"Polygon","coordinates":[[[-40.8133642,-14.8597645,0],[-40.8174357,-14.8621427,0],[-40.8164916,-14.8635323,0],[-40.8152685,-14.8627545,0],[-40.8148179,-14.8634078,0],[-40.8106526,-14.8612969,0],[-40.811669,-14.8609259,0],[-40.8133642,-14.8597645,0]]]}},{"type":"Feature","properties":{"name":"Alto Candeias","styleUrl":"#poly-000000-1200-77-nodesc","parentBairro":"Candeias","is_reliable":false},"geometry":{"type":"Polygon","coordinates":[[[-40.8167984,-14.8577149,0],[-40.8147893,-14.8589387,0],[-40.8137808,-14.8580054,0],[-40.8132658,-14.8575698,0],[-40.8124718,-14.8568024,0],[-40.8142677,-14.8563565,0],[-40.8167984,-14.8577149,0]]]}},{"type":"Feature","properties":{"name":"Morada Primavera","styleUrl":"#poly-000000-1200-77-nodesc","parentBairro":"Candeias","is_reliable":true},"geometry":{"type":"Polygon","coordinates":[[[-40.8132658,-14.8575698,0],[-40.8147893,-14.8589387,0],[-40.8133642,-14.8597645,0],[-40.8114124,-14.8586406,0],[-40.8132658,-14.8575698,0]]]}},{"type":"Feature","properties":{"name":"Vista Alegre","styleUrl":"#poly-000000-1200-77-nodesc","parentBairro":"Candeias","is_reliable":true},"geometry":{"type":"Polygon","coordinates":[[[-40.8124718,-14.8568024,0],[-40.8132658,-14.8575698,0],[-40.8114124,-14.8586406,0],[-40.8095045,-14.8575426,0],[-40.8124718,-14.8568024,0]]]}},{"type":"Feature","properties":{"name":"Parque Candeias","styleUrl":"#poly-000000-1200-77-nodesc","parentBairro":"Candeias","is_reliable":true},"geometry":{"type":"Polygon","coordinates":[[[-40.8275004,-14.8562579,0],[-40.8330488,-14.8597335,0],[-40.8264579,-14.867828,0],[-40.819324,-14.8634389,0],[-40.8174357,-14.8621427,0],[-40.8133642,-14.8597645,0],[-40.8168413,-14.8577253,0],[-40.8222487,-14.8608984,0],[-40.8253641,-14.8560051,0],[-40.8269292,-14.857007,0],[-40.8275004,-14.8562579,0]]]}},{"type":"Feature","properties":{"name":"Morada Guanabara","styleUrl":"#poly-000000-1200-77-nodesc","parentBairro":"Boa Vista","is_reliable":true},"geometry":{"type":"Polygon","coordinates":[[[-40.840528,-14.893128,0],[-40.8406005,-14.8850027,0],[-40.8446184,-14.8849507,0],[-40.8445238,-14.8932451,0],[-40.840528,-14.893128,0]]]}},{"type":"Feature","properties":{"name":"Fluminense","styleUrl":"#poly-000000-1200-77-nodesc","parentBairro":"Boa Vista","is_reliable":true},"geometry":{"type":"Polygon","coordinates":[[[-40.8406005,-14.8850027,0],[-40.8406024,-14.8856138,0],[-40.838732,-14.8856292,0],[-40.8387374,-14.8850072,0],[-40.8406005,-14.8850027,0]]]}},{"type":"Feature","properties":{"name":"Chác. Jard. Guanabara","styleUrl":"#poly-000000-1200-77-nodesc","parentBairro":"Boa Vista","is_reliable":false},"geometry":{"type":"Polygon","coordinates":[[[-40.8406239,-14.8894502,0],[-40.8405922,-14.8930923,0],[-40.8396861,-14.893173,0],[-40.8358398,-14.8915296,0],[-40.8367999,-14.8893989,0],[-40.835373,-14.8841523,0],[-40.8350481,-14.8829568,0],[-40.833707,-14.8823035,0],[-40.8336641,-14.8819302,0],[-40.8371044,-14.8819438,0],[-40.8370145,-14.8841316,0],[-40.8370467,-14.8846915,0],[-40.8386989,-14.8846915,0],[-40.8387374,-14.8850072,0],[-40.838732,-14.8856292,0],[-40.8406024,-14.8856138,0],[-40.8406239,-14.8894502,0]]]}},{"type":"Feature","properties":{"name":"Vila América","styleUrl":"#poly-000000-1200-77-nodesc","parentBairro":"Boa Vista","is_reliable":true},"geometry":{"type":"Polygon","coordinates":[[[-40.8367999,-14.8893989,0],[-40.8358398,-14.8915296,0],[-40.8396861,-14.893173,0],[-40.840528,-14.893128,0],[-40.8404984,-14.8935191,0],[-40.8406471,-14.8968441,0],[-40.8404846,-14.9005424,0],[-40.8390148,-14.9009364,0],[-40.8327056,-14.89664,0],[-40.8271884,-14.8968553,0],[-40.827365,-14.8947975,0],[-40.8281161,-14.8933874,0],[-40.8272893,-14.8931335,0],[-40.8274981,-14.8870551,0],[-40.8290373,-14.8870422,0],[-40.8319449,-14.8870111,0],[-40.8340477,-14.8870008,0],[-40.8361613,-14.8870215,0],[-40.8367999,-14.8893989,0]]]}},{"type":"Feature","properties":{"name":"Alto da Boa Vista","styleUrl":"#poly-000000-1200-77-nodesc","parentBairro":"Boa Vista","is_reliable":true},"geometry":{"type":"Polygon","coordinates":[[[-40.835373,-14.8841523,0],[-40.8361613,-14.8870215,0],[-40.8291504,-14.887047,0],[-40.8270176,-14.8850461,0],[-40.8247216,-14.8846106,0],[-40.8222111,-14.8850046,0],[-40.8180912,-14.8824953,0],[-40.8198784,-14.8816687,0],[-40.8221958,-14.8774381,0],[-40.8246787,-14.8750296,0],[-40.829614,-14.8716699,0],[-40.829565,-14.871626,0],[-40.8307789,-14.8708743,0],[-40.8329113,-14.8715237,0],[-40.8321299,-14.8730853,0],[-40.8320226,-14.8818473,0],[-40.8336641,-14.8819302,0],[-40.833707,-14.8823035,0],[-40.8350481,-14.8829568,0],[-40.835373,-14.8841523,0]]]}},{"type":"Feature","properties":{"name":"Esplanada do Parque","styleUrl":"#poly-000000-1200-77-nodesc","parentBairro":"Boa Vista","is_reliable":true},"geometry":{"type":"Polygon","coordinates":[[[-40.8445501,-14.8707669,0],[-40.8446329,-14.8760659,0],[-40.8406633,-14.8761333,0],[-40.840556,-14.874946,0],[-40.839129,-14.8749252,0],[-40.8393168,-14.8711041,0],[-40.8445501,-14.8707669,0]]]}},{"type":"Feature","properties":{"name":"Conquistense","styleUrl":"#poly-000000-1200-77-nodesc","parentBairro":"Boa Vista","is_reliable":true},"geometry":{"type":"Polygon","coordinates":[[[-40.8371044,-14.8819231,0],[-40.840645,-14.8818609,0],[-40.8406005,-14.8850027,0],[-40.8387374,-14.8850072,0],[-40.8386989,-14.8846915,0],[-40.8370467,-14.8846915,0],[-40.8371044,-14.8819231,0]]]}},{"type":"Feature","properties":{"name":"Mariana","styleUrl":"#poly-000000-1200-77-nodesc","parentBairro":"Boa Vista","is_reliable":true},"geometry":{"type":"Polygon","coordinates":[[[-40.8371044,-14.8819231,0],[-40.8371357,-14.8781493,0],[-40.8406547,-14.8781286,0],[-40.840645,-14.8818609,0],[-40.8371044,-14.8819231,0]]]}},{"type":"Feature","properties":{"name":"Morada dos Bem te Vis","styleUrl":"#poly-000000-1200-77-nodesc","parentBairro":"Boa Vista","is_reliable":false},"geometry":{"type":"Polygon","coordinates":[[[-40.840556,-14.874946,0],[-40.8406087,-14.8751339,0],[-40.8406547,-14.8781286,0],[-40.8371357,-14.8781493,0],[-40.8371946,-14.8754338,0],[-40.8371838,-14.8748012,0],[-40.839129,-14.8749252,0],[-40.840556,-14.874946,0]]]}},{"type":"Feature","properties":{"name":"Vila Ana Maria","styleUrl":"#poly-000000-1200-77-nodesc","parentBairro":"Boa Vista","is_reliable":true},"geometry":{"type":"Polygon","coordinates":[[[-40.8446329,-14.8760659,0],[-40.8446184,-14.8849507,0],[-40.8406005,-14.8850027,0],[-40.8406633,-14.8761333,0],[-40.8446329,-14.8760659,0]]]}},{"type":"Feature","properties":{"name":"Chácaras Agroflores","styleUrl":"#poly-000000-1200-77-nodesc","parentBairro":"Lagoa das Flores","is_reliable":true},"geometry":{"type":"Polygon","coordinates":[[[-40.804026,-14.8290917,0],[-40.8022021,-14.8320579,0],[-40.7989405,-14.8306059,0],[-40.8000778,-14.8279093,0],[-40.804026,-14.8290917,0]]]}},{"type":"Feature","properties":{"name":"Alto dos Carvalhos","styleUrl":"#poly-000000-1200-77-nodesc","parentBairro":"Lagoa das Flores","is_reliable":true},"geometry":{"type":"Polygon","coordinates":[[[-40.8053692,-14.8499839,0],[-40.8082881,-14.8492727,0],[-40.8111211,-14.8483125,0],[-40.8109508,-14.8514945,0],[-40.8107551,-14.8532194,0],[-40.810148,-14.8531171,0],[-40.8005761,-14.8528188,0],[-40.8032288,-14.8508861,0],[-40.804173,-14.8504713,0],[-40.8053692,-14.8499839,0]]]}},{"type":"Feature","properties":{"name":"Nova Cidade","styleUrl":"#poly-000000-1200-77-nodesc","parentBairro":"Lagoa das Flores","is_reliable":true},"geometry":{"type":"Polygon","coordinates":[[[-40.8154965,-14.8534017,0],[-40.8153785,-14.8521469,0],[-40.8149064,-14.8521884,0],[-40.8142305,-14.8489943,0],[-40.8150244,-14.8486728,0],[-40.8152068,-14.8483513,0],[-40.8156574,-14.8481335,0],[-40.817038,-14.8489375,0],[-40.8183576,-14.8503583,0],[-40.8202995,-14.8506694,0],[-40.8182816,-14.8534845,0],[-40.8154965,-14.8534017,0]]]}},{"type":"Feature","properties":{"name":"Cidade Alta","styleUrl":"#poly-000000-1200-77-nodesc","parentBairro":"Lagoa das Flores","is_reliable":true},"geometry":{"type":"Polygon","coordinates":[[[-40.8142305,-14.8489943,0],[-40.8149064,-14.8521884,0],[-40.8153785,-14.8521469,0],[-40.8154965,-14.8534017,0],[-40.8132801,-14.853327,0],[-40.8128029,-14.8535857,0],[-40.8107551,-14.8532194,0],[-40.8109508,-14.8514945,0],[-40.8134292,-14.8493374,0],[-40.8142305,-14.8489943,0]]]}},{"type":"Feature","properties":{"name":"Alto do Candeias","styleUrl":"#poly-000000-1200-77-nodesc","parentBairro":"Primavera","is_reliable":false},"geometry":{"type":"Polygon","coordinates":[[[-40.8107551,-14.8532194,0],[-40.8128029,-14.8535857,0],[-40.8132801,-14.853327,0],[-40.8154965,-14.8534017,0],[-40.8182816,-14.8534845,0],[-40.8236221,-14.8540138,0],[-40.8121228,-14.8568932,0],[-40.8105456,-14.8551406,0],[-40.8107551,-14.8532194,0]]]}},{"type":"Feature","properties":{"name":"Miro Cairo","styleUrl":"#poly-000000-1200-77-nodesc","parentBairro":"Zabelê","is_reliable":true},"geometry":{"type":"Polygon","coordinates":[[[-40.8870252,-14.8307954,0],[-40.8898576,-14.8301732,0],[-40.898827,-14.8391339,0],[-40.900523,-14.841294,0],[-40.8996423,-14.843946,0],[-40.8889135,-14.8451075,0],[-40.8870252,-14.8307954,0]]]}},{"type":"Feature","properties":{"name":"Lagoa das Bateias","styleUrl":"#poly-000000-1200-77-nodesc","parentBairro":"Bateias","is_reliable":true},"geometry":{"type":"Polygon","coordinates":[[[-40.8766954,-14.8467101,0],[-40.8757083,-14.8489087,0],[-40.8761804,-14.8524346,0],[-40.8757083,-14.8524139,0],[-40.8751504,-14.8556701,0],[-40.872833,-14.8562924,0],[-40.8719848,-14.8574135,0],[-40.870601,-14.858474,0],[-40.8695125,-14.8569039,0],[-40.8655519,-14.85557,0],[-40.8653004,-14.8552363,0],[-40.8654917,-14.8548573,0],[-40.8653844,-14.8539239,0],[-40.8682169,-14.8510202,0],[-40.8678811,-14.8503854,0],[-40.8676665,-14.8494728,0],[-40.8672159,-14.8494106,0],[-40.8671569,-14.8482803,0],[-40.8678001,-14.8479758,0],[-40.8766954,-14.8467101,0]]]}},{"type":"Feature","properties":{"name":"Antigo Aeroporto","styleUrl":"#poly-000000-1200-77-nodesc","parentBairro":"Bateias","is_reliable":true},"geometry":{"type":"Polygon","coordinates":[[[-40.8695125,-14.8569039,0],[-40.870646,-14.858326,0],[-40.868465,-14.859812,0],[-40.866459,-14.8664566,0],[-40.8690769,-14.8714133,0],[-40.8713789,-14.8729685,0],[-40.8585487,-14.8685242,0],[-40.8554605,-14.8687659,0],[-40.8553747,-14.8669201,0],[-40.8595804,-14.863975,0],[-40.8610378,-14.8572418,0],[-40.8618182,-14.8568974,0],[-40.8677744,-14.8583764,0],[-40.8695125,-14.8569039,0]]]}}],"name":"/tmp/outputs/"}