{"type":"FeatureCollection","features":[{"type":"Feature","_id":"2933307002","geometry":{"type":"Polygon","coordinates":[[[-40.841327,-14.836694],[-40.841695,-14.83712],[-40.84173,-14.837123],[-40.841729,-14.83692],[-40.840424,-14.835172],[-40.83981,-14.834386],[-40.839773,-14.83438],[-40.83971,-14.834448],[-40.839823,-14.834657],[-40.840437,-14.83555],[-40.840536,-14.835584],[-40.841327,-14.836694]]]},"properties":{"cd_unidade":"2933307002","nome":"Guarani","area_km2":0.0068,"area_pct":0.0067,"pop_sem_loteamento":99,"pop_pct":0.0127}},{"type":"Feature","_id":"2933307004","geometry":{"type":"Polygon","coordinates":[[[-40.818932,-14.84795],[-40.819036,-14.848036],[-40.819214,-14.848115],[-40.81933,-14.847984],[-40.819594,-14.847835],[-40.819928,-14.847816],[-40.81997,-14.847116],[-40.820081,-14.846836],[-40.820328,-14.846498],[-40.820582,-14.846251],[-40.821405,-14.845565],[-40.820949,-14.844748],[-40.820864,-14.84454],[-40.820899,-14.8412],[-40.81899,-14.840745],[-40.817981,-14.84047],[-40.813659,-14.845842],[-40.812715,-14.846962],[-40.81222,-14.847437],[-40.811779,-14.847799],[-40.811058,-14.848315],[-40.811072,-14.848413],[-40.811255,-14.848431],[-40.811364,-14.848529],[-40.811374,-14.848573],[-40.811359,-14.848619],[-40.811064,-14.8488],[-40.811016,-14.848877],[-40.810916,-14.851419],[-40.810959,-14.851428],[-40.813319,-14.849389],[-40.814632,-14.848795],[-40.815012,-14.848565],[-40.815925,-14.847904],[-40.816534,-14.848415],[-40.817009,-14.848977],[-40.818768,-14.84724],[-40.818859,-14.84724],[-40.81918,-14.847592],[-40.818932,-14.84795]]]},"properties":{"cd_unidade":"2933307004","nome":"Alto Maron","area_km2":0.6003,"area_pct":0.1686,"pop_sem_loteamento":498,"pop_pct":0.0175}},{"type":"Feature","_id":"2933307009","geometry":{"type":"MultiPolygon","coordinates":[[[[-40.85748,-14.831527],[-40.857307,-14.831165],[-40.857019,-14.830891],[-40.856702,-14.83046],[-40.856523,-14.830327],[-40.856388,-14.830339],[-40.855491,-14.830662],[-40.855189,-14.830696],[-40.855087,-14.830662],[-40.854925,-14.830555],[-40.854387,-14.829979],[-40.854274,-14.829896],[-40.854031,-14.829787],[-40.853721,-14.829744],[-40.853546,-14.829765],[-40.853074,-14.8299],[-40.852802,-14.830021],[-40.852604,-14.830048],[-40.851853,-14.829971],[-40.851353,-14.829737],[-40.851705,-14.829186],[-40.851179,-14.828034],[-40.849744,-14.827899],[-40.848784,-14.828161],[-40.847806,-14.829141],[-40.848047,-14.829905],[-40.847104,-14.830451],[-40.846781,-14.830518],[-40.846266,-14.830362],[-40.845269,-14.829845],[-40.844566,-14.829643],[-40.844287,-14.829612],[-40.841955,-14.829561],[-40.841407,-14.829577],[-40.840543,-14.829677],[-40.839811,-14.829799],[-40.839498,-14.829983],[-40.839542,-14.829747],[-40.839515,-14.829531],[-40.83942,-14.829394],[-40.838281,-14.828849],[-40.838262,-14.828875],[-40.838269,-14.830907],[-40.838107,-14.831063],[-40.837669,-14.831599],[-40.840424,-14.835172],[-40.841755,-14.836955],[-40.843369,-14.839027],[-40.843459,-14.839092],[-40.846286,-14.838875],[-40.846311,-14.838855],[-40.846289,-14.83822],[-40.846308,-14.837539],[-40.846413,-14.837533],[-40.846434,-14.837507],[-40.846276,-14.835765],[-40.846248,-14.835744],[-40.84589,-14.835792],[-40.84578,-14.835524],[-40.845615,-14.835375],[-40.845598,-14.835329],[-40.845624,-14.835246],[-40.845675,-14.835202],[-40.845901,-14.83513],[-40.846027,-14.835057],[-40.846092,-14.834892],[-40.846133,-14.834661],[-40.846183,-14.834367],[-40.84617,-14.83422],[-40.846136,-14.834009],[-40.845921,-14.833798],[-40.845871,-14.833678],[-40.845842,-14.833522],[-40.845887,-14.832888],[-40.845853,-14.832702],[-40.8458,-14.83258],[-40.845583,-14.832368],[-40.846719,-14.832448],[-40.847167,-14.832569],[-40.847373,-14.832652],[-40.847823,-14.832962],[-40.848077,-14.833178],[-40.848152,-14.833286],[-40.848204,-14.833695],[-40.84823,-14.833718],[-40.849149,-14.833423],[-40.850129,-14.833214],[-40.85008,-14.832694],[-40.850319,-14.832611],[-40.850533,-14.832583],[-40.851306,-14.8329],[-40.853097,-14.833728],[-40.853314,-14.833933],[-40.853784,-14.834608],[-40.854224,-14.83506],[-40.854506,-14.834867],[-40.855299,-14.834228],[-40.855337,-14.83423],[-40.856268,-14.833323],[-40.856526,-14.833018],[-40.856755,-14.832253],[-40.85748,-14.831527]]],[[[-40.866317,-14.805498],[-40.859938,-14.804119],[-40.857124,-14.804702],[-40.85713,-14.805478],[-40.855818,-14.808858],[-40.854703,-14.809978],[-40.852315,-14.813936],[-40.85151,-14.814506],[-40.851193,-14.815113],[-40.850443,-14.816105],[-40.849777,-14.816883],[-40.848607,-14.817756],[-40.849335,-14.82346],[-40.849177,-14.824468],[-40.849215,-14.825161],[-40.86217,-14.824581],[-40.862217,-14.824356],[-40.862658,-14.823415],[-40.863794,-14.821424],[-40.863914,-14.821168],[-40.864216,-14.820876],[-40.864615,-14.820604],[-40.86502,-14.820418],[-40.865265,-14.820261],[-40.86549,-14.820024],[-40.865715,-14.819694],[-40.865853,-14.819422],[-40.865934,-14.819117],[-40.865996,-14.818707],[-40.865996,-14.818197],[-40.865661,-14.816749],[-40.865508,-14.816287],[-40.865456,-14.81533],[-40.865537,-14.814738],[-40.866027,-14.812597],[-40.866213,-14.811289],[-40.866272,-14.810434],[-40.866402,-14.809731],[-40.866495,-14.809615],[-40.866806,-14.808631],[-40.866865,-14.80795],[-40.866724,-14.807449],[-40.866317,-14.805498]]]]},"properties":{"cd_unidade":"2933307009","nome":"Nossa Senhora Aparecida","area_km2":4.3925,"area_pct":0.8843,"pop_sem_loteamento":355,"pop_pct":0.078}},{"type":"Feature","_id":"2933307010","geometry":{"type":"Polygon","coordinates":[[[-40.800488,-14.852793],[-40.799151,-14.85254],[-40.79792,-14.852525],[-40.796141,-14.852162],[-40.795156,-14.851882],[-40.794004,-14.851694],[-40.792133,-14.85127],[-40.791754,-14.851118],[-40.790352,-14.850341],[-40.789672,-14.85001],[-40.785305,-14.847682],[-40.784616,-14.847276],[-40.783124,-14.846193],[-40.782751,-14.845749],[-40.781293,-14.843236],[-40.780667,-14.842229],[-40.774731,-14.845723],[-40.771364,-14.851967],[-40.771325,-14.852071],[-40.770887,-14.85557],[-40.771111,-14.856002],[-40.772874,-14.859065],[-40.77239,-14.859175],[-40.772162,-14.859183],[-40.769799,-14.858929],[-40.768923,-14.8589],[-40.768895,-14.858929],[-40.767507,-14.858964],[-40.767454,-14.858913],[-40.768874,-14.858897],[-40.768955,-14.858231],[-40.766855,-14.857982],[-40.766811,-14.857884],[-40.766847,-14.857748],[-40.765909,-14.856984],[-40.763364,-14.854563],[-40.76352,-14.85437],[-40.765557,-14.855691],[-40.765596,-14.855683],[-40.765632,-14.855629],[-40.765621,-14.855598],[-40.763675,-14.854331],[-40.765346,-14.851929],[-40.767816,-14.853243],[-40.76645,-14.855508],[-40.765943,-14.855184],[-40.765609,-14.855698],[-40.765619,-14.855731],[-40.766377,-14.856212],[-40.766419,-14.856119],[-40.766035,-14.855868],[-40.766126,-14.85574],[-40.766497,-14.855974],[-40.766532,-14.855967],[-40.766757,-14.855556],[-40.768399,-14.852993],[-40.768415,-14.852923],[-40.76838,-14.852869],[-40.765775,-14.851243],[-40.767182,-14.849035],[-40.767171,-14.849002],[-40.76672,-14.84872],[-40.769244,-14.844826],[-40.771502,-14.845959],[-40.771942,-14.845294],[-40.77203,-14.845324],[-40.772074,-14.845371],[-40.772106,-14.845362],[-40.772585,-14.844609],[-40.774733,-14.845699],[-40.780647,-14.842217],[-40.780659,-14.842187],[-40.77803,-14.837899],[-40.777718,-14.837653],[-40.774908,-14.836275],[-40.773986,-14.835728],[-40.772837,-14.834795],[-40.771379,-14.833548],[-40.76798,-14.830823],[-40.766735,-14.829866],[-40.766701,-14.829869],[-40.766617,-14.829977],[-40.765857,-14.829209],[-40.765722,-14.829021],[-40.765534,-14.828659],[-40.764234,-14.82747],[-40.763213,-14.827008],[-40.762599,-14.826974],[-40.761933,-14.827046],[-40.76116,-14.826916],[-40.760217,-14.826847],[-40.758988,-14.82622],[-40.757643,-14.827746],[-40.756944,-14.828612],[-40.755503,-14.831269],[-40.753842,-14.832738],[-40.751532,-14.837959],[-40.751162,-14.83924],[-40.748551,-14.843965],[-40.743866,-14.85211],[-40.743393,-14.853164],[-40.743376,-14.853599],[-40.743471,-14.854067],[-40.74402,-14.855229],[-40.74491,-14.856913],[-40.746316,-14.859821],[-40.748364,-14.864513],[-40.75076,-14.864573],[-40.76376,-14.864684],[-40.764942,-14.864637],[-40.766592,-14.864425],[-40.766706,-14.864385],[-40.769105,-14.864049],[-40.769318,-14.863843],[-40.76989,-14.863734],[-40.769725,-14.86267],[-40.769798,-14.862682],[-40.769856,-14.862655],[-40.769822,-14.862411],[-40.774137,-14.862094],[-40.773871,-14.858398],[-40.773152,-14.854609],[-40.772375,-14.850868],[-40.772418,-14.850775],[-40.775927,-14.850147],[-40.777325,-14.857421],[-40.777451,-14.857866],[-40.777574,-14.858109],[-40.776031,-14.858395],[-40.773927,-14.858857],[-40.774159,-14.862077],[-40.774183,-14.862102],[-40.778282,-14.861812],[-40.778378,-14.862306],[-40.779763,-14.862132],[-40.780042,-14.86222],[-40.780328,-14.862455],[-40.786037,-14.861642],[-40.786054,-14.861608],[-40.785266,-14.859248],[-40.784588,-14.85738],[-40.784322,-14.856749],[-40.784697,-14.856672],[-40.785841,-14.856622],[-40.786961,-14.856492],[-40.789116,-14.856172],[-40.793322,-14.855613],[-40.797522,-14.854955],[-40.798258,-14.854873],[-40.798657,-14.854307],[-40.799026,-14.853937],[-40.800499,-14.852841],[-40.800488,-14.852793]]]},"properties":{"cd_unidade":"2933307010","nome":"Primavera","area_km2":12.8239,"area_pct":0.7908,"pop_sem_loteamento":379,"pop_pct":0.0455}},{"type":"Feature","_id":"2933307011","geometry":{"type":"Polygon","coordinates":[[[-40.817369,-14.881885],[-40.814083,-14.879858],[-40.813965,-14.879726],[-40.813932,-14.879735],[-40.813422,-14.880499],[-40.813287,-14.880518],[-40.813207,-14.880429],[-40.8137,-14.879714],[-40.813622,-14.879559],[-40.808154,-14.87606],[-40.808052,-14.87603],[-40.802894,-14.875858],[-40.802861,-14.875926],[-40.799611,-14.875753],[-40.799583,-14.875771],[-40.799563,-14.8773],[-40.799596,-14.877691],[-40.799711,-14.878205],[-40.799858,-14.878568],[-40.800067,-14.878945],[-40.800339,-14.879331],[-40.80058,-14.879596],[-40.801126,-14.879975],[-40.801732,-14.880285],[-40.805637,-14.88217],[-40.809017,-14.883843],[-40.809595,-14.884208],[-40.813525,-14.887431],[-40.813861,-14.887009],[-40.814044,-14.886205],[-40.814211,-14.885946],[-40.81455,-14.885911],[-40.814855,-14.885607],[-40.814937,-14.885338],[-40.815127,-14.885135],[-40.815354,-14.88431],[-40.815244,-14.88416],[-40.815302,-14.88392],[-40.815459,-14.883687],[-40.815896,-14.883651],[-40.816089,-14.883462],[-40.816179,-14.883259],[-40.81626,-14.882932],[-40.816156,-14.882782],[-40.81675,-14.882494],[-40.817219,-14.882029],[-40.817369,-14.88193],[-40.817369,-14.881885]]]},"properties":{"cd_unidade":"2933307011","nome":"Candeias","area_km2":1.1898,"area_pct":0.1373,"pop_sem_loteamento":551,"pop_pct":0.029}},{"type":"Feature","_id":"2933307012","geometry":{"type":"MultiPolygon","coordinates":[[[[-40.840446,-14.902078],[-40.84041,-14.902053],[-40.840441,-14.901276],[-40.84042,-14.900647],[-40.839471,-14.900512],[-40.839247,-14.900449],[-40.838915,-14.900991],[-40.837057,-14.899578],[-40.833831,-14.897202],[-40.833161,-14.896807],[-40.832688,-14.896636],[-40.832159,-14.896528],[-40.831914,-14.896505],[-40.831885,-14.896528],[-40.831887,-14.89663],[-40.83125,-14.896604],[-40.828661,-14.896671],[-40.827174,-14.896679],[-40.827101,-14.898019],[-40.8307,-14.89997],[-40.831834,-14.900538],[-40.832635,-14.900567],[-40.833722,-14.900871],[-40.834437,-14.901255],[-40.835535,-14.901731],[-40.836253,-14.902101],[-40.836548,-14.90222],[-40.840035,-14.902182],[-40.840315,-14.902172],[-40.840435,-14.902111],[-40.840446,-14.902078]]],[[[-40.828636,-14.887044],[-40.828655,-14.88702],[-40.828642,-14.886742],[-40.827658,-14.88598],[-40.827086,-14.885313],[-40.826942,-14.885202],[-40.825925,-14.884881],[-40.82555,-14.884804],[-40.82487,-14.884746],[-40.824228,-14.884807],[-40.823324,-14.885039],[-40.822921,-14.885109],[-40.822486,-14.885136],[-40.822144,-14.885061],[-40.821942,-14.884965],[-40.817375,-14.882168],[-40.817773,-14.881948],[-40.817851,-14.881931],[-40.817945,-14.881851],[-40.81793,-14.881815],[-40.817777,-14.881785],[-40.817527,-14.881827],[-40.81722,-14.882028],[-40.816751,-14.882493],[-40.81618,-14.882773],[-40.816174,-14.882807],[-40.816263,-14.882928],[-40.816179,-14.883259],[-40.816089,-14.883462],[-40.815889,-14.883658],[-40.815452,-14.883698],[-40.815302,-14.88392],[-40.815247,-14.884148],[-40.815357,-14.8843],[-40.815127,-14.885137],[-40.814937,-14.885339],[-40.814858,-14.885604],[-40.814545,-14.885916],[-40.814204,-14.885957],[-40.814044,-14.886207],[-40.813861,-14.88701],[-40.813548,-14.887442],[-40.822943,-14.895278],[-40.82367,-14.895828],[-40.824092,-14.896065],[-40.824339,-14.896168],[-40.824647,-14.89628],[-40.825065,-14.896374],[-40.825593,-14.896431],[-40.827121,-14.896462],[-40.827146,-14.896439],[-40.827156,-14.896123],[-40.827266,-14.895438],[-40.827346,-14.895121],[-40.828123,-14.893327],[-40.8281,-14.8933],[-40.827289,-14.893133],[-40.827499,-14.887055],[-40.828636,-14.887044]]]]},"properties":{"cd_unidade":"2933307012","nome":"Boa Vista","area_km2":1.8721,"area_pct":0.2251,"pop_sem_loteamento":680,"pop_pct":0.0251}},{"type":"Feature","_id":"2933307013","geometry":{"type":"Polygon","coordinates":[[[-40.857471,-14.897502],[-40.854606,-14.899169],[-40.853839,-14.89966],[-40.853829,-14.899693],[-40.853949,-14.899909],[-40.853479,-14.900188],[-40.85322,-14.900168],[-40.852955,-14.900304],[-40.852738,-14.900473],[-40.852445,-14.900873],[-40.85236,-14.900737],[-40.852178,-14.897905],[-40.851251,-14.898097],[-40.848749,-14.898371],[-40.848732,-14.901806],[-40.845967,-14.902245],[-40.845946,-14.902282],[-40.84598,-14.902304],[-40.847616,-14.902323],[-40.848756,-14.902417],[-40.849052,-14.902404],[-40.849784,-14.902283],[-40.850531,-14.902052],[-40.851583,-14.901547],[-40.854023,-14.900122],[-40.854764,-14.899912],[-40.855475,-14.899481],[-40.855997,-14.89897],[-40.858123,-14.897691],[-40.864371,-14.894057],[-40.864376,-14.894023],[-40.862307,-14.890687],[-40.860966,-14.888562],[-40.860899,-14.888531],[-40.860806,-14.888532],[-40.857734,-14.889707],[-40.857055,-14.890122],[-40.856051,-14.89082],[-40.855521,-14.891064],[-40.855869,-14.892023],[-40.856286,-14.893055],[-40.856204,-14.893139],[-40.855453,-14.893438],[-40.855494,-14.893625],[-40.855481,-14.893685],[-40.855268,-14.893859],[-40.857491,-14.897446],[-40.857471,-14.897502]]]},"properties":{"cd_unidade":"2933307013","nome":"Felícia","area_km2":0.8017,"area_pct":0.1799,"pop_sem_loteamento":201,"pop_pct":0.0125}},{"type":"Feature","_id":"2933307016","geometry":{"type":"MultiPolygon","coordinates":[[[[-40.872552,-14.829801],[-40.869303,-14.829632],[-40.86758,-14.829659],[-40.864102,-14.82958],[-40.863956,-14.82968],[-40.863219,-14.829995],[-40.862515,-14.830221],[-40.863155,-14.835164],[-40.863546,-14.835149],[-40.863907,-14.83509],[-40.863927,-14.835061],[-40.862804,-14.831309],[-40.870724,-14.829743],[-40.870848,-14.831861],[-40.870878,-14.831884],[-40.871077,-14.831847],[-40.871149,-14.833644],[-40.871176,-14.833667],[-40.871488,-14.833653],[-40.871512,-14.833626],[-40.871488,-14.831822],[-40.871592,-14.831767],[-40.87261,-14.83172],[-40.872636,-14.831699],[-40.872577,-14.829833],[-40.872552,-14.829801]]],[[[-40.890161,-14.829979],[-40.886667,-14.830422],[-40.886644,-14.830444],[-40.886832,-14.831688],[-40.886856,-14.831711],[-40.88713,-14.831599],[-40.887025,-14.830795],[-40.887657,-14.830657],[-40.887668,-14.830573],[-40.888652,-14.830438],[-40.889858,-14.830173],[-40.890643,-14.830957],[-40.890832,-14.830961],[-40.890887,-14.830865],[-40.890161,-14.829979]]],[[[-40.88174,-14.828054],[-40.879775,-14.828415],[-40.87778,-14.82934],[-40.872653,-14.829446],[-40.872628,-14.829468],[-40.872605,-14.829774],[-40.872634,-14.829795],[-40.877712,-14.829665],[-40.877815,-14.829706],[-40.877856,-14.829764],[-40.8779,-14.830034],[-40.879798,-14.830702],[-40.881779,-14.830443],[-40.882333,-14.830395],[-40.882355,-14.830367],[-40.882335,-14.83021],[-40.882203,-14.829583],[-40.882273,-14.829451],[-40.882337,-14.829423],[-40.8828,-14.829397],[-40.883699,-14.829239],[-40.883792,-14.829202],[-40.883837,-14.829151],[-40.883839,-14.82908],[-40.883713,-14.828275],[-40.883732,-14.828209],[-40.883876,-14.828145],[-40.885102,-14.827969],[-40.885153,-14.827867],[-40.885092,-14.827569],[-40.88174,-14.828054]]],[[[-40.868946,-14.807995],[-40.867247,-14.809161],[-40.866497,-14.809618],[-40.866402,-14.809735],[-40.866272,-14.810433],[-40.866213,-14.811288],[-40.866026,-14.812598],[-40.865538,-14.814738],[-40.865456,-14.81533],[-40.865508,-14.816286],[-40.865661,-14.816748],[-40.865996,-14.818197],[-40.865996,-14.818708],[-40.865909,-14.81921],[-40.86593,-14.81924],[-40.867539,-14.818359],[-40.8711,-14.817544],[-40.871528,-14.817406],[-40.872432,-14.817031],[-40.872676,-14.816884],[-40.873502,-14.813782],[-40.873451,-14.812632],[-40.873085,-14.811157],[-40.872599,-14.809559],[-40.869999,-14.808708],[-40.869504,-14.808402],[-40.868982,-14.807998],[-40.868946,-14.807995]]]]},"properties":{"cd_unidade":"2933307016","nome":"Zabelê","area_km2":1.1052,"area_pct":0.1508,"pop_sem_loteamento":1049,"pop_pct":0.0279}},{"type":"Feature","_id":"2933307017","geometry":{"type":"MultiPolygon","coordinates":[[[[-40.813521,-14.887465],[-40.813519,-14.887429],[-40.810441,-14.884893],[-40.810403,-14.884895],[-40.809344,-14.886448],[-40.808922,-14.887173],[-40.808361,-14.887984],[-40.808372,-14.888015],[-40.809615,-14.88882],[-40.809564,-14.888904],[-40.808771,-14.888402],[-40.808731,-14.888412],[-40.808142,-14.889776],[-40.808675,-14.890353],[-40.80841,-14.890809],[-40.806738,-14.892179],[-40.805918,-14.891276],[-40.805885,-14.891272],[-40.805802,-14.891345],[-40.806972,-14.892681],[-40.807182,-14.892869],[-40.807122,-14.893044],[-40.806684,-14.893776],[-40.806541,-14.893688],[-40.805661,-14.892746],[-40.804878,-14.892712],[-40.804226,-14.89201],[-40.804041,-14.89212],[-40.803973,-14.892123],[-40.803525,-14.891647],[-40.803092,-14.891887],[-40.803046,-14.891893],[-40.802978,-14.891853],[-40.802922,-14.891774],[-40.802871,-14.891331],[-40.802902,-14.890789],[-40.802971,-14.890621],[-40.802594,-14.890137],[-40.801946,-14.890269],[-40.801247,-14.890665],[-40.800453,-14.890119],[-40.799955,-14.889553],[-40.799687,-14.889713],[-40.797801,-14.888107],[-40.797283,-14.888376],[-40.797153,-14.88836],[-40.796498,-14.887496],[-40.796037,-14.88779],[-40.795571,-14.88776],[-40.795252,-14.88788],[-40.79074,-14.882207],[-40.791013,-14.881818],[-40.791525,-14.881541],[-40.792379,-14.880898],[-40.792698,-14.880716],[-40.792914,-14.880554],[-40.794913,-14.87888],[-40.798515,-14.883016],[-40.800522,-14.885253],[-40.801679,-14.886623],[-40.803499,-14.888681],[-40.804304,-14.889666],[-40.805758,-14.891318],[-40.805795,-14.891323],[-40.805883,-14.891244],[-40.805849,-14.891145],[-40.805892,-14.890946],[-40.806238,-14.890676],[-40.806741,-14.889977],[-40.805832,-14.888954],[-40.806726,-14.888221],[-40.806734,-14.888189],[-40.803338,-14.88431],[-40.801143,-14.881917],[-40.807184,-14.884832],[-40.807216,-14.884826],[-40.807368,-14.884644],[-40.807448,-14.884654],[-40.808611,-14.885392],[-40.808632,-14.88553],[-40.809458,-14.885928],[-40.809488,-14.885917],[-40.810266,-14.884754],[-40.809596,-14.884209],[-40.809015,-14.883842],[-40.805637,-14.88217],[-40.801732,-14.880285],[-40.801126,-14.879975],[-40.80058,-14.879596],[-40.80034,-14.879331],[-40.800067,-14.878945],[-40.799858,-14.878567],[-40.799711,-14.878207],[-40.799596,-14.87769],[-40.799562,-14.8773],[-40.799571,-14.875755],[-40.798949,-14.875715],[-40.79892,-14.875736],[-40.798827,-14.876504],[-40.798619,-14.880476],[-40.798631,-14.880703],[-40.799519,-14.881133],[-40.797144,-14.881128],[-40.796959,-14.881044],[-40.796809,-14.880886],[-40.791178,-14.874411],[-40.789664,-14.872601],[-40.787916,-14.870751],[-40.786293,-14.868901],[-40.785521,-14.868074],[-40.784247,-14.866605],[-40.784209,-14.866617],[-40.784128,-14.866815],[-40.783605,-14.866612],[-40.783369,-14.866571],[-40.778791,-14.867295],[-40.778273,-14.867519],[-40.777606,-14.867556],[-40.776604,-14.867731],[-40.776391,-14.867653],[-40.775508,-14.867592],[-40.775409,-14.867607],[-40.775349,-14.867643],[-40.775329,-14.867708],[-40.775381,-14.868011],[-40.775317,-14.868317],[-40.770819,-14.869021],[-40.772414,-14.878855],[-40.773695,-14.881107],[-40.774335,-14.882114],[-40.773731,-14.883115],[-40.773282,-14.88376],[-40.772795,-14.884261],[-40.772347,-14.884637],[-40.771768,-14.885012],[-40.768041,-14.887164],[-40.768054,-14.887503],[-40.768413,-14.888094],[-40.769303,-14.887617],[-40.770655,-14.8892],[-40.770792,-14.889392],[-40.771074,-14.890232],[-40.769082,-14.890301],[-40.769087,-14.891298],[-40.768942,-14.891437],[-40.768269,-14.891698],[-40.768265,-14.891875],[-40.768291,-14.891896],[-40.768917,-14.891908],[-40.769174,-14.89197],[-40.769931,-14.892357],[-40.771354,-14.894812],[-40.774051,-14.895787],[-40.77684,-14.901161],[-40.779667,-14.90308],[-40.781601,-14.905059],[-40.782343,-14.906587],[-40.782437,-14.909174],[-40.78225,-14.911012],[-40.783241,-14.915575],[-40.783778,-14.916882],[-40.784401,-14.918612],[-40.785645,-14.920727],[-40.786946,-14.923131],[-40.787636,-14.924775],[-40.787865,-14.926926],[-40.787899,-14.92871],[-40.787853,-14.930317],[-40.787541,-14.931013],[-40.78748,-14.931642],[-40.787192,-14.93204],[-40.787119,-14.933304],[-40.786735,-14.934025],[-40.78653,-14.934733],[-40.785941,-14.935675],[-40.78583,-14.936753],[-40.786337,-14.936805],[-40.786453,-14.936874],[-40.786685,-14.936873],[-40.786811,-14.936724],[-40.788248,-14.935983],[-40.78841,-14.935965],[-40.788662,-14.936041],[-40.788957,-14.936081],[-40.789291,-14.936087],[-40.789485,-14.936059],[-40.789638,-14.935747],[-40.78977,-14.935317],[-40.789852,-14.935244],[-40.790573,-14.935351],[-40.790799,-14.935443],[-40.790897,-14.935427],[-40.791009,-14.935245],[-40.791016,-14.935161],[-40.790974,-14.935044],[-40.790801,-14.934848],[-40.790784,-14.934737],[-40.790873,-14.934645],[-40.791255,-14.934547],[-40.79149,-14.934402],[-40.792573,-14.933656],[-40.792738,-14.933507],[-40.792976,-14.932758],[-40.792994,-14.932554],[-40.792952,-14.93234],[-40.79303,-14.931281],[-40.793072,-14.93116],[-40.793252,-14.93095],[-40.793234,-14.930783],[-40.793174,-14.930644],[-40.79315,-14.930378],[-40.793366,-14.929996],[-40.793672,-14.929688],[-40.794114,-14.929146],[-40.794324,-14.928854],[-40.794353,-14.928755],[-40.794265,-14.928456],[-40.79421,-14.928072],[-40.793881,-14.927419],[-40.793821,-14.927175],[-40.79384,-14.927031],[-40.794199,-14.92647],[-40.794626,-14.926007],[-40.79478,-14.925367],[-40.794786,-14.925195],[-40.794714,-14.924923],[-40.794714,-14.924553],[-40.794744,-14.924414],[-40.794846,-14.924188],[-40.795079,-14.923917],[-40.795385,-14.923806],[-40.795595,-14.923574],[-40.795745,-14.923301],[-40.796002,-14.922718],[-40.796463,-14.922111],[-40.796596,-14.921738],[-40.796752,-14.921484],[-40.796811,-14.921473],[-40.796947,-14.92152],[-40.797045,-14.921439],[-40.797273,-14.921206],[-40.797566,-14.920726],[-40.797801,-14.920545],[-40.797998,-14.920291],[-40.798112,-14.920069],[-40.798262,-14.919562],[-40.798466,-14.919335],[-40.798615,-14.919116],[-40.798723,-14.918884],[-40.798897,-14.918659],[-40.798973,-14.918516],[-40.799011,-14.918334],[-40.799077,-14.918288],[-40.799508,-14.918253],[-40.799664,-14.918178],[-40.799944,-14.917947],[-40.800095,-14.917715],[-40.800179,-14.917481],[-40.800263,-14.916962],[-40.800359,-14.916919],[-40.800407,-14.916834],[-40.800397,-14.916688],[-40.800281,-14.916603],[-40.800381,-14.91627],[-40.800311,-14.916065],[-40.800442,-14.915731],[-40.800496,-14.915505],[-40.800667,-14.915388],[-40.800712,-14.915213],[-40.801058,-14.914848],[-40.80115,-14.914321],[-40.801192,-14.914217],[-40.801313,-14.914086],[-40.801454,-14.913724],[-40.80145,-14.913337],[-40.801533,-14.913135],[-40.801707,-14.912857],[-40.801809,-14.912759],[-40.802098,-14.912611],[-40.802208,-14.912399],[-40.802305,-14.912099],[-40.802396,-14.911378],[-40.801988,-14.910379],[-40.802116,-14.909213],[-40.803187,-14.907616],[-40.803268,-14.90711],[-40.803697,-14.906586],[-40.804264,-14.906373],[-40.804727,-14.906146],[-40.804804,-14.905819],[-40.804737,-14.905531],[-40.805201,-14.905222],[-40.805742,-14.904728],[-40.806089,-14.904088],[-40.806143,-14.903652],[-40.806354,-14.903372],[-40.806419,-14.902957],[-40.806554,-14.902498],[-40.806908,-14.902204],[-40.80761,-14.901366],[-40.807661,-14.900931],[-40.807965,-14.899826],[-40.808144,-14.899457],[-40.808513,-14.898956],[-40.808612,-14.898728],[-40.808595,-14.898313],[-40.80901,-14.897573],[-40.809294,-14.896863],[-40.80949,-14.896688],[-40.809152,-14.895611],[-40.809247,-14.895375],[-40.809464,-14.895283],[-40.809597,-14.895139],[-40.80943,-14.89466],[-40.809529,-14.894123],[-40.809825,-14.893857],[-40.80998,-14.893772],[-40.810303,-14.893083],[-40.810479,-14.892619],[-40.810635,-14.892524],[-40.81092,-14.89245],[-40.811174,-14.892296],[-40.81136,-14.891778],[-40.811495,-14.891717],[-40.811609,-14.891588],[-40.811595,-14.891179],[-40.81175,-14.890702],[-40.811943,-14.890526],[-40.812104,-14.890484],[-40.812149,-14.890042],[-40.812879,-14.888892],[-40.81284,-14.888617],[-40.813063,-14.888214],[-40.813175,-14.88786],[-40.813521,-14.887465]]],[[[-40.77079,-14.869028],[-40.768295,-14.869401],[-40.768011,-14.869375],[-40.767701,-14.8693],[-40.765934,-14.869534],[-40.765444,-14.870058],[-40.765208,-14.870901],[-40.764943,-14.871272],[-40.764958,-14.871397],[-40.763505,-14.869847],[-40.763603,-14.868826],[-40.76346,-14.868576],[-40.763134,-14.868348],[-40.762625,-14.867835],[-40.762629,-14.867272],[-40.762222,-14.866591],[-40.762167,-14.865923],[-40.76254,-14.865626],[-40.763519,-14.866489],[-40.763577,-14.866505],[-40.763617,-14.866457],[-40.763662,-14.866157],[-40.763796,-14.866046],[-40.763813,-14.865979],[-40.763333,-14.865536],[-40.763083,-14.865205],[-40.763541,-14.864798],[-40.764544,-14.864799],[-40.76564,-14.864732],[-40.765851,-14.864623],[-40.766246,-14.864523],[-40.766249,-14.864476],[-40.764941,-14.864637],[-40.763759,-14.864684],[-40.75076,-14.864573],[-40.748379,-14.86453],[-40.74907,-14.86603],[-40.749064,-14.868317],[-40.747884,-14.86906],[-40.747158,-14.871242],[-40.747905,-14.875328],[-40.747177,-14.878008],[-40.747233,-14.878571],[-40.747282,-14.878572],[-40.74749,-14.87814],[-40.747621,-14.877959],[-40.74883,-14.880228],[-40.750507,-14.880026],[-40.753729,-14.879769],[-40.754317,-14.880581],[-40.755653,-14.880026],[-40.756529,-14.881811],[-40.763266,-14.889707],[-40.764372,-14.889213],[-40.764932,-14.888929],[-40.767897,-14.887242],[-40.76798,-14.887379],[-40.768026,-14.887365],[-40.768014,-14.887148],[-40.767403,-14.88615],[-40.766785,-14.885048],[-40.765412,-14.882741],[-40.766893,-14.881964],[-40.767236,-14.881714],[-40.768181,-14.881229],[-40.769394,-14.880488],[-40.771683,-14.879209],[-40.772253,-14.878952],[-40.772386,-14.878857],[-40.77079,-14.869028]]]]},"properties":{"cd_unidade":"2933307017","nome":"Universidade","area_km2":21.6552,"area_pct":0.7851,"pop_sem_loteamento":1306,"pop_pct":0.5707}},{"type":"Feature","_id":"2933307018","geometry":{"type":"MultiPolygon","coordinates":[[[[-40.843239,-14.923658],[-40.843226,-14.923622],[-40.838439,-14.921828],[-40.837799,-14.921629],[-40.837198,-14.921616],[-40.833612,-14.921746],[-40.833502,-14.92178],[-40.833145,-14.92201],[-40.833015,-14.922052],[-40.832,-14.922182],[-40.830703,-14.922181],[-40.829481,-14.922053],[-40.829419,-14.922113],[-40.829413,-14.922227],[-40.830089,-14.926161],[-40.830181,-14.927076],[-40.83016,-14.927262],[-40.830087,-14.927449],[-40.828047,-14.930008],[-40.827348,-14.930844],[-40.821298,-14.926264],[-40.817967,-14.92872],[-40.814803,-14.927007],[-40.814775,-14.926939],[-40.815111,-14.926376],[-40.815129,-14.926298],[-40.815116,-14.926063],[-40.815188,-14.92577],[-40.815113,-14.924848],[-40.815016,-14.924648],[-40.814879,-14.924463],[-40.814713,-14.92436],[-40.814407,-14.924075],[-40.814043,-14.923466],[-40.813972,-14.923133],[-40.813739,-14.92279],[-40.813678,-14.922603],[-40.813437,-14.922492],[-40.813059,-14.922498],[-40.812941,-14.922438],[-40.812891,-14.92083],[-40.811055,-14.92083],[-40.804823,-14.920705],[-40.804921,-14.914195],[-40.804963,-14.913037],[-40.804511,-14.912831],[-40.803417,-14.912719],[-40.802196,-14.912445],[-40.802097,-14.912613],[-40.801809,-14.912758],[-40.80171,-14.912854],[-40.801533,-14.913135],[-40.80145,-14.91334],[-40.801455,-14.91372],[-40.801312,-14.914089],[-40.801192,-14.914218],[-40.80115,-14.914322],[-40.80106,-14.914849],[-40.800715,-14.915212],[-40.80067,-14.915388],[-40.800495,-14.91551],[-40.800442,-14.915731],[-40.800313,-14.916063],[-40.800383,-14.916267],[-40.800285,-14.916596],[-40.800397,-14.916685],[-40.800406,-14.916837],[-40.800359,-14.916921],[-40.800259,-14.916973],[-40.800179,-14.917482],[-40.800095,-14.917715],[-40.799945,-14.917946],[-40.799664,-14.918178],[-40.799508,-14.918253],[-40.799083,-14.918287],[-40.799012,-14.918335],[-40.798975,-14.918514],[-40.798897,-14.918659],[-40.798723,-14.918884],[-40.798615,-14.919116],[-40.798466,-14.919335],[-40.798262,-14.919564],[-40.798112,-14.920071],[-40.797998,-14.920292],[-40.7978,-14.920546],[-40.797567,-14.920726],[-40.797273,-14.921206],[-40.797045,-14.921438],[-40.796949,-14.921525],[-40.796814,-14.921474],[-40.796747,-14.921491],[-40.796597,-14.921736],[-40.796464,-14.92211],[-40.796003,-14.922718],[-40.795595,-14.923575],[-40.795385,-14.923806],[-40.795077,-14.92392],[-40.794845,-14.924191],[-40.794744,-14.924414],[-40.794714,-14.924553],[-40.794714,-14.924923],[-40.794786,-14.925196],[-40.79478,-14.925369],[-40.794624,-14.926012],[-40.794198,-14.926471],[-40.793842,-14.927027],[-40.793822,-14.927172],[-40.793881,-14.927419],[-40.794211,-14.928074],[-40.794265,-14.928457],[-40.794354,-14.92875],[-40.794326,-14.928852],[-40.794114,-14.929145],[-40.793672,-14.929688],[-40.793366,-14.929996],[-40.793152,-14.930374],[-40.793174,-14.930643],[-40.793234,-14.930784],[-40.793252,-14.930957],[-40.793073,-14.93116],[-40.79303,-14.931283],[-40.792953,-14.932337],[-40.792994,-14.932555],[-40.792976,-14.932757],[-40.792815,-14.933313],[-40.792737,-14.93351],[-40.792574,-14.933656],[-40.79149,-14.934402],[-40.791256,-14.934547],[-40.791086,-14.934592],[-40.791071,-14.934622],[-40.794798,-14.94083],[-40.79482,-14.942258],[-40.795526,-14.945568],[-40.795719,-14.945663],[-40.79581,-14.945676],[-40.795869,-14.945746],[-40.795944,-14.945778],[-40.796129,-14.945728],[-40.796158,-14.945675],[-40.79645,-14.945468],[-40.796609,-14.945456],[-40.796645,-14.945266],[-40.796696,-14.945199],[-40.796713,-14.945114],[-40.79677,-14.94508],[-40.796847,-14.945088],[-40.797018,-14.944879],[-40.797074,-14.944922],[-40.79716,-14.944919],[-40.797283,-14.944714],[-40.79733,-14.944694],[-40.797363,-14.944737],[-40.797302,-14.944809],[-40.79732,-14.944851],[-40.797493,-14.944803],[-40.797579,-14.944893],[-40.797644,-14.944876],[-40.797678,-14.944818],[-40.797654,-14.944719],[-40.797729,-14.944498],[-40.797968,-14.944343],[-40.798117,-14.944376],[-40.798213,-14.94433],[-40.798264,-14.944341],[-40.798285,-14.944411],[-40.798386,-14.944377],[-40.798473,-14.94442],[-40.798641,-14.944335],[-40.798723,-14.944432],[-40.798773,-14.944436],[-40.798854,-14.944324],[-40.798812,-14.944234],[-40.798847,-14.944193],[-40.798913,-14.944198],[-40.798904,-14.944294],[-40.798936,-14.944317],[-40.799074,-14.944252],[-40.799138,-14.944147],[-40.799549,-14.944137],[-40.799753,-14.944254],[-40.799824,-14.944244],[-40.799836,-14.944315],[-40.799903,-14.94433],[-40.800094,-14.94419],[-40.800314,-14.944255],[-40.800433,-14.94421],[-40.800542,-14.944243],[-40.800586,-14.944178],[-40.80059,-14.943974],[-40.800682,-14.943883],[-40.800783,-14.943916],[-40.800958,-14.943903],[-40.801125,-14.944028],[-40.801245,-14.944182],[-40.801382,-14.944186],[-40.801489,-14.944154],[-40.801556,-14.944087],[-40.801571,-14.94396],[-40.801529,-14.943906],[-40.801477,-14.943909],[-40.80145,-14.943722],[-40.801468,-14.94355],[-40.801504,-14.943504],[-40.801563,-14.943496],[-40.801596,-14.943507],[-40.801595,-14.943567],[-40.801636,-14.943628],[-40.801758,-14.943582],[-40.801821,-14.943456],[-40.80189,-14.943422],[-40.801902,-14.943309],[-40.801935,-14.943263],[-40.802143,-14.943277],[-40.802166,-14.943326],[-40.802153,-14.943428],[-40.802206,-14.943449],[-40.802309,-14.943387],[-40.802453,-14.943381],[-40.802576,-14.943321],[-40.802677,-14.943344],[-40.802758,-14.943458],[-40.802828,-14.943461],[-40.802969,-14.943335],[-40.803022,-14.943335],[-40.803163,-14.943493],[-40.803248,-14.94354],[-40.803346,-14.943539],[-40.803513,-14.943431],[-40.803655,-14.943183],[-40.803747,-14.943108],[-40.803821,-14.943088],[-40.804225,-14.943108],[-40.80443,-14.94318],[-40.804558,-14.94326],[-40.804656,-14.943275],[-40.804723,-14.943324],[-40.804828,-14.94333],[-40.80525,-14.943069],[-40.805278,-14.942966],[-40.805378,-14.94292],[-40.805479,-14.942976],[-40.805546,-14.943069],[-40.805754,-14.943061],[-40.80633,-14.942769],[-40.806397,-14.942801],[-40.806432,-14.942861],[-40.806515,-14.94287],[-40.806555,-14.942787],[-40.806893,-14.942802],[-40.807155,-14.94274],[-40.807381,-14.94295],[-40.807597,-14.943079],[-40.807771,-14.943098],[-40.807866,-14.9432],[-40.808032,-14.943273],[-40.808312,-14.943207],[-40.808971,-14.943247],[-40.809137,-14.943333],[-40.809197,-14.943494],[-40.809203,-14.943729],[-40.809263,-14.943956],[-40.809462,-14.944056],[-40.809767,-14.944062],[-40.810011,-14.944016],[-40.810135,-14.9442],[-40.810106,-14.94428],[-40.809976,-14.944308],[-40.809954,-14.944492],[-40.810066,-14.944566],[-40.810236,-14.94455],[-40.810286,-14.944781],[-40.810666,-14.944912],[-40.81111,-14.944952],[-40.811139,-14.945103],[-40.811364,-14.94522],[-40.811621,-14.945164],[-40.811795,-14.945198],[-40.811977,-14.945153],[-40.811975,-14.945332],[-40.812245,-14.945296],[-40.812352,-14.945359],[-40.812483,-14.945377],[-40.812701,-14.945548],[-40.812904,-14.945618],[-40.812952,-14.945681],[-40.812947,-14.945851],[-40.813186,-14.94594],[-40.813333,-14.945971],[-40.813635,-14.945825],[-40.81386,-14.945824],[-40.813984,-14.94576],[-40.814188,-14.9454],[-40.814331,-14.945314],[-40.814497,-14.945348],[-40.814557,-14.945525],[-40.814691,-14.945636],[-40.814823,-14.94566],[-40.814966,-14.945526],[-40.815174,-14.94552],[-40.815544,-14.945768],[-40.815715,-14.945704],[-40.815994,-14.945767],[-40.816208,-14.945951],[-40.816333,-14.946121],[-40.816505,-14.946169],[-40.81654,-14.9463],[-40.81718,-14.94659],[-40.817345,-14.946559],[-40.817733,-14.946742],[-40.817929,-14.946793],[-40.818224,-14.94677],[-40.818492,-14.94665],[-40.818854,-14.94669],[-40.819264,-14.94669],[-40.819538,-14.94665],[-40.819747,-14.946753],[-40.820356,-14.946702],[-40.820572,-14.94661],[-40.820916,-14.946758],[-40.82113,-14.946708],[-40.821207,-14.946604],[-40.821361,-14.94657],[-40.821512,-14.946604],[-40.821751,-14.946599],[-40.821986,-14.946547],[-40.822128,-14.946593],[-40.822259,-14.946679],[-40.822774,-14.947283],[-40.822901,-14.947305],[-40.823205,-14.947463],[-40.823437,-14.947442],[-40.823679,-14.947316],[-40.823792,-14.947362],[-40.823929,-14.947362],[-40.82401,-14.947454],[-40.824303,-14.947437],[-40.82455,-14.947507],[-40.824588,-14.947471],[-40.824707,-14.94746],[-40.824749,-14.947569],[-40.824838,-14.947684],[-40.824835,-14.947766],[-40.824892,-14.947831],[-40.825037,-14.947844],[-40.825367,-14.947787],[-40.825613,-14.947917],[-40.825695,-14.947918],[-40.82618,-14.947718],[-40.826453,-14.947709],[-40.826593,-14.947625],[-40.826624,-14.947544],[-40.826585,-14.947465],[-40.826603,-14.947414],[-40.826834,-14.947339],[-40.827019,-14.947179],[-40.827212,-14.947195],[-40.827305,-14.947147],[-40.827393,-14.946995],[-40.827567,-14.946856],[-40.827601,-14.946771],[-40.827672,-14.946708],[-40.828231,-14.946557],[-40.82832,-14.946443],[-40.828383,-14.946288],[-40.828379,-14.946071],[-40.828457,-14.945979],[-40.828581,-14.945979],[-40.828715,-14.946084],[-40.828785,-14.946088],[-40.828874,-14.946046],[-40.829021,-14.945898],[-40.829312,-14.945847],[-40.829661,-14.945915],[-40.829883,-14.945858],[-40.830114,-14.945892],[-40.830394,-14.945812],[-40.830566,-14.945806],[-40.830655,-14.945726],[-40.830922,-14.945687],[-40.830982,-14.945571],[-40.831102,-14.945496],[-40.831315,-14.945422],[-40.831446,-14.945415],[-40.831558,-14.945347],[-40.832057,-14.945249],[-40.832212,-14.945186],[-40.832515,-14.945307],[-40.832695,-14.945583],[-40.833214,-14.945954],[-40.833538,-14.946082],[-40.833698,-14.946111],[-40.834204,-14.94417],[-40.834719,-14.942795],[-40.836601,-14.938369],[-40.841572,-14.927449],[-40.841529,-14.927421],[-40.841279,-14.927646],[-40.841034,-14.928122],[-40.840733,-14.928002],[-40.840652,-14.92794],[-40.840638,-14.92784],[-40.840752,-14.92773],[-40.841292,-14.926542],[-40.84127,-14.926344],[-40.840957,-14.926133],[-40.840556,-14.925981],[-40.840523,-14.925997],[-40.840056,-14.927057],[-40.839957,-14.927125],[-40.839886,-14.92712],[-40.838226,-14.926417],[-40.83818,-14.926366],[-40.838166,-14.926245],[-40.838568,-14.925372],[-40.838569,-14.925284],[-40.838535,-14.925198],[-40.838342,-14.925162],[-40.838081,-14.925015],[-40.837971,-14.925052],[-40.837905,-14.925137],[-40.837556,-14.925945],[-40.837446,-14.926043],[-40.837355,-14.926037],[-40.835703,-14.925325],[-40.835655,-14.925236],[-40.83566,-14.925138],[-40.836052,-14.9243],[-40.836055,-14.924229],[-40.836023,-14.924127],[-40.835855,-14.924085],[-40.835574,-14.923913],[-40.835413,-14.924009],[-40.835038,-14.924881],[-40.834975,-14.924951],[-40.834847,-14.924955],[-40.833799,-14.924497],[-40.833773,-14.924432],[-40.833788,-14.924337],[-40.834184,-14.923352],[-40.833895,-14.923328],[-40.833693,-14.923347],[-40.833642,-14.923442],[-40.833541,-14.923534],[-40.833147,-14.923711],[-40.833063,-14.924025],[-40.832972,-14.923775],[-40.832775,-14.923715],[-40.832648,-14.923541],[-40.832653,-14.923389],[-40.832693,-14.923269],[-40.832512,-14.922752],[-40.832547,-14.922619],[-40.832672,-14.922533],[-40.833583,-14.9222],[-40.834062,-14.922085],[-40.834362,-14.922082],[-40.834766,-14.922128],[-40.835302,-14.922218],[-40.835735,-14.922344],[-40.836011,-14.922461],[-40.83607,-14.92256],[-40.835637,-14.923481],[-40.8357,-14.923661],[-40.835952,-14.923712],[-40.836126,-14.923855],[-40.836241,-14.923803],[-40.836312,-14.923726],[-40.836704,-14.92287],[-40.836805,-14.922798],[-40.838556,-14.923543],[-40.838578,-14.9236],[-40.838552,-14.923717],[-40.838171,-14.924552],[-40.838211,-14.924738],[-40.838445,-14.924788],[-40.838647,-14.924923],[-40.838811,-14.924835],[-40.839222,-14.923931],[-40.839304,-14.923878],[-40.841019,-14.924599],[-40.841079,-14.924668],[-40.841074,-14.924779],[-40.840598,-14.92585],[-40.841075,-14.926058],[-40.841364,-14.926127],[-40.841669,-14.925896],[-40.841824,-14.925695],[-40.842329,-14.92462],[-40.842643,-14.924428],[-40.84291,-14.923996],[-40.8431,-14.923744],[-40.843239,-14.923658]]],[[[-40.836785,-14.902706],[-40.83678,-14.902244],[-40.836474,-14.902221],[-40.83557,-14.901759],[-40.834436,-14.901254],[-40.833722,-14.900872],[-40.832635,-14.900567],[-40.83188,-14.900557],[-40.831893,-14.900593],[-40.83377,-14.901545],[-40.835986,-14.902577],[-40.836166,-14.90265],[-40.836423,-14.902707],[-40.83676,-14.902732],[-40.836785,-14.902706]]],[[[-40.831559,-14.9004],[-40.830704,-14.899977],[-40.830598,-14.900378],[-40.830497,-14.90056],[-40.83145,-14.901152],[-40.831475,-14.901125],[-40.831489,-14.900544],[-40.831527,-14.900459],[-40.83156,-14.900448],[-40.831559,-14.9004]]],[[[-40.827172,-14.89649],[-40.827147,-14.896463],[-40.825591,-14.896431],[-40.825067,-14.896374],[-40.824636,-14.896278],[-40.824592,-14.896363],[-40.82461,-14.896429],[-40.825223,-14.89657],[-40.826361,-14.896658],[-40.827152,-14.896661],[-40.827172,-14.89649]]],[[[-40.816833,-14.890199],[-40.813558,-14.887461],[-40.81352,-14.887466],[-40.813178,-14.887856],[-40.813063,-14.888214],[-40.812842,-14.888613],[-40.812882,-14.888886],[-40.81215,-14.890041],[-40.812105,-14.890494],[-40.811941,-14.890528],[-40.811749,-14.890706],[-40.811595,-14.891179],[-40.811613,-14.891584],[-40.811496,-14.891718],[-40.81136,-14.891783],[-40.811178,-14.892294],[-40.810919,-14.892451],[-40.810637,-14.892524],[-40.810479,-14.892621],[-40.810303,-14.893083],[-40.809977,-14.893778],[-40.809824,-14.893858],[-40.809527,-14.89413],[-40.809431,-14.894662],[-40.809602,-14.895138],[-40.809464,-14.895284],[-40.809249,-14.895376],[-40.809154,-14.895612],[-40.809495,-14.896689],[-40.809293,-14.896867],[-40.809009,-14.897574],[-40.808878,-14.897802],[-40.809621,-14.898502],[-40.809856,-14.898653],[-40.811015,-14.899072],[-40.81366,-14.896861],[-40.81372,-14.896859],[-40.813777,-14.896775],[-40.813769,-14.896744],[-40.811421,-14.894689],[-40.812048,-14.894066],[-40.812162,-14.894019],[-40.81221,-14.894028],[-40.812953,-14.894649],[-40.812989,-14.89465],[-40.81684,-14.890231],[-40.816833,-14.890199]]]]},"properties":{"cd_unidade":"2933307018","nome":"Espírito Santo","area_km2":12.2452,"area_pct":0.4929,"pop_sem_loteamento":1087,"pop_pct":0.0531}},{"type":"Feature","_id":"2933307019","geometry":{"type":"MultiPolygon","coordinates":[[[[-40.879383,-14.922899],[-40.88037,-14.922234],[-40.881568,-14.921646],[-40.881581,-14.92161],[-40.873906,-14.90925],[-40.866599,-14.897601],[-40.865825,-14.896307],[-40.864405,-14.894069],[-40.864369,-14.894059],[-40.858698,-14.897365],[-40.858736,-14.897491],[-40.858879,-14.897667],[-40.858961,-14.897752],[-40.859229,-14.897891],[-40.859392,-14.898137],[-40.859573,-14.899027],[-40.859905,-14.899725],[-40.860451,-14.901131],[-40.860577,-14.902189],[-40.860894,-14.902612],[-40.860975,-14.903004],[-40.860897,-14.903282],[-40.860576,-14.903803],[-40.859677,-14.904658],[-40.859236,-14.905191],[-40.858822,-14.905832],[-40.858793,-14.906018],[-40.858704,-14.90621],[-40.858702,-14.906333],[-40.858763,-14.906619],[-40.858833,-14.906776],[-40.859174,-14.907265],[-40.859399,-14.907475],[-40.859495,-14.907651],[-40.859431,-14.908842],[-40.859431,-14.910541],[-40.859477,-14.911271],[-40.85916,-14.912319],[-40.85937,-14.913487],[-40.859043,-14.913946],[-40.858382,-14.913764],[-40.858299,-14.914032],[-40.858722,-14.914243],[-40.858656,-14.914664],[-40.858238,-14.915071],[-40.858167,-14.9155],[-40.857979,-14.915868],[-40.857591,-14.916072],[-40.856616,-14.916863],[-40.856618,-14.916898],[-40.856767,-14.917024],[-40.856783,-14.917294],[-40.856735,-14.91732],[-40.856522,-14.917335],[-40.856161,-14.917725],[-40.855893,-14.918294],[-40.855493,-14.918871],[-40.855474,-14.919212],[-40.855378,-14.919414],[-40.855179,-14.919611],[-40.854898,-14.91971],[-40.854814,-14.919911],[-40.854576,-14.920059],[-40.854241,-14.920394],[-40.85407,-14.920635],[-40.854074,-14.921159],[-40.854112,-14.921285],[-40.853881,-14.921826],[-40.853597,-14.922761],[-40.853656,-14.923498],[-40.853602,-14.923846],[-40.853237,-14.924341],[-40.853147,-14.929156],[-40.853424,-14.930099],[-40.853121,-14.930546],[-40.853106,-14.931324],[-40.85322,-14.931414],[-40.853159,-14.931849],[-40.853096,-14.931891],[-40.853081,-14.932658],[-40.853277,-14.932852],[-40.853469,-14.933222],[-40.853343,-14.93349],[-40.853208,-14.933552],[-40.853269,-14.933912],[-40.853165,-14.933963],[-40.853137,-14.93411],[-40.853229,-14.934274],[-40.853098,-14.934597],[-40.853044,-14.934617],[-40.853023,-14.935759],[-40.838229,-14.935341],[-40.841044,-14.928798],[-40.841036,-14.928766],[-40.841005,-14.928764],[-40.840937,-14.928835],[-40.836601,-14.938369],[-40.834719,-14.942795],[-40.834204,-14.944171],[-40.833708,-14.946105],[-40.833737,-14.94612],[-40.834093,-14.946036],[-40.834474,-14.945784],[-40.834759,-14.945704],[-40.834925,-14.945761],[-40.835061,-14.946063],[-40.83569,-14.946461],[-40.837149,-14.94637],[-40.838846,-14.94614],[-40.841924,-14.945543],[-40.84315,-14.944625],[-40.843922,-14.944475],[-40.845608,-14.944567],[-40.846664,-14.944556],[-40.847661,-14.944178],[-40.848651,-14.943097],[-40.849448,-14.941743],[-40.85003,-14.940838],[-40.850734,-14.940263],[-40.850719,-14.94005],[-40.850863,-14.939748],[-40.850837,-14.939517],[-40.850869,-14.939434],[-40.850873,-14.93929],[-40.850825,-14.939153],[-40.850912,-14.939068],[-40.850925,-14.939007],[-40.850813,-14.938713],[-40.850897,-14.938673],[-40.851049,-14.93871],[-40.851161,-14.938667],[-40.851228,-14.938605],[-40.851296,-14.938255],[-40.851259,-14.938148],[-40.851361,-14.938089],[-40.851462,-14.937958],[-40.851541,-14.937907],[-40.851677,-14.937913],[-40.85182,-14.937834],[-40.851856,-14.937749],[-40.851933,-14.937735],[-40.852171,-14.937953],[-40.852276,-14.937931],[-40.852333,-14.937813],[-40.852528,-14.937844],[-40.85271,-14.938008],[-40.85308,-14.937993],[-40.853277,-14.937892],[-40.85368,-14.938011],[-40.854713,-14.937977],[-40.856056,-14.938067],[-40.857207,-14.937575],[-40.857945,-14.937012],[-40.858513,-14.936931],[-40.858848,-14.936679],[-40.859302,-14.936642],[-40.859941,-14.93614],[-40.86031,-14.935898],[-40.860727,-14.935885],[-40.861284,-14.935542],[-40.861695,-14.935539],[-40.862689,-14.934989],[-40.863601,-14.934176],[-40.863863,-14.933854],[-40.864265,-14.933602],[-40.864457,-14.933108],[-40.865002,-14.932729],[-40.865182,-14.932408],[-40.865895,-14.932006],[-40.867071,-14.931019],[-40.867484,-14.930733],[-40.867868,-14.929985],[-40.868403,-14.929284],[-40.868974,-14.928928],[-40.871362,-14.92724],[-40.873358,-14.926287],[-40.876498,-14.925332],[-40.877849,-14.92429],[-40.878623,-14.923186],[-40.879383,-14.922899]]],[[[-40.859535,-14.901656],[-40.859555,-14.901577],[-40.858046,-14.899186],[-40.857989,-14.89918],[-40.855688,-14.900522],[-40.855158,-14.8997],[-40.855127,-14.899692],[-40.855039,-14.899748],[-40.855545,-14.900609],[-40.856071,-14.901395],[-40.857984,-14.902923],[-40.858129,-14.90293],[-40.859058,-14.902396],[-40.859082,-14.902278],[-40.858923,-14.902011],[-40.859535,-14.901656]]]]},"properties":{"cd_unidade":"2933307019","nome":"Aírton Senna","area_km2":9.5168,"area_pct":0.6375,"pop_sem_loteamento":2806,"pop_pct":0.8036}},{"type":"Feature","_id":"2933307020","geometry":{"type":"Polygon","coordinates":[[[-40.895583,-14.895684],[-40.895556,-14.895663],[-40.890812,-14.897561],[-40.886864,-14.897893],[-40.886607,-14.896566],[-40.895288,-14.894499],[-40.895308,-14.894463],[-40.893645,-14.891796],[-40.8922,-14.889127],[-40.891876,-14.888199],[-40.891629,-14.88775],[-40.891408,-14.886935],[-40.891087,-14.886042],[-40.890704,-14.885551],[-40.890265,-14.885065],[-40.889881,-14.88473],[-40.889584,-14.884652],[-40.888952,-14.884656],[-40.887067,-14.883444],[-40.886594,-14.883115],[-40.886135,-14.882729],[-40.885897,-14.882572],[-40.88558,-14.882419],[-40.884728,-14.882237],[-40.884431,-14.882123],[-40.884135,-14.881941],[-40.88354,-14.881311],[-40.883297,-14.881239],[-40.883283,-14.88149],[-40.882515,-14.881035],[-40.882405,-14.881008],[-40.8823,-14.88106],[-40.882174,-14.881262],[-40.881331,-14.880781],[-40.881202,-14.880752],[-40.88115,-14.880786],[-40.881015,-14.88105],[-40.88093,-14.880962],[-40.880702,-14.88101],[-40.880533,-14.882408],[-40.880283,-14.883653],[-40.880308,-14.883965],[-40.879856,-14.886564],[-40.879778,-14.88661],[-40.878967,-14.88638],[-40.87863,-14.886911],[-40.878115,-14.886775],[-40.877834,-14.887772],[-40.877498,-14.888816],[-40.877517,-14.888847],[-40.878062,-14.889014],[-40.878968,-14.889266],[-40.878851,-14.889675],[-40.879301,-14.889792],[-40.879345,-14.889823],[-40.87938,-14.889906],[-40.879292,-14.890299],[-40.878713,-14.890146],[-40.878364,-14.891325],[-40.877868,-14.891038],[-40.877734,-14.891126],[-40.878422,-14.892325],[-40.878487,-14.892495],[-40.878554,-14.892726],[-40.878583,-14.892957],[-40.878578,-14.89309],[-40.878521,-14.893228],[-40.877887,-14.89367],[-40.875388,-14.89518],[-40.871771,-14.897192],[-40.868276,-14.899276],[-40.868267,-14.899309],[-40.868489,-14.899721],[-40.868463,-14.899784],[-40.86816,-14.900055],[-40.880256,-14.919469],[-40.882158,-14.91838],[-40.887123,-14.915098],[-40.888806,-14.913331],[-40.890439,-14.912325],[-40.890363,-14.911437],[-40.891542,-14.910722],[-40.893434,-14.908913],[-40.894919,-14.90341],[-40.895077,-14.902916],[-40.895337,-14.902598],[-40.895246,-14.901701],[-40.895222,-14.901],[-40.895748,-14.900669],[-40.896054,-14.900282],[-40.896267,-14.899824],[-40.896262,-14.899569],[-40.896397,-14.899038],[-40.896354,-14.898318],[-40.896262,-14.897743],[-40.896232,-14.897728],[-40.896091,-14.897768],[-40.895583,-14.895684]]]},"properties":{"cd_unidade":"2933307020","nome":"Jatobá","area_km2":7.1488,"area_pct":0.7305,"pop_sem_loteamento":3401,"pop_pct":0.2775}},{"type":"Feature","_id":"2933307021","geometry":{"type":"MultiPolygon","coordinates":[[[[-40.925402,-14.895915],[-40.926536,-14.887363],[-40.924498,-14.887202],[-40.923289,-14.887142],[-40.919692,-14.886834],[-40.916921,-14.886647],[-40.915331,-14.88645],[-40.914603,-14.886402],[-40.913998,-14.886182],[-40.913594,-14.885966],[-40.912948,-14.88554],[-40.912674,-14.885394],[-40.912449,-14.885314],[-40.91233,-14.88531],[-40.907854,-14.888448],[-40.907807,-14.888777],[-40.907834,-14.888903],[-40.907828,-14.889621],[-40.907785,-14.889748],[-40.90754,-14.890007],[-40.904909,-14.893601],[-40.904717,-14.893596],[-40.904621,-14.893883],[-40.90444,-14.894072],[-40.903949,-14.894385],[-40.899562,-14.896764],[-40.899167,-14.896878],[-40.898036,-14.897003],[-40.89782,-14.897076],[-40.896684,-14.897597],[-40.896277,-14.897718],[-40.896354,-14.898318],[-40.896397,-14.89904],[-40.896263,-14.899567],[-40.896268,-14.899823],[-40.896054,-14.900282],[-40.895745,-14.900672],[-40.895226,-14.901001],[-40.895246,-14.901701],[-40.895322,-14.902478],[-40.895334,-14.902552],[-40.895362,-14.902567],[-40.896343,-14.901516],[-40.897362,-14.900675],[-40.898529,-14.899624],[-40.899034,-14.898888],[-40.899344,-14.89851],[-40.899754,-14.898058],[-40.90028,-14.897574],[-40.900837,-14.897605],[-40.902377,-14.89739],[-40.903863,-14.896859],[-40.904196,-14.896711],[-40.904889,-14.896097],[-40.905121,-14.895927],[-40.906003,-14.894662],[-40.906574,-14.893902],[-40.906855,-14.893986],[-40.907301,-14.894401],[-40.907908,-14.894745],[-40.908121,-14.894821],[-40.908234,-14.894832],[-40.908329,-14.8948],[-40.908704,-14.89544],[-40.911763,-14.896778],[-40.912702,-14.896966],[-40.913029,-14.897057],[-40.91442,-14.897611],[-40.915714,-14.898154],[-40.916249,-14.898449],[-40.916822,-14.898719],[-40.917543,-14.898984],[-40.918866,-14.899549],[-40.919895,-14.899954],[-40.925402,-14.895915]]],[[[-40.893442,-14.891437],[-40.893646,-14.891796],[-40.895323,-14.89448],[-40.896676,-14.893905],[-40.897404,-14.893512],[-40.896627,-14.892539],[-40.896542,-14.892473],[-40.893472,-14.891399],[-40.893442,-14.891437]]],[[[-40.885444,-14.882181],[-40.88541,-14.882108],[-40.884907,-14.8818],[-40.884637,-14.882178],[-40.884729,-14.882237],[-40.885362,-14.882369],[-40.885419,-14.882295],[-40.885444,-14.882181]]],[[[-40.910026,-14.883025],[-40.909801,-14.882427],[-40.908323,-14.88298],[-40.907583,-14.881868],[-40.907569,-14.881339],[-40.9075,-14.881104],[-40.907008,-14.880167],[-40.906427,-14.880235],[-40.90571,-14.880382],[-40.904707,-14.880392],[-40.904004,-14.880353],[-40.902102,-14.880463],[-40.900823,-14.880492],[-40.900614,-14.880541],[-40.900057,-14.880496],[-40.899155,-14.880543],[-40.898394,-14.880693],[-40.897551,-14.880748],[-40.896889,-14.880646],[-40.896673,-14.880574],[-40.895615,-14.880167],[-40.894982,-14.879403],[-40.894655,-14.879257],[-40.894293,-14.879013],[-40.893735,-14.878801],[-40.893499,-14.878678],[-40.893154,-14.878398],[-40.893066,-14.878005],[-40.892982,-14.877882],[-40.892712,-14.877663],[-40.892436,-14.877083],[-40.891987,-14.87646],[-40.891452,-14.876085],[-40.890799,-14.875436],[-40.890723,-14.875308],[-40.89046,-14.874526],[-40.890193,-14.874232],[-40.889357,-14.873665],[-40.888259,-14.874493],[-40.887986,-14.874512],[-40.887781,-14.874619],[-40.887109,-14.874812],[-40.886953,-14.874919],[-40.886936,-14.875389],[-40.88675,-14.875956],[-40.8867,-14.876251],[-40.886716,-14.876509],[-40.886827,-14.876825],[-40.88686,-14.876832],[-40.887594,-14.876447],[-40.887835,-14.876433],[-40.888085,-14.876518],[-40.888242,-14.876759],[-40.888403,-14.876897],[-40.888833,-14.877097],[-40.88934,-14.877253],[-40.889631,-14.877376],[-40.889711,-14.877446],[-40.889878,-14.877719],[-40.889998,-14.878075],[-40.890024,-14.878221],[-40.890015,-14.878447],[-40.889952,-14.879123],[-40.889994,-14.879127],[-40.890361,-14.87871],[-40.890444,-14.878711],[-40.891318,-14.879909],[-40.891347,-14.880044],[-40.891165,-14.881005],[-40.891041,-14.881304],[-40.890898,-14.881487],[-40.891132,-14.881945],[-40.891886,-14.883829],[-40.892632,-14.884245],[-40.893306,-14.884553],[-40.895613,-14.885409],[-40.896286,-14.885577],[-40.896664,-14.88571],[-40.897163,-14.885996],[-40.897916,-14.886692],[-40.898328,-14.886941],[-40.898497,-14.886994],[-40.899319,-14.887083],[-40.901618,-14.887162],[-40.901792,-14.887117],[-40.902305,-14.886834],[-40.90269,-14.886726],[-40.903377,-14.88664],[-40.905808,-14.886463],[-40.905847,-14.886133],[-40.905834,-14.885961],[-40.905553,-14.885068],[-40.905539,-14.884938],[-40.905889,-14.884823],[-40.906049,-14.885201],[-40.906078,-14.885215],[-40.908129,-14.884464],[-40.908144,-14.884433],[-40.907978,-14.884001],[-40.908231,-14.883697],[-40.910015,-14.883056],[-40.910026,-14.883025]]],[[[-40.886684,-14.873941],[-40.886348,-14.872968],[-40.885391,-14.871682],[-40.884167,-14.871095],[-40.883989,-14.871074],[-40.881697,-14.873479],[-40.881342,-14.874701],[-40.88136,-14.874728],[-40.88168,-14.874823],[-40.881832,-14.874278],[-40.881789,-14.874135],[-40.8819,-14.873782],[-40.882,-14.873665],[-40.88202,-14.873597],[-40.883479,-14.871897],[-40.885239,-14.87339],[-40.884157,-14.874599],[-40.883686,-14.875168],[-40.883607,-14.875186],[-40.88346,-14.875092],[-40.882996,-14.875153],[-40.882427,-14.875088],[-40.882425,-14.875126],[-40.88275,-14.875423],[-40.882616,-14.875576],[-40.882618,-14.87561],[-40.883502,-14.875734],[-40.885501,-14.876364],[-40.885577,-14.875995],[-40.885569,-14.875594],[-40.885641,-14.875507],[-40.885894,-14.875526],[-40.886195,-14.875359],[-40.886398,-14.874909],[-40.886684,-14.873941]]]]},"properties":{"cd_unidade":"2933307021","nome":"Campinhos","area_km2":4.2575,"area_pct":0.5995,"pop_sem_loteamento":1131,"pop_pct":0.1189}},{"type":"Feature","_id":"2933307022","geometry":{"type":"Polygon","coordinates":[[[-40.901125,-14.84389],[-40.897417,-14.844057],[-40.897006,-14.844424],[-40.897578,-14.8478],[-40.89577,-14.848031],[-40.895745,-14.848056],[-40.896113,-14.850301],[-40.896475,-14.850772],[-40.897196,-14.852138],[-40.897366,-14.852216],[-40.897512,-14.852398],[-40.898402,-14.85411],[-40.898427,-14.854172],[-40.898336,-14.854305],[-40.899777,-14.857025],[-40.900925,-14.859252],[-40.90092,-14.859302],[-40.89672,-14.861395],[-40.896356,-14.860709],[-40.896245,-14.860732],[-40.896202,-14.860709],[-40.8962,-14.86066],[-40.896286,-14.860576],[-40.895793,-14.859661],[-40.895708,-14.859669],[-40.895543,-14.859605],[-40.893859,-14.860459],[-40.893853,-14.860502],[-40.89406,-14.860651],[-40.895215,-14.860087],[-40.896143,-14.861847],[-40.89422,-14.862813],[-40.893526,-14.861478],[-40.894263,-14.861112],[-40.894269,-14.861081],[-40.894164,-14.860914],[-40.89313,-14.861389],[-40.891792,-14.862076],[-40.890269,-14.859164],[-40.891371,-14.858624],[-40.89138,-14.858583],[-40.886917,-14.855075],[-40.885658,-14.856064],[-40.885556,-14.855574],[-40.884486,-14.853132],[-40.883842,-14.851434],[-40.883653,-14.851173],[-40.883475,-14.850985],[-40.883209,-14.850988],[-40.882968,-14.850932],[-40.880343,-14.85441],[-40.8804,-14.854543],[-40.880396,-14.854653],[-40.880235,-14.854956],[-40.880925,-14.855802],[-40.881004,-14.855976],[-40.879258,-14.856141],[-40.878987,-14.856196],[-40.87356,-14.863292],[-40.872904,-14.864192],[-40.872909,-14.864228],[-40.87312,-14.864366],[-40.873231,-14.864363],[-40.873339,-14.864307],[-40.873157,-14.864563],[-40.872792,-14.865025],[-40.872441,-14.865206],[-40.872287,-14.865339],[-40.871981,-14.866307],[-40.871806,-14.867135],[-40.87144,-14.873174],[-40.871536,-14.873156],[-40.871617,-14.873084],[-40.871658,-14.872979],[-40.871646,-14.872868],[-40.871945,-14.873196],[-40.872615,-14.87357],[-40.875075,-14.874005],[-40.876427,-14.874032],[-40.877121,-14.874117],[-40.878976,-14.873911],[-40.879379,-14.874091],[-40.881298,-14.874798],[-40.881694,-14.873482],[-40.883978,-14.871073],[-40.884165,-14.871094],[-40.885392,-14.871682],[-40.886349,-14.872969],[-40.886685,-14.873942],[-40.8864,-14.874906],[-40.886239,-14.875229],[-40.886222,-14.875348],[-40.887107,-14.874812],[-40.887781,-14.874618],[-40.887986,-14.874511],[-40.888261,-14.87449],[-40.893699,-14.870285],[-40.932291,-14.842087],[-40.932259,-14.842062],[-40.929235,-14.8425],[-40.92836,-14.842583],[-40.926842,-14.842671],[-40.901168,-14.843852],[-40.901125,-14.84389]]]},"properties":{"cd_unidade":"2933307022","nome":"São Pedro","area_km2":9.1047,"area_pct":0.7993,"pop_sem_loteamento":1653,"pop_pct":0.2551}},{"type":"Feature","_id":"2933307023","geometry":{"type":"Polygon","coordinates":[[[-40.832638,-14.802564],[-40.833387,-14.802504],[-40.83672,-14.802724],[-40.837039,-14.802717],[-40.840068,-14.802005],[-40.841154,-14.801629],[-40.841172,-14.8016],[-40.840173,-14.7993],[-40.820355,-14.798452],[-40.818983,-14.798821],[-40.813861,-14.801931],[-40.811681,-14.803097],[-40.810418,-14.8037],[-40.810356,-14.803712],[-40.810218,-14.803674],[-40.808934,-14.80323],[-40.807848,-14.802786],[-40.807183,-14.80267],[-40.807087,-14.80268],[-40.807003,-14.802739],[-40.80664,-14.803337],[-40.806565,-14.803384],[-40.805337,-14.803516],[-40.80327,-14.803836],[-40.80138,-14.803858],[-40.800637,-14.80378],[-40.800569,-14.803798],[-40.800458,-14.803867],[-40.800271,-14.804119],[-40.800072,-14.804493],[-40.799884,-14.804971],[-40.798816,-14.8064],[-40.797803,-14.807665],[-40.797404,-14.807937],[-40.79695,-14.808143],[-40.795636,-14.808241],[-40.795068,-14.808407],[-40.794746,-14.80858],[-40.79429,-14.80873],[-40.793916,-14.808895],[-40.79335,-14.809368],[-40.793217,-14.809515],[-40.793119,-14.80974],[-40.793186,-14.810094],[-40.791907,-14.809471],[-40.790509,-14.808716],[-40.790378,-14.808497],[-40.790279,-14.808552],[-40.790197,-14.808559],[-40.789675,-14.808316],[-40.788694,-14.807763],[-40.786253,-14.806508],[-40.785471,-14.806054],[-40.784205,-14.805415],[-40.783603,-14.805062],[-40.781605,-14.803998],[-40.780454,-14.803464],[-40.779955,-14.803208],[-40.779752,-14.803074],[-40.77933,-14.802936],[-40.778511,-14.802398],[-40.776342,-14.80124],[-40.775969,-14.801152],[-40.776398,-14.800814],[-40.776407,-14.800767],[-40.774702,-14.79983],[-40.778516,-14.797859],[-40.778517,-14.797811],[-40.770816,-14.797552],[-40.77047,-14.797761],[-40.770135,-14.798304],[-40.778193,-14.80254],[-40.784546,-14.805822],[-40.786559,-14.806903],[-40.800195,-14.813981],[-40.807214,-14.817662],[-40.80809,-14.818089],[-40.811014,-14.819643],[-40.812349,-14.820267],[-40.814619,-14.821446],[-40.818613,-14.823616],[-40.823852,-14.82634],[-40.824842,-14.82681],[-40.829453,-14.829218],[-40.83002,-14.829441],[-40.830548,-14.82956],[-40.830849,-14.829594],[-40.832166,-14.829577],[-40.833863,-14.829492],[-40.834313,-14.829501],[-40.834861,-14.829569],[-40.835338,-14.829697],[-40.836074,-14.830045],[-40.836493,-14.830329],[-40.836784,-14.830577],[-40.837042,-14.830846],[-40.837669,-14.831584],[-40.838269,-14.830899],[-40.83825,-14.825636],[-40.837705,-14.823781],[-40.835543,-14.818029],[-40.83295,-14.810827],[-40.832232,-14.808948],[-40.832198,-14.808934],[-40.830228,-14.809616],[-40.827399,-14.809315],[-40.827231,-14.808178],[-40.826303,-14.805885],[-40.828424,-14.804916],[-40.829555,-14.804631],[-40.83004,-14.804423],[-40.830085,-14.804182],[-40.831635,-14.803669],[-40.831647,-14.803636],[-40.831352,-14.802893],[-40.832638,-14.802564]],[[-40.825092,-14.826309],[-40.824844,-14.826474],[-40.82315,-14.825655],[-40.822498,-14.825289],[-40.823187,-14.823274],[-40.824155,-14.820061],[-40.824923,-14.817774],[-40.825349,-14.816411],[-40.826644,-14.816585],[-40.828232,-14.816743],[-40.828728,-14.819072],[-40.82948,-14.82321],[-40.829915,-14.825309],[-40.825092,-14.826309]]]},"properties":{"cd_unidade":"2933307023","nome":"Distrito Industrial","area_km2":9.1046,"area_pct":0.7847,"pop_sem_loteamento":3036,"pop_pct":0.648}},{"type":"Feature","_id":"2933307024","geometry":{"type":"Polygon","coordinates":[[[-40.837323,-14.831646],[-40.837616,-14.831605],[-40.837637,-14.831577],[-40.837042,-14.830845],[-40.836783,-14.830577],[-40.836494,-14.830329],[-40.836073,-14.830044],[-40.835337,-14.829696],[-40.83486,-14.829569],[-40.834312,-14.829501],[-40.833862,-14.829492],[-40.832167,-14.829577],[-40.83085,-14.829594],[-40.830549,-14.82956],[-40.83002,-14.829441],[-40.829454,-14.829218],[-40.824843,-14.82681],[-40.823852,-14.82634],[-40.818613,-14.823615],[-40.814619,-14.821446],[-40.812349,-14.820267],[-40.811014,-14.819643],[-40.80809,-14.818089],[-40.807214,-14.817662],[-40.770142,-14.798326],[-40.77011,-14.798338],[-40.767731,-14.802157],[-40.766766,-14.804042],[-40.764047,-14.808948],[-40.762112,-14.813018],[-40.762217,-14.813082],[-40.764236,-14.813347],[-40.764206,-14.81418],[-40.764153,-14.814655],[-40.764175,-14.814682],[-40.767189,-14.815375],[-40.767346,-14.815331],[-40.767568,-14.815186],[-40.767865,-14.814836],[-40.767988,-14.814618],[-40.768455,-14.815123],[-40.770409,-14.817088],[-40.770926,-14.817645],[-40.771067,-14.817865],[-40.77184,-14.819652],[-40.771409,-14.820002],[-40.770638,-14.82072],[-40.770452,-14.820855],[-40.770288,-14.820923],[-40.769855,-14.821009],[-40.768436,-14.820844],[-40.768318,-14.820899],[-40.768099,-14.821188],[-40.767889,-14.821396],[-40.766915,-14.822135],[-40.766613,-14.822301],[-40.766038,-14.822364],[-40.764997,-14.8223],[-40.764177,-14.822187],[-40.763669,-14.822236],[-40.763199,-14.822348],[-40.762937,-14.822476],[-40.762288,-14.822938],[-40.763063,-14.823889],[-40.763095,-14.823895],[-40.763248,-14.823801],[-40.763659,-14.824249],[-40.76428,-14.823742],[-40.764953,-14.823293],[-40.76614,-14.823296],[-40.766723,-14.823367],[-40.766883,-14.823443],[-40.767463,-14.824403],[-40.765973,-14.825661],[-40.7673,-14.827175],[-40.765698,-14.828528],[-40.765692,-14.828561],[-40.766414,-14.829519],[-40.766747,-14.829809],[-40.766734,-14.829865],[-40.767981,-14.830823],[-40.77187,-14.833939],[-40.772378,-14.834396],[-40.773979,-14.835694],[-40.78075,-14.83261],[-40.780756,-14.832576],[-40.779871,-14.83102],[-40.779855,-14.830946],[-40.779906,-14.830893],[-40.781253,-14.830302],[-40.78805,-14.827175],[-40.788764,-14.826874],[-40.789016,-14.826732],[-40.791939,-14.828185],[-40.791914,-14.827576],[-40.791788,-14.827087],[-40.791767,-14.826844],[-40.791758,-14.82661],[-40.791784,-14.826485],[-40.791831,-14.826439],[-40.792494,-14.826298],[-40.793808,-14.82551],[-40.795929,-14.824138],[-40.796529,-14.823774],[-40.797134,-14.823456],[-40.797403,-14.823665],[-40.798013,-14.824435],[-40.79823,-14.824641],[-40.799839,-14.825709],[-40.801345,-14.824691],[-40.80391,-14.826079],[-40.804549,-14.826467],[-40.804739,-14.82653],[-40.807406,-14.823118],[-40.81223,-14.825665],[-40.812372,-14.825701],[-40.812616,-14.825693],[-40.813303,-14.825474],[-40.811101,-14.828749],[-40.810537,-14.829681],[-40.809737,-14.830865],[-40.807456,-14.834879],[-40.802307,-14.832326],[-40.801819,-14.833186],[-40.800827,-14.832702],[-40.794759,-14.835529],[-40.791622,-14.836852],[-40.788127,-14.838435],[-40.783925,-14.840271],[-40.783912,-14.840305],[-40.784073,-14.840592],[-40.781725,-14.839566],[-40.778243,-14.837824],[-40.778171,-14.837816],[-40.778043,-14.837874],[-40.781293,-14.843236],[-40.78275,-14.845748],[-40.783124,-14.846193],[-40.784615,-14.847276],[-40.785304,-14.847682],[-40.789672,-14.85001],[-40.790352,-14.850341],[-40.791753,-14.851117],[-40.792135,-14.85127],[-40.794005,-14.851694],[-40.795156,-14.851882],[-40.796141,-14.852162],[-40.797918,-14.852525],[-40.799151,-14.85254],[-40.800547,-14.852803],[-40.802852,-14.851109],[-40.803245,-14.850877],[-40.804094,-14.850463],[-40.804531,-14.850302],[-40.805181,-14.850111],[-40.80943,-14.848989],[-40.810237,-14.848691],[-40.811085,-14.848293],[-40.811779,-14.847799],[-40.812221,-14.847436],[-40.812714,-14.846963],[-40.813659,-14.845842],[-40.81684,-14.84189],[-40.817927,-14.840526],[-40.817915,-14.840483],[-40.818511,-14.839787],[-40.818741,-14.839739],[-40.818922,-14.839553],[-40.819112,-14.839452],[-40.819125,-14.839288],[-40.819288,-14.839066],[-40.819374,-14.839001],[-40.819902,-14.838742],[-40.820115,-14.838679],[-40.820662,-14.838372],[-40.82167,-14.838035],[-40.821852,-14.838015],[-40.82201,-14.838038],[-40.822629,-14.838277],[-40.823142,-14.838353],[-40.823387,-14.838331],[-40.823561,-14.838241],[-40.824152,-14.837772],[-40.824593,-14.837486],[-40.824705,-14.837254],[-40.824799,-14.837151],[-40.8249,-14.837115],[-40.825079,-14.837133],[-40.825179,-14.837111],[-40.825437,-14.836905],[-40.825649,-14.836822],[-40.825822,-14.836715],[-40.826327,-14.836298],[-40.82673,-14.836212],[-40.827141,-14.836258],[-40.827283,-14.836214],[-40.827506,-14.835873],[-40.827549,-14.835784],[-40.827532,-14.83575],[-40.828432,-14.835206],[-40.828426,-14.834951],[-40.828525,-14.834782],[-40.828915,-14.834624],[-40.831308,-14.833875],[-40.831552,-14.833755],[-40.83222,-14.833299],[-40.832078,-14.832958],[-40.832671,-14.832618],[-40.834468,-14.831726],[-40.834822,-14.83158],[-40.835016,-14.831649],[-40.83553,-14.831965],[-40.835662,-14.832024],[-40.835859,-14.832058],[-40.836045,-14.832042],[-40.836771,-14.831683],[-40.837027,-14.831618],[-40.837323,-14.831646]]]},"properties":{"cd_unidade":"2933307024","nome":"Lagoa das Flores","area_km2":19.5714,"area_pct":0.7891,"pop_sem_loteamento":4840,"pop_pct":0.8992}}]}